{"type": "FeatureCollection", "name": "CRUILLESMONELLSISANTSADURNIDELHEURA", "features": [{"type": "Feature", "properties": {"id": "550037", "FIREDATE": "2026-07-03T09:34:00", "FINALDATE": "2026-07-05T01:43:00", "LASTUPDATE": "2026-07-03 14:14:51.042385", "COUNTRY": "ES", "PROVINCE": "Girona", "COMMUNE": "Cruïlles, Monells i Sant Sadurní de l'Heura", "AREA_HA": 2030.0, "BROADLEA": 81.4229, "CONIFER": 10.9684, "MIXED": 0.0, "SCLEROPH": 0.0, "TRANSIT": 5.5336, "OTHERNATLC": 0.0, "AGRIAREAS": 2.0257, "ARTIFSURF": 0.0494, "OTHERLC": 0.0, "PERCNA2K": 97.646, "CLASS": "30DAYS", "AÑO": 2026, "LATITUD": 41.892681436689976, "LONGITUD": 3.026641210953252}, "geometry": {"type": "Polygon", "coordinates": [[[3.029597, 41.934594], [3.029444, 41.934379], [3.029263, 41.934137], [3.029056, 41.933868], [3.028927, 41.933677], [3.028879, 41.933563], [3.028843, 41.933434], [3.028822, 41.933288], [3.02867, 41.933104], [3.028387, 41.932882], [3.028144, 41.932616], [3.027941, 41.932307], [3.027714, 41.932005], [3.027463, 41.93171], [3.027282, 41.931475], [3.027171, 41.931299], [3.027024, 41.931139], [3.02684, 41.930993], [3.026661, 41.930851], [3.026486, 41.930714], [3.026372, 41.930594], [3.026318, 41.930492], [3.0262, 41.930372], [3.026019, 41.930235], [3.025875, 41.930051], [3.025768, 41.92982], [3.025699, 41.929541], [3.025666, 41.929214], [3.025644, 41.928966], [3.025632, 41.928796], [3.025629, 41.928704], [3.025637, 41.92869], [3.025657, 41.928666], [3.02569, 41.928633], [3.025735, 41.928589], [3.025791, 41.928536], [3.025847, 41.928497], [3.0259, 41.928472], [3.025952, 41.928461], [3.026003, 41.928465], [3.026089, 41.928471], [3.026211, 41.928479], [3.026368, 41.92849], [3.026561, 41.928504], [3.026731, 41.928504], [3.026876, 41.928491], [3.026998, 41.928464], [3.027096, 41.928424], [3.02722, 41.928419], [3.02737, 41.928447], [3.027546, 41.92851], [3.027749, 41.928607], [3.027915, 41.92868], [3.028046, 41.92873], [3.02814, 41.928757], [3.028198, 41.92876], [3.02825, 41.928738], [3.028296, 41.928689], [3.028337, 41.928614], [3.028371, 41.928514], [3.028407, 41.92841], [3.028443, 41.928304], [3.02848, 41.928195], [3.028518, 41.928083], [3.028579, 41.927972], [3.028663, 41.927862], [3.028769, 41.927753], [3.028898, 41.927645], [3.029032, 41.927546], [3.029171, 41.927457], [3.029315, 41.927376], [3.029465, 41.927306], [3.029567, 41.927233], [3.029622, 41.927159], [3.029631, 41.927083], [3.029592, 41.927005], [3.029559, 41.926896], [3.029531, 41.926755], [3.029507, 41.926584], [3.029489, 41.926381], [3.02948, 41.926187], [3.029481, 41.926003], [3.02949, 41.925829], [3.029509, 41.925665], [3.029527, 41.925511], [3.029543, 41.925367], [3.029559, 41.925234], [3.029573, 41.925111], [3.029588, 41.924989], [3.029606, 41.924868], [3.029624, 41.924749], [3.029645, 41.924632], [3.029664, 41.924524], [3.029682, 41.924427], [3.029699, 41.92434], [3.029715, 41.924264], [3.029746, 41.924187], [3.029792, 41.92411], [3.029855, 41.924033], [3.029933, 41.923955], [3.03001, 41.923877], [3.030089, 41.923797], [3.030167, 41.923716], [3.030245, 41.923633], [3.030377, 41.923565], [3.030562, 41.92351], [3.030801, 41.92347], [3.031094, 41.923444], [3.031346, 41.923407], [3.031558, 41.92336], [3.03173, 41.923302], [3.031862, 41.923233], [3.031981, 41.923174], [3.032087, 41.923125], [3.032179, 41.923084], [3.032258, 41.923054], [3.032327, 41.923024], [3.032386, 41.922994], [3.032434, 41.922965], [3.032472, 41.922937], [3.032505, 41.922917], [3.032535, 41.922906], [3.032562, 41.922903], [3.032584, 41.922909], [3.032603, 41.92291], [3.032618, 41.922905], [3.03263, 41.922895], [3.032639, 41.922879], [3.032651, 41.922859], [3.032667, 41.922834], [3.032686, 41.922805], [3.032708, 41.922772], [3.032743, 41.92275], [3.03279, 41.922739], [3.032848, 41.922739], [3.032919, 41.92275], [3.033014, 41.92275], [3.033134, 41.92274], [3.033278, 41.922719], [3.033446, 41.922688], [3.033607, 41.922654], [3.033759, 41.922618], [3.033903, 41.922579], [3.034039, 41.922537], [3.034164, 41.922496], [3.03428, 41.922457], [3.034385, 41.92242], [3.034481, 41.922384], [3.034592, 41.922322], [3.034718, 41.922235], [3.034861, 41.922122], [3.035019, 41.921983], [3.035168, 41.921853], [3.035307, 41.921732], [3.035436, 41.921621], [3.035556, 41.921518], [3.035661, 41.921431], [3.035752, 41.92136], [3.035828, 41.921306], [3.035889, 41.921267], [3.035962, 41.921218], [3.036046, 41.921157], [3.036141, 41.921086], [3.036247, 41.921003], [3.03636, 41.920913], [3.036479, 41.920814], [3.036605, 41.920708], [3.036738, 41.920593], [3.036862, 41.920491], [3.036978, 41.920403], [3.037084, 41.920328], [3.037183, 41.920267], [3.037288, 41.920203], [3.037401, 41.920139], [3.037521, 41.920072], [3.037648, 41.920004], [3.037765, 41.919933], [3.03787, 41.919859], [3.037964, 41.919782], [3.038047, 41.919702], [3.038143, 41.919619], [3.038253, 41.919533], [3.038376, 41.919443], [3.038512, 41.91935], [3.038629, 41.919254], [3.038729, 41.919156], [3.03881, 41.919056], [3.038873, 41.918954], [3.038917, 41.918852], [3.038943, 41.918751], [3.03895, 41.918651], [3.038939, 41.918552], [3.038928, 41.918464], [3.038917, 41.918386], [3.038906, 41.918319], [3.038895, 41.918262], [3.038873, 41.918196], [3.038841, 41.91812], [3.038797, 41.918034], [3.038743, 41.917939], [3.038706, 41.917863], [3.038689, 41.917807], [3.038689, 41.917772], [3.038709, 41.917756], [3.038785, 41.917672], [3.038918, 41.917519], [3.039107, 41.917297], [3.039354, 41.917006], [3.039596, 41.916696], [3.039833, 41.916367], [3.040065, 41.91602], [3.040292, 41.915653], [3.040467, 41.915373], [3.040592, 41.915179], [3.040665, 41.915071], [3.040687, 41.915049], [3.040645, 41.915023], [3.040539, 41.914993], [3.04037, 41.914958], [3.040137, 41.914918], [3.039959, 41.914842], [3.039836, 41.914728], [3.039768, 41.914576], [3.039755, 41.914388], [3.03973, 41.914211], [3.039692, 41.914047], [3.039643, 41.913894], [3.039581, 41.913754], [3.039533, 41.913648], [3.039498, 41.913578], [3.039476, 41.913542], [3.039468, 41.913542], [3.039418, 41.913503], [3.039328, 41.913425], [3.039197, 41.913309], [3.039025, 41.913155], [3.038886, 41.913032], [3.03878, 41.91294], [3.038707, 41.91288], [3.038667, 41.912851], [3.038647, 41.912803], [3.038646, 41.912735], [3.038664, 41.912647], [3.038703, 41.91254], [3.038752, 41.912444], [3.038814, 41.912361], [3.038886, 41.91229], [3.038971, 41.912231], [3.039039, 41.912165], [3.03909, 41.91209], [3.039126, 41.912009], [3.039144, 41.911919], [3.03918, 41.911838], [3.039231, 41.911763], [3.039299, 41.911697], [3.039384, 41.911638], [3.03951, 41.911584], [3.03968, 41.911534], [3.039892, 41.911489], [3.040147, 41.911448], [3.040372, 41.911401], [3.040568, 41.911346], [3.040735, 41.911285], [3.040872, 41.911217], [3.041011, 41.911132], [3.041152, 41.911032], [3.041294, 41.910916], [3.041439, 41.910783], [3.041563, 41.910636], [3.041668, 41.910475], [3.041753, 41.9103], [3.041818, 41.91011], [3.041877, 41.909947], [3.041931, 41.909812], [3.04198, 41.909704], [3.042024, 41.909622], [3.042178, 41.909541], [3.042442, 41.909459], [3.042815, 41.909376], [3.043299, 41.909293], [3.043741, 41.909215], [3.044142, 41.909143], [3.044501, 41.909075], [3.044819, 41.909013], [3.045119, 41.908968], [3.045403, 41.908939], [3.045669, 41.908927], [3.045919, 41.908931], [3.046125, 41.908957], [3.046288, 41.909004], [3.046407, 41.909072], [3.046483, 41.909161], [3.046561, 41.909256], [3.04664, 41.909355], [3.046721, 41.90946], [3.046803, 41.909569], [3.046909, 41.909677], [3.04704, 41.909783], [3.047194, 41.909888], [3.047372, 41.909991], [3.04755, 41.910071], [3.047729, 41.910129], [3.047908, 41.910164], [3.048088, 41.910176], [3.048259, 41.910183], [3.048423, 41.910185], [3.048579, 41.910181], [3.048726, 41.910172], [3.048874, 41.910139], [3.049023, 41.910081], [3.049173, 41.909999], [3.049323, 41.909893], [3.049463, 41.909802], [3.049592, 41.909727], [3.049711, 41.909667], [3.049819, 41.909623], [3.049922, 41.909578], [3.050017, 41.909533], [3.050106, 41.909487], [3.050189, 41.909441], [3.050252, 41.9094], [3.050295, 41.909364], [3.050318, 41.909334], [3.050321, 41.909308], [3.05029, 41.909239], [3.050225, 41.909128], [3.050126, 41.908974], [3.049994, 41.908777], [3.0499, 41.908612], [3.049847, 41.908478], [3.049832, 41.908377], [3.049857, 41.908307], [3.049894, 41.908234], [3.049942, 41.908156], [3.05, 41.908074], [3.050071, 41.907989], [3.050125, 41.907924], [3.050165, 41.907882], [3.050189, 41.907861], [3.050197, 41.907861], [3.050235, 41.90787], [3.050302, 41.907888], [3.050398, 41.907914], [3.050524, 41.907949], [3.05066, 41.907945], [3.050807, 41.907904], [3.050965, 41.907824], [3.051133, 41.907706], [3.051278, 41.907595], [3.051397, 41.90749], [3.051493, 41.907391], [3.051564, 41.907299], [3.051638, 41.907228], [3.051715, 41.907178], [3.051795, 41.90715], [3.051879, 41.907144], [3.051944, 41.907092], [3.05199, 41.906996], [3.052017, 41.906854], [3.052026, 41.906668], [3.052033, 41.906467], [3.052037, 41.906251], [3.052039, 41.906021], [3.052039, 41.905775], [3.052051, 41.905579], [3.052075, 41.905431], [3.052111, 41.905332], [3.052159, 41.905282], [3.052214, 41.905243], [3.052277, 41.905216], [3.052346, 41.905199], [3.052422, 41.905194], [3.052495, 41.905182], [3.052563, 41.905163], [3.052628, 41.905138], [3.052688, 41.905107], [3.052735, 41.905068], [3.052769, 41.90502], [3.05279, 41.904965], [3.052797, 41.904901], [3.052795, 41.904827], [3.052783, 41.904743], [3.052762, 41.904648], [3.052731, 41.904543], [3.052693, 41.904456], [3.052646, 41.904386], [3.052591, 41.904336], [3.052529, 41.904303], [3.052475, 41.90427], [3.052429, 41.904236], [3.052391, 41.904202], [3.052362, 41.904168], [3.052326, 41.904126], [3.052285, 41.904075], [3.052237, 41.904016], [3.052183, 41.903948], [3.052161, 41.903901], [3.052169, 41.903876], [3.052208, 41.903872], [3.052278, 41.90389], [3.052324, 41.903889], [3.052345, 41.90387], [3.052343, 41.903832], [3.052316, 41.903777], [3.052287, 41.903724], [3.052256, 41.903674], [3.052222, 41.903626], [3.052187, 41.903581], [3.052129, 41.903538], [3.052049, 41.903495], [3.051946, 41.903455], [3.051821, 41.903416], [3.051694, 41.903381], [3.051566, 41.903351], [3.051436, 41.903325], [3.051305, 41.903304], [3.051187, 41.903285], [3.051082, 41.903269], [3.050989, 41.903255], [3.050909, 41.903243], [3.050825, 41.903204], [3.050735, 41.903136], [3.050641, 41.903042], [3.050541, 41.902919], [3.050448, 41.902799], [3.05036, 41.902682], [3.050278, 41.902568], [3.050201, 41.902456], [3.050156, 41.902352], [3.050143, 41.902255], [3.050162, 41.902166], [3.050211, 41.902084], [3.050263, 41.901981], [3.050315, 41.901857], [3.050369, 41.901711], [3.050425, 41.901545], [3.050471, 41.901372], [3.050508, 41.901192], [3.050535, 41.901005], [3.050553, 41.900811], [3.050567, 41.900665], [3.050576, 41.900565], [3.050581, 41.900512], [3.050582, 41.900506], [3.050562, 41.900486], [3.050521, 41.900453], [3.050459, 41.900406], [3.050377, 41.900346], [3.05031, 41.900277], [3.050258, 41.900198], [3.050222, 41.900111], [3.0502, 41.900016], [3.050212, 41.899935], [3.050257, 41.899869], [3.050335, 41.899819], [3.050447, 41.899783], [3.050521, 41.899743], [3.050558, 41.899698], [3.050558, 41.899649], [3.050521, 41.899595], [3.050489, 41.899546], [3.050461, 41.899502], [3.050438, 41.899463], [3.05042, 41.899428], [3.05041, 41.899371], [3.050408, 41.899291], [3.050414, 41.899189], [3.050428, 41.899063], [3.050438, 41.898937], [3.050444, 41.89881], [3.050445, 41.898681], [3.050443, 41.898552], [3.050439, 41.898444], [3.050436, 41.898359], [3.050432, 41.898297], [3.050428, 41.898257], [3.050427, 41.898226], [3.050429, 41.898203], [3.050435, 41.89819], [3.050445, 41.898186], [3.050457, 41.898181], [3.050474, 41.898173], [3.050493, 41.898165], [3.050517, 41.898154], [3.050566, 41.898157], [3.050641, 41.898173], [3.050743, 41.898202], [3.050871, 41.898244], [3.050988, 41.898286], [3.051093, 41.898329], [3.051188, 41.898371], [3.051271, 41.898413], [3.051352, 41.898419], [3.051431, 41.898388], [3.051507, 41.89832], [3.051581, 41.898216], [3.051629, 41.898128], [3.05165, 41.898056], [3.051645, 41.898001], [3.051614, 41.897962], [3.051569, 41.897927], [3.051508, 41.897894], [3.051433, 41.897865], [3.051343, 41.897839], [3.051264, 41.897802], [3.051194, 41.897754], [3.051135, 41.897695], [3.051085, 41.897625], [3.051052, 41.897557], [3.051035, 41.897491], [3.051035, 41.897427], [3.051051, 41.897365], [3.051078, 41.897265], [3.051115, 41.897127], [3.051164, 41.89695], [3.051224, 41.896735], [3.051257, 41.89657], [3.051264, 41.896456], [3.051243, 41.896393], [3.051196, 41.896379], [3.051148, 41.896367], [3.051099, 41.896355], [3.051048, 41.896344], [3.050996, 41.896334], [3.050936, 41.896328], [3.050868, 41.896327], [3.050791, 41.89633], [3.050706, 41.896337], [3.050629, 41.896348], [3.050559, 41.896363], [3.050496, 41.896382], [3.05044, 41.896405], [3.050377, 41.896432], [3.050307, 41.896464], [3.05023, 41.8965], [3.050146, 41.896541], [3.050094, 41.896579], [3.050075, 41.896616], [3.050087, 41.896651], [3.050132, 41.896684], [3.050179, 41.896726], [3.050228, 41.896778], [3.05028, 41.896839], [3.050334, 41.896909], [3.050359, 41.896982], [3.050354, 41.897058], [3.050321, 41.897137], [3.050259, 41.897219], [3.050209, 41.897296], [3.050171, 41.897369], [3.050145, 41.897436], [3.050131, 41.897499], [3.050118, 41.897563], [3.050103, 41.897628], [3.050089, 41.897695], [3.050074, 41.897763], [3.050052, 41.897831], [3.050021, 41.897898], [3.049981, 41.897965], [3.049934, 41.898032], [3.049856, 41.898084], [3.049748, 41.898123], [3.049609, 41.898148], [3.04944, 41.89816], [3.049306, 41.898138], [3.049208, 41.898082], [3.049144, 41.897992], [3.049116, 41.897869], [3.049105, 41.897769], [3.049109, 41.897693], [3.049129, 41.897641], [3.049166, 41.897612], [3.049193, 41.897586], [3.049213, 41.897563], [3.049223, 41.897544], [3.049225, 41.897527], [3.049228, 41.897487], [3.049234, 41.897423], [3.04924, 41.897334], [3.049249, 41.897222], [3.049243, 41.897128], [3.049223, 41.897052], [3.049189, 41.896994], [3.049141, 41.896955], [3.049105, 41.896924], [3.049081, 41.896901], [3.049069, 41.896885], [3.04907, 41.896878], [3.049077, 41.896852], [3.049091, 41.896806], [3.049111, 41.896741], [3.049139, 41.896657], [3.049186, 41.896572], [3.049253, 41.896487], [3.04934, 41.896402], [3.049447, 41.896316], [3.049528, 41.896252], [3.049582, 41.896208], [3.04961, 41.896185], [3.049612, 41.896184], [3.049603, 41.896136], [3.049583, 41.896043], [3.049553, 41.895904], [3.049513, 41.89572], [3.049483, 41.895581], [3.049463, 41.895489], [3.049455, 41.895442], [3.049456, 41.895442], [3.049485, 41.895428], [3.04954, 41.8954], [3.049622, 41.895358], [3.049731, 41.895303], [3.04983, 41.895248], [3.04992, 41.895195], [3.05, 41.895143], [3.050071, 41.895092], [3.050146, 41.895035], [3.050225, 41.894973], [3.050309, 41.894904], [3.050396, 41.89483], [3.050455, 41.894768], [3.050487, 41.894718], [3.05049, 41.894679], [3.050465, 41.894653], [3.050396, 41.89463], [3.050282, 41.89461], [3.050123, 41.894593], [3.04992, 41.894579], [3.049758, 41.894545], [3.049636, 41.894491], [3.049555, 41.894417], [3.049515, 41.894323], [3.049487, 41.894228], [3.049473, 41.894131], [3.049471, 41.894032], [3.049483, 41.893932], [3.049493, 41.893844], [3.049501, 41.893769], [3.049508, 41.893708], [3.049514, 41.893659], [3.049495, 41.893621], [3.049453, 41.893594], [3.049386, 41.893577], [3.049296, 41.893571], [3.049211, 41.893565], [3.049133, 41.89356], [3.04906, 41.893555], [3.048994, 41.89355], [3.048938, 41.893526], [3.048894, 41.893483], [3.04886, 41.89342], [3.048836, 41.893338], [3.04881, 41.893268], [3.048779, 41.89321], [3.048745, 41.893164], [3.048707, 41.89313], [3.048665, 41.893091], [3.048619, 41.893048], [3.048568, 41.893], [3.048514, 41.892947], [3.048468, 41.892887], [3.048432, 41.89282], [3.048404, 41.892746], [3.048386, 41.892664], [3.048372, 41.892591], [3.048363, 41.892528], [3.048359, 41.892473], [3.048359, 41.892428], [3.048351, 41.892365], [3.048335, 41.892286], [3.04831, 41.892189], [3.048276, 41.892075], [3.048268, 41.891956], [3.048284, 41.891833], [3.048325, 41.891706], [3.048391, 41.891574], [3.048441, 41.891474], [3.048475, 41.891404], [3.048492, 41.891366], [3.048493, 41.891359], [3.048507, 41.891355], [3.048536, 41.891353], [3.048578, 41.891354], [3.048634, 41.891358], [3.048675, 41.89136], [3.048702, 41.89136], [3.048715, 41.891358], [3.048713, 41.891355], [3.048692, 41.891345], [3.048652, 41.89133], [3.048594, 41.891308], [3.048517, 41.891281], [3.048427, 41.891269], [3.048325, 41.891271], [3.048209, 41.891289], [3.048082, 41.891321], [3.047963, 41.89136], [3.047854, 41.891406], [3.047754, 41.891458], [3.047663, 41.891518], [3.04756, 41.891544], [3.047444, 41.891536], [3.047316, 41.891494], [3.047175, 41.891418], [3.047052, 41.891324], [3.046946, 41.891211], [3.046858, 41.891079], [3.046787, 41.890929], [3.046716, 41.890805], [3.046643, 41.890707], [3.046569, 41.890634], [3.046494, 41.890588], [3.046441, 41.890534], [3.04641, 41.890471], [3.046401, 41.890401], [3.046413, 41.890322], [3.046445, 41.890257], [3.046494, 41.890206], [3.046562, 41.890168], [3.046649, 41.890144], [3.046758, 41.890116], [3.046889, 41.890086], [3.047043, 41.890052], [3.047218, 41.890015], [3.047375, 41.88999], [3.047514, 41.889978], [3.047633, 41.889978], [3.047734, 41.88999], [3.047843, 41.889992], [3.047961, 41.889984], [3.048087, 41.889965], [3.048221, 41.889936], [3.048333, 41.8899], [3.048422, 41.889857], [3.048488, 41.889807], [3.048531, 41.889749], [3.048594, 41.889696], [3.048676, 41.889645], [3.048778, 41.889598], [3.0489, 41.889554], [3.049011, 41.889522], [3.049113, 41.889501], [3.049204, 41.889492], [3.049285, 41.889494], [3.04934, 41.889433], [3.04937, 41.889311], [3.049374, 41.889126], [3.049353, 41.888878], [3.049317, 41.888689], [3.049267, 41.888558], [3.049202, 41.888485], [3.049122, 41.88847], [3.049064, 41.888425], [3.049026, 41.88835], [3.049009, 41.888245], [3.049013, 41.88811], [3.04899, 41.88797], [3.04894, 41.887824], [3.048863, 41.887672], [3.048759, 41.887515], [3.048644, 41.887402], [3.048516, 41.887332], [3.048377, 41.887305], [3.048226, 41.887322], [3.048036, 41.887332], [3.047807, 41.887336], [3.047539, 41.887333], [3.047233, 41.887323], [3.046982, 41.887299], [3.046787, 41.88726], [3.046648, 41.887208], [3.046565, 41.887142], [3.046485, 41.887082], [3.046408, 41.887029], [3.046334, 41.886984], [3.046263, 41.886944], [3.046209, 41.886903], [3.046174, 41.886859], [3.046157, 41.886812], [3.046157, 41.886763], [3.046175, 41.886718], [3.04621, 41.886677], [3.046262, 41.886639], [3.046331, 41.886606], [3.046395, 41.886579], [3.046453, 41.886556], [3.046505, 41.886539], [3.046552, 41.886527], [3.0466, 41.886508], [3.046648, 41.886481], [3.046698, 41.886446], [3.046748, 41.886404], [3.046772, 41.886357], [3.046771, 41.886303], [3.046743, 41.886245], [3.04669, 41.88618], [3.046635, 41.886133], [3.046578, 41.886103], [3.046519, 41.886089], [3.046458, 41.886092], [3.046387, 41.886101], [3.046304, 41.886114], [3.046212, 41.886132], [3.046108, 41.886155], [3.046014, 41.886186], [3.045929, 41.886223], [3.045853, 41.886268], [3.045787, 41.88632], [3.045709, 41.886372], [3.04562, 41.886422], [3.04552, 41.886472], [3.045408, 41.886521], [3.045313, 41.886533], [3.045232, 41.886506], [3.045168, 41.886442], [3.045119, 41.88634], [3.045081, 41.886243], [3.045054, 41.88615], [3.045037, 41.886062], [3.045032, 41.885978], [3.045028, 41.885889], [3.045026, 41.885794], [3.045026, 41.885693], [3.045028, 41.885588], [3.04503, 41.885466], [3.04503, 41.88533], [3.04503, 41.885178], [3.045029, 41.885012], [3.044981, 41.884797], [3.044888, 41.884535], [3.044748, 41.884225], [3.044562, 41.883867], [3.044423, 41.883571], [3.044331, 41.883338], [3.044286, 41.883166], [3.044289, 41.883056], [3.04429, 41.882951], [3.044288, 41.882851], [3.044286, 41.882755], [3.044281, 41.882664], [3.044278, 41.882592], [3.044276, 41.882541], [3.044276, 41.88251], [3.044277, 41.882498], [3.044272, 41.882476], [3.044261, 41.882443], [3.044243, 41.882399], [3.044219, 41.882345], [3.044192, 41.882289], [3.044164, 41.882232], [3.044133, 41.882174], [3.044099, 41.882115], [3.044076, 41.882065], [3.044064, 41.882025], [3.044063, 41.881994], [3.044073, 41.881973], [3.04407, 41.88195], [3.044055, 41.881924], [3.044028, 41.881896], [3.043989, 41.881865], [3.043893, 41.881812], [3.043742, 41.881736], [3.043535, 41.881639], [3.043272, 41.881519], [3.043049, 41.881403], [3.042865, 41.881291], [3.04272, 41.881182], [3.042615, 41.881078], [3.042493, 41.881006], [3.042353, 41.880966], [3.042195, 41.880959], [3.04202, 41.880983], [3.041894, 41.880961], [3.041816, 41.880891], [3.041786, 41.880773], [3.041805, 41.880608], [3.041804, 41.88047], [3.041783, 41.88036], [3.041741, 41.880278], [3.04168, 41.880223], [3.041596, 41.880149], [3.04149, 41.880056], [3.041361, 41.879944], [3.04121, 41.879813], [3.041045, 41.879751], [3.040866, 41.879757], [3.040673, 41.879831], [3.040466, 41.879974], [3.040235, 41.880049], [3.039979, 41.880057], [3.039698, 41.879997], [3.039393, 41.87987], [3.039146, 41.879755], [3.038958, 41.879654], [3.038828, 41.879567], [3.038757, 41.879493], [3.038682, 41.879415], [3.038606, 41.879333], [3.038526, 41.879248], [3.038444, 41.879159], [3.038433, 41.879082], [3.038493, 41.879017], [3.038623, 41.878963], [3.038825, 41.878922], [3.039044, 41.878891], [3.03928, 41.87887], [3.039533, 41.87886], [3.039803, 41.878861], [3.040026, 41.878852], [3.0402, 41.878834], [3.040326, 41.878807], [3.040404, 41.878771], [3.040466, 41.87871], [3.040513, 41.878626], [3.040543, 41.878517], [3.040559, 41.878384], [3.040572, 41.87827], [3.040582, 41.878176], [3.040591, 41.878102], [3.040597, 41.878047], [3.040621, 41.877997], [3.040663, 41.877951], [3.040723, 41.87791], [3.040801, 41.877874], [3.040879, 41.877849], [3.040958, 41.877836], [3.041036, 41.877835], [3.041115, 41.877845], [3.041201, 41.877883], [3.041295, 41.87795], [3.041397, 41.878045], [3.041506, 41.878168], [3.041612, 41.878263], [3.041715, 41.87833], [3.041815, 41.87837], [3.041912, 41.878381], [3.042, 41.878379], [3.042078, 41.878364], [3.042148, 41.878335], [3.042208, 41.878293], [3.042255, 41.878241], [3.04229, 41.878179], [3.042312, 41.878106], [3.042321, 41.878024], [3.042298, 41.877931], [3.042242, 41.877827], [3.042154, 41.877714], [3.042033, 41.87759], [3.041923, 41.877475], [3.041824, 41.877369], [3.041737, 41.877271], [3.041661, 41.877183], [3.0416, 41.877102], [3.041553, 41.87703], [3.04152, 41.876965], [3.041502, 41.876908], [3.041454, 41.876858], [3.041376, 41.876813], [3.041268, 41.876774], [3.041131, 41.876742], [3.041007, 41.876721], [3.040897, 41.876714], [3.040801, 41.876719], [3.040719, 41.876736], [3.040659, 41.876724], [3.040621, 41.876682], [3.040604, 41.87661], [3.04061, 41.876509], [3.040634, 41.876434], [3.040676, 41.876386], [3.040737, 41.876365], [3.040816, 41.876371], [3.040881, 41.876357], [3.040931, 41.876323], [3.040966, 41.87627], [3.040987, 41.876198], [3.040985, 41.876131], [3.040961, 41.876069], [3.040916, 41.876013], [3.040848, 41.875962], [3.040796, 41.875899], [3.040762, 41.875825], [3.040744, 41.87574], [3.040743, 41.875642], [3.040742, 41.875526], [3.040742, 41.875389], [3.040743, 41.875233], [3.040745, 41.875058], [3.04075, 41.874901], [3.04076, 41.874763], [3.040774, 41.874644], [3.040791, 41.874544], [3.040821, 41.874456], [3.040864, 41.87438], [3.040919, 41.874317], [3.040986, 41.874266], [3.041047, 41.874229], [3.041102, 41.874204], [3.041151, 41.874193], [3.041193, 41.874196], [3.041223, 41.874193], [3.041238, 41.874185], [3.041241, 41.874172], [3.041229, 41.874154], [3.041206, 41.874133], [3.041169, 41.874108], [3.04112, 41.874079], [3.041057, 41.874047], [3.040996, 41.874023], [3.040936, 41.874008], [3.040877, 41.874002], [3.04082, 41.874004], [3.040751, 41.873986], [3.040671, 41.873948], [3.04058, 41.87389], [3.040478, 41.873812], [3.040398, 41.873746], [3.04034, 41.873693], [3.040305, 41.873652], [3.040292, 41.873623], [3.040278, 41.873586], [3.040265, 41.87354], [3.040252, 41.873486], [3.040238, 41.873423], [3.040225, 41.873359], [3.040212, 41.873295], [3.040199, 41.87323], [3.040186, 41.873164], [3.040153, 41.873092], [3.0401, 41.873012], [3.040028, 41.872926], [3.039936, 41.872833], [3.039829, 41.872748], [3.039708, 41.872672], [3.039573, 41.872604], [3.039424, 41.872544], [3.03929, 41.872492], [3.039172, 41.872448], [3.039069, 41.872413], [3.038981, 41.872385], [3.038903, 41.872296], [3.038834, 41.872146], [3.038774, 41.871935], [3.038723, 41.871662], [3.038681, 41.871451], [3.038649, 41.8713], [3.038626, 41.87121], [3.038613, 41.871182], [3.038588, 41.871141], [3.038551, 41.871089], [3.038501, 41.871026], [3.03844, 41.87095], [3.038394, 41.870891], [3.038364, 41.870849], [3.03835, 41.870823], [3.038351, 41.870814], [3.0383, 41.870784], [3.038197, 41.870732], [3.038042, 41.870658], [3.037835, 41.870563], [3.037684, 41.870358], [3.037591, 41.870043], [3.037554, 41.869617], [3.037574, 41.86908], [3.03759, 41.868642], [3.037603, 41.868301], [3.037611, 41.868058], [3.037615, 41.867913], [3.037629, 41.867805], [3.037652, 41.867733], [3.037684, 41.867698], [3.037726, 41.8677], [3.037744, 41.867667], [3.037738, 41.867598], [3.037708, 41.867493], [3.037654, 41.867354], [3.037542, 41.867182], [3.037371, 41.86698], [3.037142, 41.866745], [3.036854, 41.866479], [3.036618, 41.866248], [3.036433, 41.866051], [3.036299, 41.865889], [3.036217, 41.865762], [3.036172, 41.865641], [3.036164, 41.865526], [3.036194, 41.865417], [3.036261, 41.865315], [3.03632, 41.865209], [3.036372, 41.8651], [3.036416, 41.864987], [3.036452, 41.864872], [3.03648, 41.864781], [3.036499, 41.864715], [3.036509, 41.864673], [3.036511, 41.864656], [3.036514, 41.86464], [3.036519, 41.864624], [3.036524, 41.864608], [3.03653, 41.864593], [3.036532, 41.864581], [3.036531, 41.864571], [3.036525, 41.864563], [3.036515, 41.864558], [3.036503, 41.864542], [3.036488, 41.864513], [3.036471, 41.864473], [3.036451, 41.86442], [3.03644, 41.864365], [3.036439, 41.864307], [3.036447, 41.864246], [3.036464, 41.864182], [3.036485, 41.864128], [3.036511, 41.864083], [3.036542, 41.864049], [3.036577, 41.864025], [3.036609, 41.86401], [3.036639, 41.864003], [3.036666, 41.864006], [3.03669, 41.864017], [3.036721, 41.864042], [3.036757, 41.86408], [3.036799, 41.864131], [3.036846, 41.864195], [3.036888, 41.864243], [3.036925, 41.864273], [3.036955, 41.864286], [3.036979, 41.864283], [3.037031, 41.864273], [3.03711, 41.864258], [3.037216, 41.864236], [3.037349, 41.864209], [3.037454, 41.864186], [3.037532, 41.864165], [3.037581, 41.864148], [3.037603, 41.864135], [3.037628, 41.864119], [3.037658, 41.8641], [3.037691, 41.864079], [3.037728, 41.864056], [3.037736, 41.864011], [3.037712, 41.863944], [3.037659, 41.863856], [3.037575, 41.863746], [3.037502, 41.863651], [3.03744, 41.863572], [3.037389, 41.863508], [3.03735, 41.863459], [3.037315, 41.863415], [3.037284, 41.863375], [3.037257, 41.86334], [3.037235, 41.863309], [3.037206, 41.863283], [3.037172, 41.863262], [3.037131, 41.863244], [3.037084, 41.863231], [3.037039, 41.863215], [3.036996, 41.863196], [3.036954, 41.863174], [3.036915, 41.863149], [3.036872, 41.863122], [3.036827, 41.863093], [3.03678, 41.863063], [3.036729, 41.863031], [3.036679, 41.862995], [3.03663, 41.862954], [3.03658, 41.862909], [3.036531, 41.86286], [3.036498, 41.862816], [3.036481, 41.862777], [3.036479, 41.862744], [3.036494, 41.862716], [3.036509, 41.862686], [3.036526, 41.862655], [3.036543, 41.862622], [3.036562, 41.862586], [3.036597, 41.862555], [3.036649, 41.862527], [3.036718, 41.862503], [3.036804, 41.862482], [3.036883, 41.862461], [3.036952, 41.862441], [3.037014, 41.86242], [3.037068, 41.8624], [3.037105, 41.862372], [3.037125, 41.862337], [3.037128, 41.862295], [3.037115, 41.862246], [3.037108, 41.862196], [3.037109, 41.862147], [3.037117, 41.862097], [3.037133, 41.862047], [3.037164, 41.862], [3.037211, 41.861957], [3.037273, 41.861916], [3.037352, 41.861877], [3.037396, 41.861843], [3.037406, 41.861812], [3.037382, 41.861785], [3.037323, 41.861762], [3.037248, 41.861747], [3.037157, 41.86174], [3.03705, 41.861743], [3.036926, 41.861753], [3.036781, 41.861758], [3.036614, 41.861756], [3.036425, 41.861748], [3.036214, 41.861733], [3.036058, 41.8617], [3.035956, 41.861648], [3.035908, 41.861577], [3.035915, 41.861488], [3.035904, 41.86142], [3.035874, 41.861373], [3.035825, 41.861348], [3.035758, 41.861343], [3.035697, 41.86134], [3.035642, 41.861339], [3.035593, 41.861341], [3.03555, 41.861344], [3.035506, 41.861331], [3.035461, 41.861302], [3.035415, 41.861258], [3.035368, 41.861197], [3.03534, 41.861139], [3.035332, 41.861084], [3.035344, 41.861031], [3.035375, 41.860982], [3.035411, 41.860925], [3.035453, 41.860862], [3.035501, 41.860792], [3.035554, 41.860716], [3.035608, 41.86065], [3.035663, 41.860595], [3.035719, 41.860551], [3.035776, 41.860517], [3.035847, 41.860495], [3.035931, 41.860484], [3.036028, 41.860485], [3.036139, 41.860497], [3.036252, 41.8605], [3.036366, 41.860495], [3.036482, 41.860481], [3.0366, 41.860458], [3.036705, 41.860435], [3.036796, 41.860413], [3.036874, 41.86039], [3.036939, 41.860368], [3.036999, 41.860335], [3.037054, 41.860289], [3.037105, 41.860233], [3.037151, 41.860165], [3.03722, 41.860108], [3.037311, 41.860061], [3.037424, 41.860024], [3.03756, 41.859998], [3.037685, 41.859978], [3.037799, 41.859965], [3.037902, 41.859958], [3.037993, 41.859958], [3.03808, 41.859949], [3.038162, 41.85993], [3.038239, 41.859902], [3.038311, 41.859865], [3.038368, 41.859815], [3.038409, 41.859754], [3.038434, 41.85968], [3.038444, 41.859594], [3.038453, 41.859521], [3.038459, 41.859462], [3.038465, 41.859415], [3.038468, 41.859382], [3.03845, 41.859354], [3.03841, 41.859332], [3.038348, 41.859314], [3.038263, 41.859301], [3.038179, 41.859304], [3.038094, 41.859323], [3.038009, 41.859357], [3.037923, 41.859407], [3.037846, 41.859452], [3.037776, 41.859494], [3.037714, 41.859532], [3.03766, 41.859566], [3.037612, 41.859599], [3.037572, 41.859631], [3.037538, 41.859661], [3.037511, 41.85969], [3.037476, 41.859709], [3.037434, 41.859719], [3.037384, 41.859718], [3.037326, 41.859707], [3.037275, 41.859692], [3.037232, 41.859671], [3.037196, 41.859645], [3.037167, 41.859614], [3.037099, 41.859582], [3.036994, 41.859548], [3.03685, 41.859512], [3.036668, 41.859475], [3.036542, 41.859457], [3.036471, 41.859459], [3.036455, 41.85948], [3.036495, 41.859521], [3.036518, 41.85957], [3.036524, 41.859628], [3.036515, 41.859695], [3.036488, 41.859771], [3.036467, 41.85983], [3.036452, 41.859873], [3.036443, 41.859898], [3.036439, 41.859907], [3.036408, 41.859926], [3.03635, 41.859955], [3.036265, 41.859995], [3.036152, 41.860045], [3.036031, 41.860091], [3.035901, 41.860134], [3.035761, 41.860174], [3.035612, 41.86021], [3.035489, 41.860215], [3.035391, 41.860188], [3.03532, 41.86013], [3.035274, 41.86004], [3.03524, 41.859956], [3.03522, 41.859878], [3.035212, 41.859806], [3.035216, 41.859739], [3.03524, 41.859672], [3.035281, 41.859604], [3.035342, 41.859535], [3.035421, 41.859465], [3.035486, 41.859395], [3.035536, 41.859327], [3.035573, 41.859259], [3.035595, 41.859191], [3.035596, 41.85913], [3.035576, 41.859076], [3.035534, 41.859027], [3.035471, 41.858985], [3.035415, 41.858933], [3.035366, 41.85887], [3.035324, 41.858798], [3.035289, 41.858716], [3.035253, 41.858643], [3.035216, 41.85858], [3.035177, 41.858528], [3.035138, 41.858485], [3.035084, 41.858451], [3.035014, 41.858425], [3.03493, 41.858407], [3.03483, 41.858398], [3.034747, 41.858399], [3.034679, 41.858411], [3.034627, 41.858434], [3.03459, 41.858467], [3.034499, 41.858489], [3.034353, 41.8585], [3.034152, 41.8585], [3.033896, 41.858489], [3.033697, 41.858481], [3.033555, 41.858478], [3.03347, 41.858478], [3.033442, 41.858483], [3.03342, 41.858483], [3.033402, 41.85848], [3.03339, 41.858473], [3.033383, 41.858462], [3.033374, 41.85846], [3.033363, 41.858465], [3.03335, 41.858478], [3.033334, 41.858499], [3.033319, 41.858535], [3.033303, 41.858585], [3.033286, 41.85865], [3.03327, 41.858729], [3.033255, 41.858797], [3.033242, 41.858852], [3.033232, 41.858896], [3.033223, 41.858928], [3.033199, 41.858961], [3.033159, 41.858994], [3.033104, 41.859029], [3.033034, 41.859064], [3.032965, 41.859071], [3.032896, 41.85905], [3.032827, 41.859001], [3.03276, 41.858923], [3.032707, 41.858847], [3.032668, 41.858773], [3.032644, 41.8587], [3.032635, 41.858628], [3.032628, 41.858565], [3.032624, 41.858509], [3.032623, 41.858461], [3.032625, 41.858421], [3.032631, 41.858373], [3.03264, 41.858316], [3.032652, 41.858251], [3.032668, 41.858177], [3.032678, 41.858122], [3.032681, 41.858085], [3.032677, 41.858066], [3.032667, 41.858065], [3.032645, 41.858055], [3.032612, 41.858037], [3.032567, 41.858009], [3.03251, 41.857973], [3.032459, 41.85794], [3.032414, 41.85791], [3.032375, 41.857883], [3.032342, 41.85786], [3.032305, 41.857845], [3.032263, 41.857839], [3.032218, 41.857842], [3.032168, 41.857854], [3.03212, 41.857868], [3.032074, 41.857884], [3.032029, 41.857902], [3.031986, 41.857922], [3.031957, 41.857962], [3.031941, 41.858022], [3.031939, 41.858102], [3.03195, 41.858203], [3.031967, 41.858284], [3.031989, 41.858347], [3.032016, 41.858391], [3.032049, 41.858416], [3.032075, 41.858459], [3.032095, 41.858519], [3.032109, 41.858596], [3.032116, 41.85869], [3.032125, 41.858767], [3.032136, 41.858826], [3.032149, 41.858867], [3.032164, 41.858891], [3.03217, 41.858917], [3.032167, 41.858943], [3.032155, 41.858971], [3.032134, 41.859], [3.032098, 41.859017], [3.032048, 41.859021], [3.031983, 41.859013], [3.031904, 41.858992], [3.031811, 41.858946], [3.031703, 41.858876], [3.031581, 41.85878], [3.031445, 41.858659], [3.031327, 41.858559], [3.031228, 41.858478], [3.031148, 41.858418], [3.031086, 41.858377], [3.03103, 41.858342], [3.030978, 41.858313], [3.030932, 41.858289], [3.030891, 41.858271], [3.030841, 41.858254], [3.030783, 41.858238], [3.030717, 41.858224], [3.030642, 41.858211], [3.030559, 41.858181], [3.030469, 41.858135], [3.030371, 41.858072], [3.030266, 41.857992], [3.030186, 41.857914], [3.030131, 41.85784], [3.030101, 41.857768], [3.030096, 41.857698], [3.03009, 41.857644], [3.030085, 41.857606], [3.030078, 41.857582], [3.030072, 41.857574], [3.03006, 41.857557], [3.030044, 41.85753], [3.030024, 41.857493], [3.029998, 41.857448], [3.029972, 41.857394], [3.029945, 41.857331], [3.029917, 41.857261], [3.029887, 41.857182], [3.029864, 41.857108], [3.029847, 41.857038], [3.029835, 41.856972], [3.029829, 41.85691], [3.029863, 41.856858], [3.029937, 41.856814], [3.030051, 41.856779], [3.030204, 41.856754], [3.030348, 41.856724], [3.030485, 41.85669], [3.030612, 41.856653], [3.030732, 41.856611], [3.030827, 41.856558], [3.030898, 41.856493], [3.030944, 41.856416], [3.030967, 41.856328], [3.030968, 41.85626], [3.030947, 41.856213], [3.030904, 41.856186], [3.03084, 41.856181], [3.030773, 41.856181], [3.030704, 41.856187], [3.030633, 41.856198], [3.03056, 41.856216], [3.03048, 41.856238], [3.030394, 41.856265], [3.030301, 41.856298], [3.030202, 41.856336], [3.030121, 41.856351], [3.03006, 41.856343], [3.030017, 41.856313], [3.029994, 41.85626], [3.029975, 41.856204], [3.02996, 41.856146], [3.029951, 41.856086], [3.029946, 41.856023], [3.029949, 41.855965], [3.029959, 41.855913], [3.029977, 41.855865], [3.030003, 41.855823], [3.03004, 41.85576], [3.03009, 41.855678], [3.030151, 41.855575], [3.030225, 41.855452], [3.030297, 41.855328], [3.030366, 41.855202], [3.030434, 41.855074], [3.030499, 41.854944], [3.030551, 41.854821], [3.03059, 41.854704], [3.030615, 41.854594], [3.030627, 41.85449], [3.030633, 41.854403], [3.030634, 41.854332], [3.030629, 41.854279], [3.030618, 41.854242], [3.030578, 41.854208], [3.030509, 41.854177], [3.03041, 41.854147], [3.030283, 41.854121], [3.030167, 41.854122], [3.030064, 41.854152], [3.029974, 41.85421], [3.029896, 41.854296], [3.029824, 41.854386], [3.029758, 41.854481], [3.029698, 41.85458], [3.029645, 41.854684], [3.029578, 41.8548], [3.029498, 41.85493], [3.029404, 41.855073], [3.029297, 41.855228], [3.029214, 41.855353], [3.029155, 41.855446], [3.02912, 41.855509], [3.029109, 41.85554], [3.029094, 41.855584], [3.029074, 41.855641], [3.02905, 41.85571], [3.029021, 41.855792], [3.028996, 41.855886], [3.028974, 41.855991], [3.028956, 41.856108], [3.028941, 41.856237], [3.028928, 41.856358], [3.028917, 41.856471], [3.028907, 41.856576], [3.028899, 41.856674], [3.028898, 41.856758], [3.028905, 41.856829], [3.028919, 41.856887], [3.028941, 41.85693], [3.028956, 41.856976], [3.028964, 41.857022], [3.028965, 41.85707], [3.028959, 41.857118], [3.028938, 41.857158], [3.0289, 41.857189], [3.028846, 41.857211], [3.028776, 41.857224], [3.02872, 41.857233], [3.028678, 41.857238], [3.02865, 41.857239], [3.028635, 41.857235], [3.028615, 41.857214], [3.028588, 41.857174], [3.028556, 41.857116], [3.028517, 41.857039], [3.028485, 41.856957], [3.028459, 41.856868], [3.02844, 41.856773], [3.028428, 41.856671], [3.028415, 41.856548], [3.028402, 41.856401], [3.028389, 41.856233], [3.028375, 41.856042], [3.02837, 41.855884], [3.028375, 41.85576], [3.028388, 41.855669], [3.028411, 41.855611], [3.028424, 41.855567], [3.02843, 41.855538], [3.028427, 41.855523], [3.028415, 41.855522], [3.028417, 41.855511], [3.028432, 41.85549], [3.02846, 41.855459], [3.028502, 41.855419], [3.028534, 41.855362], [3.028554, 41.855289], [3.028563, 41.855199], [3.028562, 41.855094], [3.028568, 41.855001], [3.028581, 41.854919], [3.028602, 41.854848], [3.02863, 41.85479], [3.028651, 41.85472], [3.028665, 41.854639], [3.02867, 41.854547], [3.028669, 41.854444], [3.028622, 41.854375], [3.028531, 41.85434], [3.028394, 41.85434], [3.028213, 41.854373], [3.028015, 41.854426], [3.0278, 41.854497], [3.027567, 41.854586], [3.027319, 41.854694], [3.02709, 41.854791], [3.026881, 41.854878], [3.026692, 41.854954], [3.026523, 41.855019], [3.026372, 41.855082], [3.026237, 41.855144], [3.02612, 41.855204], [3.026021, 41.855263], [3.025932, 41.855307], [3.025855, 41.855335], [3.02579, 41.855349], [3.025735, 41.855347], [3.025693, 41.855361], [3.025662, 41.855391], [3.025644, 41.855436], [3.025637, 41.855496], [3.025579, 41.855581], [3.025471, 41.855691], [3.025313, 41.855825], [3.025104, 41.855983], [3.024942, 41.856099], [3.024828, 41.856173], [3.024761, 41.856205], [3.024741, 41.856194], [3.024718, 41.856166], [3.024693, 41.856118], [3.024666, 41.856053], [3.024636, 41.855969], [3.024602, 41.855916], [3.024564, 41.855895], [3.024521, 41.855906], [3.024474, 41.855948], [3.024429, 41.855996], [3.024386, 41.85605], [3.024346, 41.85611], [3.024308, 41.856176], [3.024293, 41.85623], [3.0243, 41.856274], [3.02433, 41.856307], [3.024382, 41.856329], [3.024426, 41.85635], [3.024461, 41.856369], [3.024489, 41.856388], [3.024508, 41.856405], [3.024502, 41.856441], [3.024471, 41.856497], [3.024416, 41.856573], [3.024335, 41.856667], [3.024245, 41.85675], [3.024144, 41.856822], [3.024034, 41.856882], [3.023913, 41.85693], [3.023778, 41.856957], [3.023627, 41.856961], [3.023462, 41.856943], [3.023282, 41.856903], [3.023149, 41.856856], [3.023063, 41.856801], [3.023024, 41.856738], [3.023032, 41.856668], [3.023047, 41.856601], [3.023069, 41.856537], [3.023099, 41.856475], [3.023136, 41.856416], [3.023177, 41.856356], [3.023222, 41.856296], [3.023271, 41.856234], [3.023323, 41.856172], [3.023367, 41.856102], [3.023401, 41.856025], [3.023427, 41.85594], [3.023443, 41.855848], [3.023454, 41.855771], [3.02346, 41.85571], [3.02346, 41.855665], [3.023454, 41.855635], [3.023435, 41.855607], [3.023401, 41.855582], [3.023354, 41.855559], [3.023293, 41.855539], [3.023234, 41.855541], [3.023178, 41.855566], [3.023125, 41.855613], [3.023075, 41.855682], [3.023025, 41.85575], [3.022975, 41.855817], [3.022925, 41.855883], [3.022875, 41.855948], [3.022829, 41.856008], [3.022788, 41.856063], [3.022751, 41.856114], [3.022719, 41.856159], [3.022671, 41.8562], [3.022608, 41.856237], [3.022529, 41.856269], [3.022435, 41.856297], [3.022323, 41.856308], [3.022194, 41.856304], [3.022046, 41.856283], [3.021881, 41.856247], [3.021752, 41.856202], [3.021661, 41.856151], [3.021608, 41.856091], [3.021591, 41.856024], [3.021569, 41.855965], [3.021542, 41.855914], [3.021509, 41.855871], [3.02147, 41.855837], [3.021409, 41.855811], [3.021324, 41.855795], [3.021217, 41.855788], [3.021086, 41.85579], [3.020908, 41.855798], [3.020683, 41.855811], [3.02041, 41.855829], [3.020089, 41.855852], [3.019807, 41.855882], [3.019564, 41.85592], [3.019359, 41.855965], [3.019192, 41.856017], [3.019031, 41.856064], [3.018877, 41.856105], [3.018728, 41.856142], [3.018585, 41.856173], [3.018463, 41.856195], [3.018362, 41.856208], [3.018281, 41.856213], [3.018221, 41.856209], [3.018176, 41.856204], [3.018147, 41.856199], [3.018133, 41.856193], [3.018135, 41.856187], [3.018127, 41.856188], [3.01811, 41.856195], [3.018084, 41.85621], [3.018048, 41.856231], [3.018001, 41.856254], [3.017943, 41.856277], [3.017873, 41.856302], [3.017792, 41.856327], [3.017726, 41.856346], [3.017675, 41.856358], [3.01764, 41.856364], [3.017619, 41.856362], [3.017592, 41.856352], [3.017557, 41.856334], [3.017516, 41.856308], [3.017468, 41.856273], [3.017426, 41.856232], [3.01739, 41.856185], [3.017359, 41.856131], [3.017335, 41.85607], [3.017317, 41.856021], [3.017306, 41.855984], [3.017301, 41.855957], [3.017303, 41.855942], [3.017305, 41.855923], [3.017308, 41.8559], [3.017311, 41.855872], [3.017315, 41.855841], [3.017223, 41.855833], [3.017037, 41.855849], [3.016755, 41.855889], [3.016378, 41.855953], [3.016092, 41.856033], [3.015896, 41.856129], [3.015791, 41.856242], [3.015776, 41.856371], [3.015764, 41.85648], [3.015754, 41.856567], [3.015746, 41.856633], [3.015741, 41.856679], [3.01573, 41.856738], [3.015714, 41.85681], [3.015693, 41.856897], [3.015666, 41.856996], [3.015533, 41.857128], [3.015295, 41.857292], [3.014951, 41.857487], [3.014501, 41.857714], [3.014141, 41.857877], [3.013872, 41.857977], [3.013692, 41.858012], [3.013603, 41.857984], [3.013494, 41.857976], [3.013366, 41.85799], [3.013219, 41.858026], [3.013052, 41.858083], [3.012924, 41.858187], [3.012833, 41.858338], [3.01278, 41.858537], [3.012764, 41.858783], [3.012761, 41.858984], [3.012769, 41.859139], [3.012789, 41.859249], [3.012821, 41.859313], [3.012849, 41.859374], [3.012875, 41.859431], [3.012898, 41.859484], [3.012919, 41.859535], [3.012922, 41.859588], [3.012909, 41.859644], [3.01288, 41.859703], [3.012834, 41.859765], [3.012783, 41.859821], [3.012727, 41.859873], [3.012667, 41.859919], [3.012601, 41.85996], [3.012543, 41.860005], [3.012492, 41.860053], [3.012448, 41.860106], [3.012412, 41.860162], [3.012412, 41.860218], [3.012448, 41.860274], [3.012522, 41.86033], [3.012633, 41.860387], [3.012727, 41.860438], [3.012806, 41.860485], [3.01287, 41.860526], [3.012918, 41.860561], [3.012939, 41.860616], [3.012932, 41.860689], [3.012899, 41.86078], [3.012839, 41.86089], [3.012777, 41.861002], [3.012715, 41.861116], [3.01265, 41.861233], [3.012585, 41.861352], [3.012539, 41.861455], [3.012514, 41.861541], [3.01251, 41.86161], [3.012525, 41.861664], [3.012544, 41.861706], [3.012566, 41.861737], [3.012592, 41.861757], [3.012621, 41.861766], [3.012634, 41.861782], [3.012633, 41.861805], [3.012617, 41.861835], [3.012585, 41.861871], [3.012522, 41.861898], [3.012426, 41.861916], [3.012298, 41.861924], [3.012138, 41.861922], [3.012008, 41.861897], [3.011908, 41.861848], [3.011838, 41.861775], [3.011797, 41.861677], [3.011778, 41.861584], [3.011782, 41.861495], [3.011808, 41.86141], [3.011856, 41.861329], [3.011876, 41.861266], [3.011869, 41.861222], [3.011833, 41.861196], [3.011769, 41.861188], [3.0117, 41.861198], [3.011625, 41.861225], [3.011545, 41.86127], [3.01146, 41.861332], [3.011368, 41.861392], [3.011269, 41.86145], [3.011162, 41.861506], [3.011048, 41.86156], [3.010956, 41.861623], [3.010887, 41.861694], [3.010841, 41.861775], [3.010818, 41.861864], [3.0108, 41.861943], [3.010788, 41.862012], [3.010781, 41.862071], [3.01078, 41.86212], [3.010804, 41.862164], [3.010854, 41.862203], [3.010929, 41.862237], [3.011029, 41.862267], [3.0111, 41.86231], [3.011141, 41.862364], [3.011153, 41.862432], [3.011135, 41.862512], [3.011129, 41.862573], [3.011135, 41.862616], [3.011153, 41.86264], [3.011182, 41.862645], [3.011241, 41.862654], [3.011328, 41.862667], [3.011444, 41.862683], [3.011589, 41.862703], [3.01171, 41.862727], [3.011809, 41.862755], [3.011884, 41.862787], [3.011936, 41.862823], [3.011973, 41.862864], [3.011996, 41.862909], [3.012004, 41.862959], [3.011998, 41.863014], [3.011965, 41.863069], [3.011905, 41.863123], [3.011817, 41.863177], [3.011703, 41.863231], [3.011589, 41.863282], [3.011476, 41.863331], [3.011362, 41.863377], [3.011249, 41.863422], [3.011158, 41.863461], [3.01109, 41.863495], [3.011045, 41.863523], [3.011022, 41.863547], [3.011001, 41.863565], [3.010981, 41.863577], [3.010963, 41.863582], [3.010947, 41.863582], [3.01079, 41.863609], [3.010493, 41.863664], [3.010054, 41.863747], [3.009475, 41.863858], [3.008995, 41.864004], [3.008615, 41.864183], [3.008333, 41.864396], [3.008151, 41.864643], [3.007936, 41.864866], [3.007688, 41.865065], [3.007406, 41.865241], [3.007091, 41.865392], [3.006851, 41.865514], [3.006687, 41.865607], [3.006598, 41.865671], [3.006584, 41.865707], [3.006584, 41.865769], [3.006598, 41.865858], [3.006626, 41.865975], [3.006667, 41.866118], [3.006672, 41.866251], [3.006639, 41.866372], [3.00657, 41.866482], [3.006463, 41.86658], [3.006386, 41.866684], [3.006337, 41.866793], [3.006317, 41.866907], [3.006326, 41.867026], [3.00632, 41.867125], [3.006298, 41.867204], [3.006261, 41.867263], [3.006209, 41.867302], [3.006145, 41.867351], [3.006069, 41.86741], [3.00598, 41.867478], [3.00588, 41.867557], [3.005774, 41.86765], [3.005665, 41.867758], [3.005551, 41.867881], [3.005433, 41.868019], [3.005298, 41.868135], [3.005146, 41.86823], [3.004979, 41.868303], [3.004794, 41.868355], [3.004618, 41.868412], [3.004449, 41.868473], [3.004287, 41.868539], [3.004134, 41.86861], [3.003984, 41.868706], [3.003837, 41.868827], [3.003695, 41.868975], [3.003556, 41.869148], [3.003434, 41.869305], [3.003329, 41.869445], [3.00324, 41.86957], [3.003169, 41.869679], [3.003081, 41.869783], [3.002978, 41.869884], [3.002859, 41.86998], [3.002724, 41.870072], [3.002585, 41.870175], [3.002442, 41.870289], [3.002296, 41.870413], [3.002145, 41.870549], [3.002036, 41.87069], [3.001968, 41.870838], [3.001941, 41.870991], [3.001955, 41.87115], [3.001994, 41.871304], [3.002058, 41.871453], [3.002147, 41.871596], [3.00226, 41.871734], [3.002394, 41.871867], [3.002546, 41.871995], [3.002718, 41.872119], [3.00291, 41.872238], [3.00309, 41.872324], [3.00326, 41.872376], [3.003418, 41.872395], [3.003566, 41.872381], [3.003756, 41.872337], [3.003988, 41.872262], [3.004264, 41.872156], [3.004582, 41.87202], [3.004843, 41.871885], [3.005047, 41.871751], [3.005195, 41.871618], [3.005286, 41.871487], [3.005365, 41.871361], [3.005432, 41.871242], [3.005489, 41.87113], [3.005533, 41.871023], [3.005608, 41.870949], [3.005712, 41.870908], [3.005847, 41.870899], [3.006012, 41.870923], [3.006155, 41.870949], [3.006275, 41.870978], [3.006374, 41.871009], [3.006452, 41.871043], [3.006523, 41.871075], [3.00659, 41.871106], [3.006651, 41.871136], [3.006708, 41.871164], [3.006748, 41.871203], [3.006772, 41.871254], [3.006779, 41.871315], [3.006771, 41.871388], [3.006762, 41.871463], [3.006753, 41.871542], [3.006744, 41.871623], [3.006734, 41.871708], [3.006726, 41.871814], [3.00672, 41.871941], [3.006715, 41.87209], [3.006711, 41.87226], [3.006736, 41.872398], [3.006789, 41.872503], [3.00687, 41.872576], [3.006978, 41.872616], [3.007079, 41.872638], [3.00717, 41.872642], [3.007252, 41.872629], [3.007326, 41.872598], [3.007478, 41.872485], [3.007708, 41.872292], [3.008016, 41.872019], [3.008403, 41.871664], [3.00869, 41.871387], [3.00888, 41.871187], [3.008971, 41.871064], [3.008964, 41.871018], [3.008965, 41.870978], [3.008974, 41.870941], [3.008991, 41.87091], [3.009016, 41.870882], [3.00905, 41.870833], [3.009093, 41.87076], [3.009146, 41.870664], [3.009208, 41.870546], [3.00929, 41.870434], [3.009393, 41.87033], [3.009517, 41.870232], [3.009662, 41.870141], [3.009823, 41.870038], [3.009999, 41.869924], [3.010191, 41.869799], [3.010399, 41.869662], [3.010573, 41.869566], [3.010714, 41.869511], [3.010821, 41.869496], [3.010895, 41.869523], [3.010988, 41.869573], [3.011099, 41.869646], [3.01123, 41.869741], [3.01138, 41.86986], [3.011508, 41.869974], [3.011616, 41.870082], [3.011702, 41.870186], [3.011768, 41.870284], [3.01185, 41.870431], [3.011947, 41.870625], [3.012061, 41.870868], [3.012191, 41.871158], [3.012287, 41.871392], [3.012348, 41.871567], [3.012376, 41.871685], [3.012369, 41.871746], [3.012399, 41.871816], [3.012468, 41.871896], [3.012574, 41.871985], [3.012718, 41.872085], [3.012852, 41.872171], [3.012975, 41.872244], [3.013088, 41.872305], [3.01319, 41.872352], [3.013273, 41.872403], [3.013339, 41.872456], [3.013386, 41.872513], [3.013415, 41.872572], [3.013428, 41.872631], [3.013423, 41.872689], [3.013402, 41.872748], [3.013364, 41.872806], [3.01331, 41.872842], [3.013241, 41.872858], [3.013157, 41.872852], [3.013057, 41.872825], [3.012961, 41.872803], [3.012869, 41.872786], [3.012781, 41.872775], [3.012696, 41.872769], [3.01262, 41.872777], [3.012551, 41.872797], [3.01249, 41.872831], [3.012436, 41.872878], [3.012395, 41.872915], [3.012365, 41.872942], [3.012346, 41.872958], [3.01234, 41.872964], [3.012333, 41.872976], [3.012326, 41.872996], [3.012318, 41.873022], [3.012309, 41.873055], [3.012315, 41.873089], [3.012335, 41.873122], [3.012369, 41.873156], [3.012417, 41.87319], [3.012455, 41.873217], [3.012484, 41.873237], [3.012504, 41.873251], [3.012514, 41.873258], [3.012554, 41.873269], [3.012625, 41.873284], [3.012727, 41.873303], [3.012859, 41.873326], [3.012959, 41.873344], [3.01303, 41.873357], [3.013069, 41.873366], [3.013077, 41.87337], [3.013082, 41.873383], [3.013081, 41.873405], [3.013077, 41.873435], [3.013068, 41.873475], [3.013027, 41.873526], [3.012955, 41.873589], [3.012851, 41.873662], [3.012716, 41.873747], [3.012612, 41.873811], [3.01254, 41.873854], [3.012499, 41.873877], [3.01249, 41.873879], [3.012483, 41.873882], [3.012478, 41.873888], [3.012476, 41.873895], [3.012475, 41.873903], [3.012475, 41.873911], [3.012475, 41.873919], [3.012476, 41.873926], [3.012476, 41.873933], [3.012455, 41.873938], [3.012414, 41.873943], [3.012351, 41.873948], [3.012268, 41.873951], [3.012158, 41.873951], [3.012021, 41.873946], [3.011857, 41.873937], [3.011665, 41.873924], [3.011517, 41.873917], [3.011412, 41.873916], [3.011349, 41.873922], [3.01133, 41.873934], [3.011301, 41.873954], [3.011261, 41.87398], [3.011212, 41.874014], [3.011154, 41.874055], [3.011105, 41.874096], [3.011067, 41.874136], [3.01104, 41.874176], [3.011024, 41.874216], [3.01103, 41.874251], [3.01106, 41.874283], [3.011112, 41.87431], [3.011188, 41.874334], [3.011271, 41.874353], [3.011363, 41.874369], [3.011463, 41.87438], [3.01157, 41.874388], [3.011667, 41.874405], [3.011755, 41.874431], [3.011832, 41.874467], [3.011899, 41.874512], [3.011938, 41.874583], [3.011948, 41.874679], [3.011929, 41.8748], [3.011882, 41.874946], [3.011845, 41.875076], [3.011817, 41.875189], [3.011798, 41.875286], [3.011789, 41.875367], [3.011787, 41.875432], [3.011794, 41.875483], [3.011808, 41.875518], [3.01183, 41.875537], [3.01186, 41.875561], [3.011899, 41.875588], [3.011947, 41.87562], [3.012003, 41.875656], [3.01205, 41.875702], [3.012089, 41.875759], [3.012119, 41.875827], [3.01214, 41.875905], [3.012153, 41.875984], [3.012159, 41.876064], [3.012157, 41.876144], [3.012148, 41.876225], [3.012124, 41.876317], [3.012085, 41.876421], [3.012031, 41.876536], [3.011963, 41.876662], [3.011931, 41.876764], [3.011937, 41.876841], [3.011981, 41.876894], [3.012062, 41.876923], [3.012135, 41.876953], [3.012201, 41.876984], [3.012259, 41.877018], [3.012309, 41.877053], [3.012368, 41.8771], [3.012437, 41.877159], [3.012515, 41.87723], [3.012601, 41.877313], [3.012655, 41.87741], [3.012676, 41.87752], [3.012663, 41.877643], [3.012617, 41.877781], [3.01258, 41.877897], [3.012551, 41.877992], [3.01253, 41.878066], [3.012518, 41.87812], [3.012535, 41.87817], [3.012581, 41.878216], [3.012656, 41.878259], [3.01276, 41.878297], [3.0129, 41.878325], [3.013076, 41.878343], [3.013289, 41.878349], [3.013537, 41.878344], [3.013729, 41.878347], [3.013864, 41.878358], [3.013942, 41.878376], [3.013963, 41.878402], [3.013997, 41.878438], [3.014044, 41.878482], [3.014105, 41.878536], [3.01418, 41.878599], [3.014195, 41.878662], [3.014152, 41.878726], [3.01405, 41.87879], [3.013889, 41.878854], [3.013747, 41.878919], [3.013625, 41.878984], [3.013522, 41.87905], [3.013437, 41.879116], [3.013359, 41.879174], [3.013286, 41.879225], [3.013219, 41.879268], [3.013157, 41.879303], [3.013142, 41.879354], [3.013173, 41.879419], [3.01325, 41.879499], [3.013373, 41.879594], [3.013509, 41.87966], [3.013658, 41.879698], [3.01382, 41.879706], [3.013995, 41.879686], [3.014197, 41.879688], [3.014427, 41.879711], [3.014684, 41.879756], [3.014969, 41.879823], [3.015186, 41.879876], [3.015334, 41.879917], [3.015415, 41.879945], [3.015427, 41.879961], [3.015443, 41.879983], [3.015461, 41.880014], [3.015482, 41.880051], [3.015505, 41.880096], [3.015522, 41.880147], [3.015533, 41.880203], [3.015536, 41.880266], [3.015533, 41.880334], [3.015555, 41.880403], [3.015602, 41.880473], [3.015675, 41.880543], [3.015772, 41.880615], [3.015902, 41.880694], [3.016065, 41.880779], [3.01626, 41.880871], [3.016488, 41.880969], [3.016684, 41.881052], [3.016847, 41.881117], [3.016978, 41.881166], [3.017076, 41.881198], [3.017151, 41.881225], [3.017202, 41.881245], [3.017231, 41.88126], [3.017236, 41.881268], [3.017242, 41.881281], [3.017248, 41.881299], [3.017254, 41.881321], [3.017261, 41.881348], [3.017297, 41.881361], [3.017363, 41.881361], [3.017458, 41.881349], [3.017583, 41.881323], [3.0177, 41.881265], [3.017809, 41.881177], [3.017911, 41.881056], [3.018005, 41.880904], [3.018101, 41.880789], [3.018199, 41.880712], [3.018298, 41.880671], [3.018399, 41.880667], [3.018506, 41.880654], [3.018619, 41.880631], [3.018738, 41.880599], [3.018862, 41.880557], [3.01899, 41.880527], [3.019122, 41.880509], [3.019256, 41.880503], [3.019395, 41.88051], [3.019508, 41.880515], [3.019596, 41.880519], [3.019659, 41.880523], [3.019697, 41.880525], [3.019724, 41.880555], [3.019739, 41.880612], [3.019742, 41.880696], [3.019734, 41.880807], [3.019716, 41.880904], [3.019688, 41.880986], [3.019649, 41.881055], [3.019599, 41.881109], [3.019527, 41.881157], [3.019431, 41.881199], [3.019312, 41.881235], [3.019169, 41.881265], [3.01905, 41.881299], [3.018955, 41.881337], [3.018883, 41.88138], [3.018834, 41.881427], [3.018794, 41.881476], [3.018762, 41.881528], [3.018738, 41.881582], [3.018721, 41.881638], [3.018707, 41.881695], [3.018693, 41.881752], [3.01868, 41.881809], [3.018669, 41.881865], [3.018657, 41.881916], [3.018645, 41.88196], [3.018632, 41.881998], [3.018619, 41.882029], [3.018632, 41.88206], [3.018672, 41.88209], [3.018738, 41.882119], [3.018831, 41.882147], [3.01892, 41.882168], [3.019004, 41.882183], [3.019085, 41.882191], [3.019161, 41.882193], [3.019234, 41.882203], [3.019304, 41.88222], [3.019371, 41.882246], [3.019434, 41.882279], [3.01949, 41.882327], [3.019538, 41.88239], [3.019578, 41.882467], [3.01961, 41.882559], [3.019627, 41.882645], [3.019627, 41.882725], [3.019612, 41.882797], [3.01958, 41.882864], [3.019554, 41.882914], [3.019533, 41.882948], [3.019518, 41.882967], [3.019508, 41.88297], [3.019449, 41.883017], [3.01934, 41.883109], [3.019182, 41.883245], [3.018974, 41.883425], [3.018782, 41.883579], [3.018604, 41.883709], [3.018441, 41.883814], [3.018293, 41.883894], [3.018166, 41.883941], [3.01806, 41.883955], [3.017974, 41.883937], [3.01791, 41.883886], [3.017858, 41.883836], [3.017819, 41.883787], [3.017792, 41.88374], [3.017777, 41.883693], [3.017755, 41.88365], [3.017726, 41.883611], [3.01769, 41.883576], [3.017646, 41.883545], [3.017573, 41.883527], [3.017471, 41.883521], [3.017339, 41.883529], [3.017178, 41.883549], [3.017052, 41.883596], [3.016961, 41.883669], [3.016907, 41.883768], [3.016888, 41.883893], [3.016829, 41.884025], [3.016732, 41.884162], [3.016595, 41.884306], [3.016418, 41.884455], [3.016257, 41.884572], [3.016112, 41.884657], [3.015982, 41.88471], [3.015867, 41.88473], [3.015779, 41.884751], [3.015718, 41.884773], [3.015684, 41.884796], [3.015676, 41.88482], [3.015618, 41.884862], [3.015508, 41.884921], [3.015347, 41.884998], [3.015135, 41.885092], [3.014948, 41.885177], [3.014787, 41.885252], [3.014652, 41.885317], [3.014543, 41.885373], [3.014468, 41.885423], [3.014428, 41.885468], [3.014422, 41.885507], [3.014451, 41.885541], [3.014486, 41.885572], [3.014527, 41.885602], [3.014575, 41.885629], [3.014628, 41.885653], [3.014685, 41.885686], [3.014746, 41.885728], [3.01481, 41.885777], [3.014879, 41.885835], [3.014944, 41.885904], [3.015008, 41.885986], [3.015068, 41.88608], [3.015126, 41.886186], [3.015194, 41.886276], [3.015273, 41.88635], [3.015361, 41.886408], [3.015459, 41.88645], [3.015533, 41.886482], [3.015583, 41.886503], [3.015608, 41.886514], [3.015609, 41.886515], [3.015603, 41.886526], [3.015588, 41.886546], [3.015566, 41.886577], [3.015536, 41.886618], [3.015539, 41.88664], [3.015574, 41.886642], [3.015642, 41.886626], [3.015743, 41.88659], [3.015854, 41.88656], [3.015975, 41.886538], [3.016106, 41.886522], [3.016247, 41.886513], [3.016385, 41.886508], [3.016519, 41.886508], [3.016649, 41.886512], [3.016776, 41.886521], [3.016883, 41.886543], [3.016972, 41.886577], [3.017041, 41.886625], [3.017092, 41.886687], [3.017125, 41.886752], [3.017143, 41.886823], [3.017144, 41.886899], [3.017128, 41.886979], [3.017109, 41.887052], [3.017085, 41.887118], [3.017058, 41.887176], [3.017027, 41.887226], [3.01702, 41.887282], [3.017039, 41.887343], [3.017082, 41.88741], [3.01715, 41.887482], [3.017207, 41.887556], [3.017253, 41.887634], [3.017286, 41.887714], [3.017309, 41.887797], [3.017315, 41.887869], [3.017305, 41.887931], [3.017278, 41.887982], [3.017235, 41.888022], [3.017177, 41.888028], [3.017104, 41.887998], [3.017015, 41.887935], [3.016912, 41.887836], [3.016787, 41.887741], [3.016641, 41.88765], [3.016475, 41.887561], [3.016287, 41.887476], [3.016133, 41.887424], [3.016014, 41.887404], [3.01593, 41.887416], [3.01588, 41.88746], [3.015841, 41.887511], [3.015812, 41.887569], [3.015793, 41.887634], [3.015785, 41.887705], [3.015772, 41.88778], [3.015753, 41.887858], [3.01573, 41.887939], [3.015701, 41.888023], [3.015671, 41.888103], [3.01564, 41.88818], [3.015607, 41.888254], [3.015574, 41.888323], [3.015535, 41.888359], [3.01549, 41.88836], [3.015439, 41.888328], [3.015383, 41.888262], [3.015321, 41.88819], [3.015253, 41.888114], [3.01518, 41.888032], [3.015101, 41.887945], [3.015024, 41.887875], [3.014952, 41.887821], [3.014882, 41.887785], [3.014816, 41.887765], [3.014746, 41.887745], [3.014672, 41.887723], [3.014594, 41.887699], [3.014512, 41.887675], [3.014425, 41.887668], [3.014334, 41.887679], [3.014238, 41.887707], [3.014137, 41.887753], [3.014053, 41.887787], [3.013987, 41.887809], [3.013938, 41.887818], [3.013906, 41.887816], [3.013873, 41.887826], [3.013839, 41.887847], [3.013803, 41.887881], [3.013766, 41.887926], [3.013737, 41.887963], [3.013714, 41.887991], [3.0137, 41.888011], [3.013693, 41.888022], [3.013676, 41.888052], [3.01365, 41.888101], [3.013615, 41.888168], [3.01357, 41.888254], [3.013537, 41.88832], [3.013517, 41.888366], [3.013509, 41.888392], [3.013513, 41.888399], [3.013524, 41.888408], [3.013542, 41.888422], [3.013566, 41.888439], [3.013597, 41.888459], [3.013654, 41.888485], [3.013737, 41.888516], [3.013847, 41.888554], [3.013983, 41.888597], [3.01412, 41.888642], [3.014259, 41.888689], [3.014399, 41.888738], [3.01454, 41.888789], [3.014648, 41.888841], [3.014723, 41.888896], [3.014765, 41.888953], [3.014773, 41.889012], [3.014769, 41.88907], [3.014754, 41.889127], [3.014726, 41.889182], [3.014687, 41.889235], [3.014642, 41.889285], [3.014592, 41.889331], [3.014536, 41.889374], [3.014475, 41.889412], [3.014412, 41.889438], [3.014347, 41.889452], [3.014281, 41.889453], [3.014213, 41.889441], [3.01416, 41.889432], [3.01412, 41.889425], [3.014094, 41.889419], [3.014083, 41.889416], [3.014076, 41.889406], [3.014075, 41.889389], [3.014079, 41.889365], [3.014089, 41.889334], [3.014095, 41.889304], [3.014099, 41.889274], [3.014099, 41.889244], [3.014097, 41.889214], [3.014088, 41.889184], [3.014072, 41.889152], [3.014049, 41.88912], [3.01402, 41.889086], [3.013981, 41.889048], [3.013931, 41.889007], [3.013872, 41.888961], [3.013803, 41.888911], [3.01374, 41.888865], [3.013683, 41.888822], [3.013633, 41.888784], [3.013589, 41.888749], [3.013548, 41.88871], [3.013509, 41.888666], [3.013474, 41.888617], [3.013441, 41.888564], [3.013409, 41.888527], [3.013379, 41.888507], [3.013349, 41.888503], [3.01332, 41.888516], [3.013266, 41.888519], [3.013185, 41.888512], [3.013079, 41.888495], [3.012947, 41.888468], [3.012847, 41.888426], [3.012778, 41.888369], [3.012741, 41.888297], [3.012735, 41.888211], [3.012731, 41.888143], [3.012727, 41.888093], [3.012725, 41.888061], [3.012724, 41.888048], [3.01272, 41.888017], [3.012712, 41.88797], [3.012701, 41.887905], [3.012687, 41.887822], [3.012683, 41.88774], [3.012689, 41.887657], [3.012706, 41.887573], [3.012734, 41.88749], [3.01276, 41.887408], [3.012784, 41.887328], [3.012806, 41.887251], [3.012827, 41.887176], [3.012827, 41.887101], [3.012807, 41.887028], [3.012767, 41.886955], [3.012706, 41.886883], [3.012642, 41.886828], [3.012574, 41.886789], [3.012503, 41.886767], [3.012429, 41.886762], [3.012339, 41.886762], [3.012235, 41.886767], [3.012116, 41.886778], [3.011982, 41.886793], [3.011864, 41.886819], [3.011761, 41.886856], [3.011673, 41.886903], [3.0116, 41.886962], [3.011528, 41.887021], [3.011456, 41.887081], [3.011385, 41.887143], [3.011315, 41.887206], [3.011259, 41.887279], [3.011216, 41.887363], [3.011187, 41.887457], [3.011172, 41.887562], [3.011149, 41.887651], [3.011116, 41.887723], [3.011075, 41.887779], [3.011026, 41.887818], [3.010964, 41.887842], [3.010889, 41.88785], [3.010802, 41.887843], [3.010703, 41.88782], [3.010607, 41.887778], [3.010513, 41.887716], [3.010423, 41.887635], [3.010335, 41.887534], [3.010264, 41.887458], [3.010208, 41.887407], [3.010168, 41.88738], [3.010144, 41.887379], [3.010068, 41.887377], [3.009939, 41.887376], [3.009758, 41.887375], [3.009524, 41.887375], [3.009327, 41.887378], [3.009169, 41.887385], [3.009048, 41.887396], [3.008966, 41.88741], [3.008871, 41.887435], [3.008763, 41.887471], [3.008643, 41.887516], [3.00851, 41.887572], [3.008408, 41.887598], [3.008337, 41.887593], [3.008296, 41.887557], [3.008286, 41.887491], [3.008256, 41.887426], [3.008208, 41.887362], [3.008141, 41.887299], [3.008055, 41.887236], [3.007986, 41.887173], [3.007933, 41.88711], [3.007897, 41.887046], [3.007877, 41.886981], [3.007852, 41.886914], [3.007821, 41.886844], [3.007784, 41.886772], [3.007742, 41.886697], [3.007695, 41.886639], [3.007642, 41.886598], [3.007585, 41.886574], [3.007523, 41.886567], [3.007447, 41.886568], [3.007358, 41.886575], [3.007255, 41.886589], [3.007138, 41.88661], [3.007048, 41.886633], [3.006986, 41.886658], [3.006949, 41.886685], [3.00694, 41.886714], [3.006944, 41.886754], [3.00696, 41.886806], [3.00699, 41.88687], [3.007032, 41.886945], [3.007081, 41.887014], [3.007137, 41.887076], [3.0072, 41.887132], [3.007269, 41.887182], [3.007351, 41.887238], [3.007446, 41.887298], [3.007554, 41.887365], [3.007675, 41.887436], [3.007778, 41.887504], [3.007864, 41.887567], [3.007932, 41.887627], [3.007983, 41.887682], [3.008026, 41.887743], [3.00806, 41.887808], [3.008087, 41.887879], [3.008105, 41.887955], [3.008123, 41.888025], [3.008141, 41.888089], [3.008159, 41.888148], [3.008177, 41.888201], [3.00821, 41.888277], [3.008257, 41.888375], [3.008319, 41.888495], [3.008396, 41.888638], [3.008465, 41.888784], [3.008528, 41.888933], [3.008583, 41.889084], [3.008631, 41.889239], [3.008692, 41.889368], [3.008765, 41.889474], [3.008851, 41.889554], [3.008949, 41.88961], [3.009022, 41.889652], [3.009068, 41.889681], [3.009088, 41.889697], [3.009083, 41.889699], [3.009076, 41.889749], [3.009069, 41.889846], [3.009061, 41.88999], [3.009052, 41.890181], [3.009045, 41.890365], [3.00904, 41.890542], [3.009038, 41.890712], [3.009039, 41.890875], [3.009082, 41.891038], [3.009168, 41.891201], [3.009296, 41.891365], [3.009468, 41.891528], [3.009593, 41.891661], [3.009671, 41.891764], [3.009704, 41.891837], [3.00969, 41.89188], [3.009756, 41.891935], [3.009901, 41.892002], [3.010125, 41.892083], [3.010428, 41.892175], [3.010728, 41.892277], [3.011023, 41.892388], [3.011314, 41.892507], [3.011601, 41.892636], [3.01184, 41.892748], [3.012032, 41.892844], [3.012176, 41.892923], [3.012272, 41.892986], [3.012374, 41.89305], [3.012482, 41.893117], [3.012596, 41.893185], [3.012716, 41.893256], [3.012801, 41.893351], [3.012852, 41.893471], [3.012867, 41.893616], [3.012848, 41.893785], [3.012854, 41.893952], [3.012887, 41.894116], [3.012946, 41.894277], [3.013031, 41.894435], [3.013113, 41.894567], [3.013192, 41.894673], [3.013267, 41.894753], [3.013338, 41.894807], [3.013426, 41.894873], [3.013531, 41.894952], [3.013652, 41.895043], [3.01379, 41.895146], [3.013916, 41.895255], [3.014032, 41.895369], [3.014136, 41.895489], [3.014229, 41.895613], [3.014344, 41.895739], [3.01448, 41.895867], [3.014638, 41.895996], [3.014817, 41.896126], [3.014949, 41.896247], [3.015034, 41.896359], [3.01507, 41.896461], [3.01506, 41.896553], [3.015045, 41.896622], [3.015027, 41.896666], [3.015005, 41.896687], [3.01498, 41.896684], [3.014966, 41.896689], [3.014964, 41.896702], [3.014974, 41.896724], [3.014995, 41.896755], [3.015027, 41.896814], [3.015068, 41.896902], [3.015121, 41.897019], [3.015183, 41.897165], [3.015213, 41.897353], [3.015211, 41.897584], [3.015176, 41.897857], [3.01511, 41.898172], [3.015075, 41.898448], [3.015072, 41.898685], [3.015101, 41.898884], [3.015162, 41.899043], [3.015206, 41.899191], [3.015233, 41.899328], [3.015243, 41.899453], [3.015236, 41.899567], [3.015199, 41.899648], [3.015133, 41.899695], [3.015037, 41.89971], [3.014911, 41.899692], [3.014725, 41.89966], [3.014478, 41.899613], [3.01417, 41.899552], [3.013802, 41.899476], [3.013493, 41.899445], [3.013242, 41.89946], [3.01305, 41.899519], [3.012916, 41.899624], [3.012809, 41.899712], [3.012727, 41.899784], [3.012672, 41.89984], [3.012644, 41.899879], [3.012616, 41.899976], [3.012589, 41.900132], [3.012563, 41.900346], [3.012538, 41.900618], [3.012548, 41.900857], [3.012595, 41.901061], [3.012677, 41.901231], [3.012795, 41.901367], [3.012911, 41.901498], [3.013024, 41.901625], [3.013134, 41.901747], [3.013243, 41.901864], [3.01331, 41.901994], [3.013336, 41.902138], [3.013321, 41.902294], [3.013265, 41.902464], [3.013156, 41.902593], [3.012994, 41.902683], [3.012778, 41.902732], [3.01251, 41.90274], [3.012296, 41.902742], [3.012136, 41.902736], [3.012032, 41.902722], [3.011981, 41.902702], [3.011939, 41.902694], [3.011905, 41.902699], [3.01188, 41.902716], [3.011863, 41.902746], [3.011827, 41.902792], [3.011772, 41.902852], [3.011698, 41.902927], [3.011605, 41.903018], [3.011496, 41.903098], [3.011373, 41.903168], [3.011233, 41.903227], [3.011079, 41.903276], [3.010933, 41.903301], [3.010795, 41.903304], [3.010666, 41.903284], [3.010545, 41.903241], [3.010432, 41.903198], [3.010326, 41.903154], [3.010228, 41.903111], [3.010137, 41.903067], [3.010046, 41.903048], [3.009954, 41.903052], [3.009862, 41.903081], [3.00977, 41.903135], [3.009635, 41.903188], [3.009457, 41.903243], [3.009235, 41.903299], [3.008971, 41.903355], [3.008769, 41.903382], [3.00863, 41.903381], [3.008554, 41.903352], [3.008541, 41.903294], [3.008538, 41.903236], [3.008544, 41.903178], [3.008561, 41.90312], [3.008587, 41.903062], [3.008647, 41.903006], [3.008741, 41.902951], [3.008869, 41.902899], [3.00903, 41.902848], [3.009174, 41.902797], [3.009301, 41.902746], [3.00941, 41.902696], [3.009502, 41.902645], [3.009571, 41.902594], [3.009616, 41.902542], [3.009639, 41.90249], [3.009638, 41.902438], [3.009625, 41.902392], [3.0096, 41.902353], [3.009562, 41.902321], [3.009512, 41.902295], [3.009469, 41.902273], [3.009433, 41.902256], [3.009404, 41.902243], [3.009382, 41.902234], [3.009376, 41.902205], [3.009385, 41.902156], [3.009409, 41.902086], [3.009449, 41.901997], [3.009487, 41.901913], [3.009522, 41.901833], [3.009556, 41.901759], [3.009587, 41.901689], [3.009607, 41.901613], [3.009616, 41.901532], [3.009615, 41.901446], [3.009602, 41.901354], [3.009587, 41.901279], [3.00957, 41.901223], [3.009552, 41.901184], [3.009531, 41.901163], [3.009519, 41.901121], [3.009514, 41.90106], [3.009518, 41.900978], [3.00953, 41.900876], [3.009496, 41.900782], [3.009416, 41.900696], [3.009291, 41.900619], [3.009121, 41.90055], [3.008951, 41.900486], [3.008782, 41.900427], [3.008615, 41.900373], [3.008448, 41.900324], [3.00831, 41.900294], [3.008201, 41.900283], [3.00812, 41.90029], [3.008067, 41.900316], [3.007998, 41.900331], [3.007914, 41.900335], [3.007813, 41.900328], [3.007696, 41.90031], [3.007585, 41.900297], [3.00748, 41.90029], [3.007381, 41.900288], [3.007287, 41.900291], [3.007196, 41.900311], [3.007106, 41.900347], [3.007017, 41.900399], [3.00693, 41.900468], [3.006866, 41.900533], [3.006824, 41.900595], [3.006806, 41.900653], [3.006812, 41.900709], [3.006816, 41.900756], [3.00682, 41.900796], [3.006823, 41.900829], [3.006825, 41.900854], [3.006839, 41.900896], [3.006864, 41.900956], [3.006901, 41.901034], [3.00695, 41.901129], [3.006997, 41.901226], [3.007044, 41.901323], [3.00709, 41.901422], [3.007135, 41.901522], [3.007232, 41.901624], [3.007382, 41.901728], [3.007585, 41.901834], [3.007841, 41.901941], [3.008058, 41.902036], [3.008237, 41.902118], [3.008378, 41.902187], [3.008481, 41.902244], [3.008578, 41.902287], [3.008669, 41.902316], [3.008754, 41.90233], [3.008833, 41.902331], [3.008896, 41.90234], [3.008942, 41.902358], [3.008971, 41.902385], [3.008983, 41.902421], [3.008981, 41.902459], [3.008963, 41.9025], [3.00893, 41.902544], [3.008881, 41.90259], [3.008788, 41.902632], [3.00865, 41.902668], [3.008467, 41.902699], [3.008239, 41.902726], [3.008002, 41.902758], [3.007756, 41.902797], [3.007501, 41.902842], [3.007237, 41.902893], [3.007002, 41.902945], [3.006796, 41.902998], [3.006618, 41.903051], [3.00647, 41.903105], [3.006197, 41.903047], [3.0058, 41.902875], [3.005278, 41.90259], [3.004632, 41.902192], [3.004111, 41.90191], [3.003713, 41.901744], [3.003439, 41.901694], [3.003289, 41.901761], [3.00316, 41.901825], [3.003052, 41.901887], [3.002965, 41.901947], [3.002899, 41.902004], [3.002812, 41.902048], [3.002704, 41.902078], [3.002576, 41.902094], [3.002427, 41.902096], [3.002317, 41.902043], [3.002246, 41.901936], [3.002215, 41.901775], [3.002224, 41.90156], [3.002262, 41.90133], [3.002329, 41.901086], [3.002427, 41.900828], [3.002554, 41.900556], [3.002673, 41.900305], [3.002784, 41.900074], [3.002887, 41.899863], [3.002981, 41.899674], [3.003073, 41.89953], [3.003162, 41.899433], [3.003248, 41.899382], [3.00333, 41.899378], [3.003394, 41.89937], [3.003438, 41.899357], [3.003463, 41.899341], [3.003468, 41.89932], [3.003422, 41.899269], [3.003325, 41.899187], [3.003177, 41.899075], [3.002978, 41.898932], [3.002817, 41.898821], [3.002694, 41.898742], [3.00261, 41.898695], [3.002565, 41.89868], [3.002487, 41.898712], [3.002376, 41.898789], [3.002233, 41.898913], [3.002057, 41.899083], [3.001905, 41.899242], [3.001779, 41.899389], [3.001677, 41.899525], [3.0016, 41.899649], [3.001505, 41.89976], [3.001392, 41.899858], [3.001261, 41.899943], [3.001112, 41.900015], [3.000972, 41.900086], [3.000843, 41.900156], [3.000723, 41.900226], [3.000613, 41.900295], [3.000522, 41.900375], [3.000449, 41.900467], [3.000394, 41.900571], [3.000357, 41.900686], [3.00035, 41.900815], [3.000373, 41.900957], [3.000425, 41.901114], [3.000507, 41.901285], [3.0006, 41.901437], [3.000702, 41.90157], [3.000814, 41.901686], [3.000936, 41.901782], [3.001028, 41.901853], [3.001089, 41.901899], [3.00112, 41.901919], [3.001121, 41.901913], [3.001165, 41.901935], [3.001253, 41.901985], [3.001385, 41.902064], [3.001561, 41.90217], [3.00162, 41.902305], [3.001562, 41.902469], [3.001387, 41.902661], [3.001095, 41.902882], [3.000857, 41.903046], [3.000671, 41.903153], [3.000539, 41.903204], [3.00046, 41.903197], [3.000402, 41.903197], [3.000365, 41.903203], [3.000349, 41.903215], [3.000355, 41.903234], [3.000341, 41.90329], [3.00031, 41.903384], [3.000259, 41.903515], [3.000189, 41.903683], [3.000125, 41.903848], [3.000067, 41.904009], [3.000014, 41.904167], [2.999966, 41.904322], [2.999971, 41.904537], [3.00003, 41.904811], [3.000141, 41.905147], [3.000306, 41.905542], [3.000442, 41.905867], [3.000547, 41.906123], [3.000624, 41.906309], [3.00067, 41.906425], [3.000702, 41.906542], [3.000719, 41.90666], [3.00072, 41.906778], [3.000706, 41.906898], [3.000677, 41.907042], [3.000632, 41.907212], [3.000572, 41.907408], [3.000497, 41.907628], [3.000431, 41.90781], [3.000375, 41.907954], [3.000329, 41.908059], [3.000292, 41.908126], [3.000278, 41.908207], [3.000288, 41.908303], [3.000321, 41.908414], [3.000378, 41.908539], [3.000427, 41.90864], [3.000468, 41.908719], [3.0005, 41.908775], [3.000525, 41.908807], [3.000555, 41.908834], [3.000589, 41.908854], [3.000629, 41.908867], [3.000672, 41.908875], [3.000723, 41.908894], [3.000781, 41.908924], [3.000846, 41.908965], [3.000918, 41.909018], [3.000978, 41.909076], [3.001024, 41.909141], [3.001058, 41.909212], [3.001079, 41.909289], [3.001094, 41.909356], [3.001102, 41.909412], [3.001104, 41.909458], [3.0011, 41.909494], [3.001095, 41.909534], [3.00109, 41.909577], [3.001085, 41.909623], [3.001079, 41.909673], [3.001085, 41.90971], [3.001103, 41.909732], [3.001132, 41.909742], [3.001173, 41.909737], [3.001225, 41.909732], [3.001289, 41.909725], [3.001365, 41.909717], [3.001452, 41.909708], [3.001544, 41.909689], [3.001641, 41.909658], [3.001743, 41.909618], [3.001849, 41.909566], [3.001943, 41.909506], [3.002023, 41.909436], [3.002091, 41.909357], [3.002146, 41.909268], [3.002202, 41.909173], [3.00226, 41.909071], [3.00232, 41.908962], [3.002382, 41.908846], [3.002436, 41.908731], [3.002483, 41.908617], [3.002522, 41.908503], [3.002554, 41.908391], [3.002606, 41.9083], [3.002679, 41.908231], [3.002773, 41.908184], [3.002887, 41.908158], [3.002986, 41.90815], [3.003069, 41.908159], [3.003136, 41.908184], [3.003187, 41.908227], [3.00323, 41.908281], [3.003265, 41.908346], [3.003292, 41.908423], [3.003312, 41.908511], [3.003304, 41.908601], [3.003267, 41.908694], [3.003202, 41.908789], [3.003109, 41.908886], [3.003026, 41.90898], [3.002955, 41.909071], [3.002893, 41.90916], [3.002842, 41.909246], [3.002806, 41.909364], [3.002783, 41.909515], [3.002774, 41.909698], [3.002779, 41.909914], [3.002794, 41.910122], [3.00282, 41.910322], [3.002857, 41.910514], [3.002904, 41.910698], [3.002979, 41.910849], [3.003082, 41.910965], [3.003213, 41.911047], [3.003373, 41.911096], [3.003501, 41.911128], [3.003599, 41.911145], [3.003667, 41.911146], [3.003703, 41.911132], [3.003747, 41.911129], [3.003799, 41.911136], [3.003859, 41.911155], [3.003926, 41.911185], [3.003975, 41.911211], [3.004007, 41.911233], [3.004021, 41.911252], [3.004018, 41.911267], [3.004013, 41.91129], [3.004005, 41.91132], [3.003996, 41.911358], [3.003986, 41.911403], [3.004059, 41.911504], [3.004217, 41.91166], [3.004459, 41.911871], [3.004786, 41.912137], [3.00504, 41.912343], [3.00522, 41.912488], [3.005328, 41.912573], [3.005362, 41.912598], [3.005408, 41.912626], [3.005465, 41.912657], [3.005533, 41.91269], [3.005612, 41.912727], [3.005673, 41.912757], [3.005714, 41.912779], [3.005736, 41.912793], [3.00574, 41.9128], [3.005762, 41.912814], [3.005802, 41.912833], [3.00586, 41.912859], [3.005937, 41.912891], [3.006033, 41.912896], [3.006149, 41.912876], [3.006284, 41.91283], [3.006438, 41.912757], [3.00657, 41.912703], [3.00668, 41.912667], [3.006768, 41.91265], [3.006833, 41.912651], [3.006939, 41.912685], [3.007084, 41.912754], [3.00727, 41.912857], [3.007496, 41.912994], [3.007684, 41.913129], [3.007835, 41.913262], [3.007948, 41.913394], [3.008024, 41.913524], [3.008088, 41.913631], [3.008142, 41.913714], [3.008184, 41.913774], [3.008215, 41.91381], [3.008274, 41.913857], [3.00836, 41.913916], [3.008474, 41.913987], [3.008616, 41.914068], [3.00874, 41.91415], [3.008846, 41.914231], [3.008935, 41.914312], [3.009006, 41.914392], [3.009076, 41.914484], [3.009145, 41.914587], [3.009213, 41.914702], [3.009279, 41.914827], [3.009344, 41.914931], [3.009407, 41.915013], [3.009469, 41.915073], [3.00953, 41.915112], [3.009601, 41.915166], [3.009681, 41.915236], [3.009771, 41.915321], [3.00987, 41.915423], [3.009943, 41.91552], [3.00999, 41.915614], [3.010011, 41.915705], [3.010006, 41.915791], [3.010016, 41.915881], [3.010041, 41.915973], [3.01008, 41.916069], [3.010134, 41.916167], [3.01021, 41.916239], [3.010308, 41.916283], [3.010428, 41.916301], [3.01057, 41.916292], [3.010745, 41.916286], [3.010951, 41.916284], [3.01119, 41.916284], [3.011462, 41.916288], [3.011684, 41.916283], [3.011857, 41.916268], [3.01198, 41.916245], [3.012055, 41.916212], [3.012136, 41.916183], [3.012225, 41.916157], [3.01232, 41.916134], [3.012423, 41.916115], [3.012519, 41.916116], [3.012607, 41.916137], [3.012688, 41.916179], [3.012761, 41.916241], [3.012836, 41.91628], [3.012913, 41.916295], [3.012992, 41.916288], [3.013072, 41.916258], [3.013141, 41.916264], [3.0132, 41.916307], [3.013248, 41.916386], [3.013286, 41.916503], [3.013313, 41.916622], [3.01333, 41.916745], [3.013336, 41.916872], [3.013332, 41.917001], [3.013343, 41.91713], [3.013369, 41.917258], [3.01341, 41.917385], [3.013466, 41.917511], [3.013536, 41.917652], [3.013618, 41.917807], [3.013714, 41.917978], [3.013824, 41.918163], [3.013928, 41.918324], [3.014027, 41.918459], [3.014122, 41.91857], [3.014211, 41.918656], [3.014299, 41.918794], [3.014387, 41.918985], [3.014474, 41.919227], [3.01456, 41.919523], [3.014618, 41.919795], [3.014647, 41.920045], [3.014649, 41.920273], [3.014621, 41.920478], [3.01462, 41.920648], [3.014645, 41.920784], [3.014697, 41.920885], [3.014774, 41.920952], [3.014877, 41.921], [3.015006, 41.921029], [3.015162, 41.92104], [3.015343, 41.921033], [3.015483, 41.921035], [3.015581, 41.921044], [3.015637, 41.921063], [3.015651, 41.92109], [3.015675, 41.921138], [3.015708, 41.921207], [3.015751, 41.921298], [3.015803, 41.921411], [3.015815, 41.921521], [3.015788, 41.921631], [3.015722, 41.921739], [3.015616, 41.921845], [3.01558, 41.921932], [3.015616, 41.922], [3.015722, 41.922048], [3.0159, 41.922077], [3.016064, 41.922098], [3.016214, 41.922111], [3.016351, 41.922116], [3.016474, 41.922114], [3.016586, 41.922123], [3.016689, 41.922144], [3.016781, 41.922176], [3.016863, 41.92222], [3.01692, 41.922285], [3.016954, 41.922371], [3.016963, 41.922479], [3.016948, 41.922609], [3.016921, 41.922721], [3.016881, 41.922816], [3.016829, 41.922893], [3.016764, 41.922954], [3.016747, 41.923068], [3.016779, 41.923236], [3.016858, 41.923457], [3.016985, 41.923732], [3.017089, 41.923951], [3.017167, 41.924114], [3.017222, 41.924221], [3.017252, 41.924272], [3.017362, 41.924324], [3.017551, 41.924378], [3.017819, 41.924433], [3.018167, 41.92449], [3.018446, 41.924533], [3.018657, 41.924562], [3.0188, 41.924578], [3.018874, 41.92458], [3.01894, 41.924581], [3.018998, 41.924582], [3.019047, 41.924583], [3.019088, 41.924584], [3.019137, 41.924604], [3.019193, 41.924642], [3.019256, 41.924699], [3.019327, 41.924775], [3.019355, 41.92484], [3.01934, 41.924895], [3.019282, 41.924939], [3.019182, 41.924974], [3.019066, 41.925014], [3.018934, 41.925059], [3.018787, 41.925109], [3.018624, 41.925165], [3.018494, 41.925244], [3.018397, 41.925347], [3.018332, 41.925473], [3.018301, 41.925623], [3.018275, 41.925756], [3.018254, 41.925871], [3.018239, 41.925969], [3.01823, 41.92605], [3.018228, 41.926111], [3.018235, 41.926152], [3.018248, 41.926173], [3.01827, 41.926174], [3.018318, 41.926193], [3.018394, 41.926228], [3.018496, 41.92628], [3.018626, 41.926349], [3.018725, 41.926402], [3.018795, 41.926439], [3.018835, 41.926461], [3.018846, 41.926467], [3.018853, 41.926476], [3.018856, 41.926487], [3.018857, 41.926502], [3.018853, 41.926519], [3.018867, 41.926538], [3.018896, 41.92656], [3.018942, 41.926584], [3.019005, 41.926609], [3.019055, 41.926663], [3.019095, 41.926743], [3.019123, 41.92685], [3.019139, 41.926985], [3.019145, 41.927115], [3.01914, 41.927241], [3.019124, 41.927363], [3.019098, 41.927481], [3.019142, 41.927567], [3.019256, 41.927623], [3.019441, 41.927648], [3.019695, 41.927641], [3.01991, 41.927636], [3.020086, 41.927632], [3.020221, 41.927628], [3.020317, 41.927625], [3.0204, 41.927646], [3.020471, 41.927692], [3.02053, 41.927762], [3.020576, 41.927855], [3.02057, 41.927949], [3.020512, 41.928043], [3.020401, 41.928137], [3.020238, 41.92823], [3.0201, 41.928324], [3.019987, 41.928419], [3.0199, 41.928514], [3.019838, 41.92861], [3.019806, 41.928702], [3.019802, 41.92879], [3.019827, 41.928874], [3.019882, 41.928954], [3.020003, 41.929095], [3.020193, 41.929297], [3.02045, 41.929559], [3.020775, 41.929882], [3.021089, 41.930218], [3.021392, 41.930565], [3.021685, 41.930925], [3.021966, 41.931298], [3.022264, 41.931632], [3.022579, 41.931929], [3.022912, 41.932187], [3.023261, 41.932407], [3.023536, 41.932597], [3.023737, 41.932759], [3.023863, 41.932892], [3.023915, 41.932996], [3.024036, 41.933086], [3.024227, 41.933164], [3.024488, 41.933229], [3.024819, 41.93328], [3.025088, 41.933342], [3.025296, 41.933414], [3.025442, 41.933496], [3.025527, 41.933587], [3.0256, 41.933668], [3.025662, 41.933736], [3.025713, 41.933793], [3.025752, 41.933839], [3.025833, 41.933882], [3.025955, 41.933921], [3.02612, 41.933958], [3.026325, 41.933991], [3.026487, 41.934027], [3.026604, 41.934065], [3.026678, 41.934106], [3.026707, 41.934149], [3.026742, 41.934201], [3.026783, 41.934261], [3.026829, 41.934329], [3.026882, 41.934406], [3.026922, 41.934483], [3.02695, 41.93456], [3.026966, 41.934637], [3.02697, 41.934713], [3.027006, 41.934775], [3.027073, 41.934823], [3.027173, 41.934856], [3.027304, 41.934875], [3.027439, 41.934854], [3.02758, 41.934795], [3.027724, 41.934697], [3.027873, 41.934559], [3.027986, 41.934422], [3.028062, 41.934284], [3.028102, 41.934146], [3.028105, 41.934008], [3.028087, 41.933884], [3.028049, 41.933774], [3.02799, 41.933678], [3.027911, 41.933596], [3.02781, 41.933515], [3.027688, 41.933435], [3.027544, 41.933355], [3.02738, 41.933277], [3.02726, 41.933204], [3.027185, 41.933137], [3.027156, 41.933075], [3.027172, 41.933019], [3.02717, 41.93297], [3.027151, 41.932928], [3.027113, 41.932893], [3.027059, 41.932866], [3.026976, 41.932831], [3.026867, 41.932788], [3.02673, 41.932736], [3.026565, 41.932677], [3.026438, 41.932617], [3.02635, 41.932556], [3.0263, 41.932494], [3.026288, 41.932431], [3.026285, 41.93235], [3.02629, 41.93225], [3.026303, 41.932132], [3.026325, 41.931995], [3.026347, 41.931864], [3.026367, 41.931739], [3.026387, 41.93162], [3.026407, 41.931507], [3.02642, 41.931408], [3.026428, 41.931322], [3.026526, 41.931361], [3.026714, 41.931525], [3.02694, 41.931737], [3.027202, 41.931998], [3.027491, 41.932333], [3.027806, 41.932743], [3.028001, 41.933022], [3.028076, 41.933172], [3.028128, 41.933332], [3.028154, 41.933501], [3.028235, 41.933675], [3.028368, 41.933852], [3.028442, 41.934085], [3.028455, 41.934375], [3.028483, 41.934666], [3.028526, 41.934958], [3.028722, 41.935163], [3.029071, 41.93528], [3.02934, 41.935316], [3.02953, 41.935271], [3.029626, 41.935244], [3.029629, 41.935234], [3.029633, 41.93532], [3.029638, 41.935502], [3.029628, 41.935682], [3.029601, 41.935858], [3.029568, 41.936045], [3.029527, 41.936243], [3.029542, 41.936429], [3.029613, 41.936603], [3.029651, 41.936782], [3.029654, 41.936965], [3.029653, 41.937134], [3.029647, 41.937289], [3.029682, 41.93741], [3.029757, 41.937498], [3.029952, 41.937525], [3.030266, 41.937492], [3.030517, 41.937557], [3.030705, 41.937721], [3.030931, 41.937878], [3.031193, 41.938029], [3.031509, 41.938111], [3.031879, 41.938123], [3.032147, 41.938068], [3.032313, 41.937947], [3.032423, 41.937811], [3.032477, 41.937659], [3.032439, 41.937568], [3.032309, 41.937536], [3.032164, 41.937446], [3.032004, 41.937298], [3.031937, 41.937165], [3.031963, 41.937048], [3.032076, 41.936907], [3.032278, 41.936743], [3.032379, 41.936547], [3.032381, 41.936319], [3.03233, 41.93618], [3.032226, 41.936132], [3.032023, 41.936072], [3.031721, 41.936001], [3.031439, 41.935993], [3.031177, 41.936048], [3.030982, 41.93613], [3.030854, 41.93624], [3.030678, 41.936312], [3.030455, 41.936347], [3.030345, 41.936296], [3.030349, 41.936159], [3.030374, 41.935989], [3.030422, 41.935787], [3.030477, 41.935652], [3.030539, 41.935583], [3.030722, 41.935449], [3.031025, 41.935251], [3.03117, 41.935097], [3.031158, 41.934986], [3.031089, 41.934904], [3.030961, 41.934849], [3.030827, 41.934828], [3.030685, 41.934841], [3.030541, 41.934856], [3.030393, 41.934874], [3.030307, 41.93482], [3.030285, 41.934695], [3.030286, 41.934556], [3.03031, 41.934402], [3.030274, 41.934317], [3.030178, 41.934301], [3.030083, 41.934313], [3.029987, 41.934352], [3.029888, 41.934448], [3.029785, 41.934601], [3.029719, 41.934683], [3.029688, 41.934695], [3.029597, 41.934594]], [[3.024569, 41.925792], [3.024056, 41.925934], [3.023225, 41.925343], [3.022727, 41.924527], [3.022711, 41.924046], [3.022346, 41.92331], [3.022006, 41.922771], [3.022018, 41.922665], [3.022111, 41.922476], [3.022538, 41.922257], [3.023198, 41.923103], [3.023803, 41.924015], [3.024083, 41.924461], [3.02528, 41.924545], [3.025766, 41.925253], [3.026047, 41.925486], [3.026193, 41.925656], [3.025527, 41.926516], [3.024569, 41.925792]], [[3.021806, 41.921211], [3.021555, 41.920928], [3.021641, 41.920383], [3.021534, 41.920287], [3.021781, 41.919984], [3.022541, 41.919753], [3.023038, 41.91913], [3.023396, 41.918693], [3.023871, 41.918051], [3.024146, 41.917715], [3.024253, 41.917403], [3.024341, 41.917054], [3.02444, 41.917007], [3.024622, 41.917073], [3.024801, 41.91737], [3.024884, 41.918086], [3.024818, 41.918668], [3.024768, 41.918895], [3.022459, 41.921293], [3.021806, 41.921211]], [[3.018202, 41.923145], [3.017916, 41.922752], [3.017426, 41.922487], [3.017431, 41.922239], [3.01749, 41.922136], [3.017697, 41.922186], [3.018378, 41.922642], [3.018778, 41.922866], [3.019005, 41.922953], [3.01876, 41.923433], [3.018202, 41.923145]], [[3.012144, 41.913727], [3.011779, 41.913338], [3.011475, 41.913065], [3.01139, 41.912667], [3.011201, 41.912528], [3.010834, 41.91232], [3.010813, 41.912179], [3.010818, 41.912137], [3.011045, 41.911943], [3.011495, 41.911919], [3.012077, 41.912043], [3.012291, 41.91245], [3.012432, 41.912516], [3.012571, 41.913743], [3.012144, 41.913727]], [[3.025036, 41.893249], [3.025067, 41.892774], [3.025286, 41.892448], [3.025306, 41.892332], [3.025336, 41.892069], [3.02554, 41.891924], [3.026061, 41.89189], [3.026295, 41.891906], [3.026601, 41.892104], [3.026972, 41.892148], [3.027301, 41.892559], [3.027465, 41.892977], [3.027413, 41.893432], [3.027348, 41.893993], [3.027355, 41.894347], [3.027406, 41.894721], [3.027622, 41.895089], [3.027724, 41.895644], [3.027611, 41.896219], [3.027041, 41.896886], [3.027122, 41.897615], [3.0271, 41.897808], [3.027311, 41.898017], [3.027694, 41.898362], [3.027998, 41.898789], [3.027231, 41.899124], [3.026351, 41.899416], [3.02573, 41.899708], [3.025621, 41.899842], [3.025578, 41.900016], [3.025901, 41.900268], [3.025869, 41.900295], [3.026068, 41.900456], [3.026062, 41.900508], [3.02589, 41.900779], [3.025615, 41.900919], [3.025176, 41.900934], [3.025059, 41.901057], [3.025055, 41.901092], [3.024801, 41.901251], [3.024977, 41.901563], [3.025036, 41.901868], [3.024905, 41.902194], [3.024335, 41.902861], [3.024312, 41.902859], [3.024177, 41.902802], [3.024174, 41.902832], [3.023964, 41.902817], [3.02349, 41.902643], [3.023314, 41.902124], [3.023272, 41.90208], [3.023205, 41.901846], [3.023255, 41.901408], [3.023525, 41.901109], [3.024311, 41.900404], [3.024165, 41.899829], [3.023835, 41.899629], [3.023353, 41.899737], [3.023068, 41.899964], [3.022897, 41.899799], [3.02271, 41.900222], [3.022475, 41.900629], [3.022399, 41.900677], [3.021959, 41.900417], [3.02165, 41.900236], [3.021359, 41.90011], [3.02114, 41.899971], [3.021119, 41.89974], [3.021936, 41.899797], [3.02214, 41.899652], [3.022158, 41.899495], [3.022062, 41.899311], [3.021667, 41.89886], [3.022074, 41.898498], [3.022009, 41.898336], [3.022063, 41.897863], [3.022155, 41.897269], [3.022524, 41.896306], [3.022843, 41.895569], [3.023218, 41.895171], [3.023483, 41.894907], [3.023804, 41.89477], [3.023978, 41.894694], [3.024644, 41.895235], [3.024979, 41.895188], [3.024861, 41.894985], [3.025067, 41.893392], [3.025073, 41.89337], [3.025036, 41.893249]]]}}]}