{"type": "FeatureCollection", "name": "LAMIERLA", "features": [{"type": "Feature", "properties": {"id": "561620", "FIREDATE": "2026-07-16T12:08:00", "FINALDATE": "2026-07-22T04:34:00", "LASTUPDATE": "2026-07-17 07:22:54.534943", "COUNTRY": "ES", "PROVINCE": "Guadalajara", "COMMUNE": "Mierla, La", "AREA_HA": 35268.0, "BROADLEA": 2.3681, "CONIFER": 23.6472, "MIXED": 2.6489, "SCLEROPH": 32.0363, "TRANSIT": 2.6858, "OTHERNATLC": 31.6222, "AGRIAREAS": 4.9688, "ARTIFSURF": 0.0, "OTHERLC": 0.0227, "PERCNA2K": 52.0913, "CLASS": "7DAYS", "AÑO": 2026, "LATITUD": 41.10504348140686, "LONGITUD": -3.068863707998652}, "geometry": {"type": "Polygon", "coordinates": [[[-2.92857, 41.22599], [-2.929023, 41.226431], [-2.930197, 41.22887], [-2.930134, 41.229424], [-2.930114, 41.230472], [-2.930315, 41.230855], [-2.930375, 41.231712], [-2.930122, 41.231654], [-2.929675, 41.23153], [-2.929352, 41.231709], [-2.929661, 41.232033], [-2.929745, 41.232431], [-2.929471, 41.232558], [-2.929379, 41.232979], [-2.92885, 41.233321], [-2.928845, 41.233868], [-2.927874, 41.23354], [-2.928308, 41.233029], [-2.92876, 41.232606], [-2.92919, 41.232367], [-2.928414, 41.232105], [-2.929109, 41.231696], [-2.92918, 41.231459], [-2.928862, 41.231091], [-2.928923, 41.23081], [-2.929242, 41.230041], [-2.928582, 41.229764], [-2.927631, 41.229524], [-2.927144, 41.229497], [-2.927027, 41.229513], [-2.926241, 41.229206], [-2.925946, 41.229518], [-2.926147, 41.229901], [-2.926037, 41.230234], [-2.925615, 41.230516], [-2.925347, 41.230097], [-2.925294, 41.229558], [-2.92525, 41.229063], [-2.924216, 41.22929], [-2.923575, 41.229101], [-2.923272, 41.228231], [-2.9237, 41.228266], [-2.924186, 41.228293], [-2.924395, 41.227856], [-2.924952, 41.227647], [-2.924806, 41.226666], [-2.925041, 41.225498], [-2.925583, 41.225791], [-2.926135, 41.226128], [-2.926816, 41.22622], [-2.92748, 41.225951], [-2.928252, 41.225623], [-2.928401, 41.225514], [-2.928368, 41.225494], [-2.928274, 41.225438], [-2.928295, 41.225378], [-2.928117, 41.225097], [-2.927474, 41.224262], [-2.92769, 41.223067], [-2.928261, 41.222674], [-2.927993, 41.222285], [-2.928361, 41.221813], [-2.927832, 41.221741], [-2.927708, 41.22204], [-2.927217, 41.221928], [-2.926071, 41.222254], [-2.925541, 41.221511], [-2.926452, 41.221179], [-2.926266, 41.220956], [-2.925708, 41.220747], [-2.926104, 41.220412], [-2.925703, 41.219616], [-2.92503, 41.220411], [-2.924403, 41.220317], [-2.925104, 41.218988], [-2.925693, 41.219123], [-2.926991, 41.219518], [-2.927562, 41.219125], [-2.927336, 41.218271], [-2.926644, 41.218538], [-2.926663, 41.218183], [-2.927291, 41.217393], [-2.927798, 41.217362], [-2.928075, 41.216902], [-2.928261, 41.216453], [-2.928322, 41.216442], [-2.929026, 41.216317], [-2.92922, 41.215903], [-2.928867, 41.215561], [-2.928317, 41.215385], [-2.928232, 41.21476], [-2.928358, 41.214249], [-2.929167, 41.21432], [-2.929875, 41.21458], [-2.930875, 41.214449], [-2.931029, 41.214959], [-2.931986, 41.214622], [-2.931958, 41.2136], [-2.932005, 41.213382], [-2.932553, 41.213098], [-2.933139, 41.213445], [-2.933503, 41.213397], [-2.933616, 41.212605], [-2.933626, 41.212427], [-2.933977, 41.212098], [-2.934137, 41.211971], [-2.934483, 41.211395], [-2.935209, 41.210629], [-2.933986, 41.210365], [-2.933506, 41.210746], [-2.933433, 41.210402], [-2.932459, 41.210212], [-2.932175, 41.209082], [-2.931879, 41.209227], [-2.931481, 41.208891], [-2.931894, 41.208412], [-2.931671, 41.208017], [-2.931298, 41.208243], [-2.930929, 41.208044], [-2.930657, 41.20808], [-2.929831, 41.208152], [-2.929323, 41.208219], [-2.929013, 41.20826], [-2.928415, 41.208303], [-2.92798, 41.208006], [-2.927075, 41.207701], [-2.926631, 41.206699], [-2.925867, 41.206622], [-2.925442, 41.206819], [-2.924724, 41.206736], [-2.923781, 41.206471], [-2.923643, 41.206701], [-2.923949, 41.20705], [-2.923287, 41.207455], [-2.922757, 41.207595], [-2.922577, 41.207407], [-2.922659, 41.206689], [-2.92316, 41.207295], [-2.923466, 41.206972], [-2.923265, 41.20668], [-2.923543, 41.206312], [-2.923194, 41.206124], [-2.92294, 41.205804], [-2.922846, 41.205356], [-2.923137, 41.204293], [-2.921932, 41.205229], [-2.920998, 41.205669], [-2.920844, 41.205159], [-2.920602, 41.20512], [-2.920454, 41.204857], [-2.921121, 41.204699], [-2.92163, 41.204455], [-2.921101, 41.204383], [-2.92067, 41.204334], [-2.920725, 41.20415], [-2.920646, 41.203771], [-2.920268, 41.20375], [-2.919846, 41.203523], [-2.919968, 41.203436], [-2.920294, 41.203429], [-2.920868, 41.203495], [-2.920993, 41.203867], [-2.921452, 41.204055], [-2.921876, 41.20407], [-2.922476, 41.203814], [-2.923241, 41.203679], [-2.923516, 41.203431], [-2.921555, 41.202097], [-2.921875, 41.201843], [-2.92215, 41.201595], [-2.922203, 41.200739], [-2.922723, 41.20099], [-2.922437, 41.201628], [-2.922504, 41.201725], [-2.922815, 41.201649], [-2.923113, 41.201292], [-2.923838, 41.201409], [-2.924566, 41.201152], [-2.924794, 41.201071], [-2.925038, 41.200898], [-2.924786, 41.200833], [-2.924495, 41.200757], [-2.924026, 41.200748], [-2.923779, 41.200462], [-2.923318, 41.200487], [-2.922939, 41.199795], [-2.92307, 41.19953], [-2.923955, 41.19952], [-2.924676, 41.200062], [-2.925417, 41.200035], [-2.925616, 41.199826], [-2.925043, 41.19959], [-2.923559, 41.198971], [-2.924439, 41.198714], [-2.924794, 41.197961], [-2.9256, 41.197572], [-2.92537, 41.197143], [-2.925933, 41.196716], [-2.926555, 41.196564], [-2.927017, 41.196538], [-2.927036, 41.196854], [-2.927407, 41.196841], [-2.927773, 41.196581], [-2.928218, 41.196699], [-2.928252, 41.197083], [-2.928233, 41.197439], [-2.928732, 41.197442], [-2.928747, 41.197443], [-2.929171, 41.197458], [-2.929358, 41.197681], [-2.930039, 41.197591], [-2.930412, 41.197366], [-2.930614, 41.196774], [-2.93064, 41.196452], [-2.930152, 41.196127], [-2.929044, 41.195742], [-2.929137, 41.195518], [-2.929871, 41.195457], [-2.930924, 41.196026], [-2.931161, 41.195818], [-2.931423, 41.195289], [-2.93163, 41.194944], [-2.932178, 41.19466], [-2.932446, 41.195049], [-2.932831, 41.195104], [-2.932716, 41.194554], [-2.932689, 41.194204], [-2.93304, 41.193875], [-2.933202, 41.193536], [-2.93374, 41.19343], [-2.93372, 41.193114], [-2.933297, 41.193099], [-2.93269, 41.19332], [-2.932286, 41.19362], [-2.931758, 41.19422], [-2.931672, 41.193807], [-2.931881, 41.193249], [-2.932593, 41.192414], [-2.932341, 41.191881], [-2.931942, 41.192428], [-2.931527, 41.193119], [-2.931094, 41.193282], [-2.931499, 41.192098], [-2.931807, 41.191562], [-2.931742, 41.191253], [-2.931229, 41.191037], [-2.930823, 41.190878], [-2.930447, 41.190645], [-2.930147, 41.190331], [-2.929544, 41.190127], [-2.929826, 41.189913], [-2.930163, 41.189516], [-2.929768, 41.189638], [-2.929305, 41.189876], [-2.929014, 41.190267], [-2.928543, 41.19047], [-2.928079, 41.190708], [-2.927278, 41.190672], [-2.926933, 41.190363], [-2.927344, 41.190097], [-2.927224, 41.189972], [-2.926717, 41.190003], [-2.926091, 41.189908], [-2.925258, 41.189947], [-2.924637, 41.190099], [-2.923965, 41.19001], [-2.923467, 41.189863], [-2.923118, 41.18998], [-2.922747, 41.189993], [-2.922166, 41.189892], [-2.92129, 41.189724], [-2.920969, 41.189307], [-2.920822, 41.189715], [-2.920321, 41.189764], [-2.919484, 41.189572], [-2.918489, 41.189278], [-2.917922, 41.189247], [-2.917303, 41.189186], [-2.916865, 41.189102], [-2.915855, 41.18874], [-2.915381, 41.188484], [-2.915689, 41.187949], [-2.915459, 41.187519], [-2.914821, 41.187815], [-2.915149, 41.188267], [-2.914484, 41.188212], [-2.913537, 41.1877], [-2.913458, 41.186438], [-2.913317, 41.186209], [-2.913367, 41.185778], [-2.913308, 41.184832], [-2.914038, 41.18364], [-2.913875, 41.183308], [-2.913268, 41.183529], [-2.913274, 41.182892], [-2.913135, 41.182451], [-2.912434, 41.182224], [-2.912111, 41.182019], [-2.91219, 41.181726], [-2.91279, 41.181471], [-2.913493, 41.181485], [-2.913947, 41.181425], [-2.914315, 41.181624], [-2.914424, 41.182141], [-2.914584, 41.182013], [-2.915523, 41.18182], [-2.915448, 41.182572], [-2.915826, 41.182593], [-2.916474, 41.182791], [-2.916948, 41.183047], [-2.916783, 41.183599], [-2.917214, 41.183648], [-2.917337, 41.182678], [-2.917903, 41.182038], [-2.920088, 41.181328], [-2.92116, 41.180657], [-2.921935, 41.180343], [-2.923163, 41.17997], [-2.924292, 41.179787], [-2.924882, 41.179709], [-2.925894, 41.17986], [-2.926822, 41.180056], [-2.927207, 41.180112], [-2.927392, 41.180547], [-2.9281, 41.180807], [-2.928585, 41.180673], [-2.928869, 41.180247], [-2.929138, 41.179752], [-2.929559, 41.179308], [-2.929817, 41.179204], [-2.930458, 41.179367], [-2.930977, 41.179617], [-2.93154, 41.180073], [-2.931574, 41.180458], [-2.931553, 41.181026], [-2.931538, 41.181195], [-2.931511, 41.181491], [-2.931514, 41.18195], [-2.931735, 41.182558], [-2.931306, 41.182296], [-2.931173, 41.182773], [-2.931193, 41.183088], [-2.931432, 41.18334], [-2.931854, 41.183567], [-2.932295, 41.18411], [-2.932463, 41.184689], [-2.932868, 41.18506], [-2.933313, 41.185179], [-2.933858, 41.185107], [-2.933788, 41.184551], [-2.933857, 41.184436], [-2.934304, 41.184342], [-2.9346, 41.184197], [-2.934702, 41.183794], [-2.934817, 41.183673], [-2.935293, 41.183717], [-2.935402, 41.183349], [-2.935437, 41.18285], [-2.935537, 41.18266], [-2.935805, 41.182377], [-2.935878, 41.181837], [-2.936189, 41.181761], [-2.936447, 41.181657], [-2.936382, 41.181347], [-2.935986, 41.180798], [-2.936237, 41.180659], [-2.936766, 41.180731], [-2.936953, 41.180954], [-2.936894, 41.181563], [-2.937181, 41.181596], [-2.937517, 41.181198], [-2.937507, 41.180704], [-2.937758, 41.180566], [-2.937586, 41.179528], [-2.937777, 41.179326], [-2.938114, 41.178928], [-2.938528, 41.179121], [-2.938813, 41.179367], [-2.93931, 41.179513], [-2.939383, 41.178973], [-2.939567, 41.178737], [-2.939827, 41.17842], [-2.938794, 41.178348], [-2.938596, 41.178335], [-2.939243, 41.177861], [-2.938707, 41.177754], [-2.938757, 41.177324], [-2.938868, 41.176743], [-2.939526, 41.176763], [-2.939646, 41.176005], [-2.940146, 41.175939], [-2.940375, 41.175697], [-2.939914, 41.175722], [-2.938974, 41.175916], [-2.939024, 41.175486], [-2.939456, 41.175323], [-2.940025, 41.175142], [-2.940888, 41.175029], [-2.941985, 41.17492], [-2.94222, 41.174925], [-2.942626, 41.175083], [-2.943315, 41.175028], [-2.94402, 41.17483], [-2.944294, 41.174582], [-2.944636, 41.174431], [-2.945095, 41.174618], [-2.945686, 41.17454], [-2.945939, 41.174189], [-2.946034, 41.173752], [-2.945954, 41.173374], [-2.946319, 41.173114], [-2.946697, 41.173135], [-2.947178, 41.173425], [-2.947489, 41.173349], [-2.94796, 41.173146], [-2.94873, 41.173257], [-2.948731, 41.173257], [-2.949282, 41.17322], [-2.950161, 41.172963], [-2.950979, 41.172855], [-2.950558, 41.171744], [-2.951316, 41.171574], [-2.951411, 41.171137], [-2.950662, 41.171129], [-2.950204, 41.171614], [-2.950072, 41.171207], [-2.949876, 41.171162], [-2.949712, 41.171714], [-2.949322, 41.171411], [-2.948737, 41.170852], [-2.94855, 41.170629], [-2.94853, 41.171197], [-2.947846, 41.17102], [-2.947839, 41.171], [-2.948098, 41.170476], [-2.948282, 41.17024], [-2.94872, 41.170324], [-2.949206, 41.170861], [-2.949615, 41.170807], [-2.949867, 41.17065], [-2.950162, 41.170523], [-2.950262, 41.170333], [-2.950046, 41.169973], [-2.949858, 41.169743], [-2.949808, 41.169509], [-2.949947, 41.169279], [-2.950434, 41.168932], [-2.950663, 41.16869], [-2.950956, 41.168086], [-2.950532, 41.168071], [-2.94976, 41.168172], [-2.94921, 41.167997], [-2.950006, 41.167786], [-2.94985, 41.167489], [-2.949512, 41.167215], [-2.949129, 41.166947], [-2.949002, 41.166787], [-2.948503, 41.166853], [-2.94813, 41.167078], [-2.947629, 41.167356], [-2.947285, 41.16772], [-2.946778, 41.167751], [-2.946699, 41.167373], [-2.946375, 41.16756], [-2.946339, 41.167879], [-2.945931, 41.167817], [-2.945908, 41.16783], [-2.945988, 41.168208], [-2.945506, 41.168802], [-2.94477, 41.169075], [-2.944132, 41.169371], [-2.943444, 41.169426], [-2.943418, 41.169434], [-2.942435, 41.169735], [-2.941861, 41.169669], [-2.941301, 41.169254], [-2.941253, 41.169219], [-2.94124, 41.169247], [-2.940798, 41.170162], [-2.9406, 41.17033], [-2.940053, 41.170614], [-2.940079, 41.170292], [-2.939775, 41.170403], [-2.939145, 41.170733], [-2.939521, 41.170966], [-2.939291, 41.171209], [-2.938821, 41.171412], [-2.939326, 41.171593], [-2.939847, 41.171631], [-2.940246, 41.171755], [-2.940086, 41.171882], [-2.939841, 41.172268], [-2.940186, 41.172576], [-2.940062, 41.172875], [-2.939266, 41.173086], [-2.938643, 41.17345], [-2.938009, 41.173321], [-2.937913, 41.173086], [-2.938266, 41.172545], [-2.938131, 41.172351], [-2.937755, 41.173001], [-2.937335, 41.173445], [-2.937196, 41.173675], [-2.936626, 41.174068], [-2.93599, 41.174152], [-2.935116, 41.173772], [-2.934763, 41.172757], [-2.935128, 41.171826], [-2.935172, 41.171148], [-2.935448, 41.170688], [-2.936192, 41.170449], [-2.936335, 41.16891], [-2.936754, 41.16935], [-2.936697, 41.169746], [-2.936595, 41.170149], [-2.936997, 41.17006], [-2.937754, 41.16989], [-2.938046, 41.17017], [-2.939033, 41.169758], [-2.939164, 41.169493], [-2.939326, 41.169154], [-2.939338, 41.169013], [-2.939352, 41.168832], [-2.939914, 41.168617], [-2.93966, 41.168297], [-2.940008, 41.16818], [-2.94024, 41.167726], [-2.93968, 41.167729], [-2.939546, 41.167534], [-2.939701, 41.16716], [-2.939165, 41.167054], [-2.937326, 41.166518], [-2.937151, 41.166576], [-2.936592, 41.166579], [-2.935553, 41.166079], [-2.935488, 41.165769], [-2.935605, 41.165436], [-2.935253, 41.165093], [-2.934694, 41.165096], [-2.933916, 41.16495], [-2.933484, 41.165113], [-2.932928, 41.165575], [-2.932311, 41.165974], [-2.932226, 41.166233], [-2.931868, 41.166527], [-2.931464, 41.166827], [-2.931546, 41.166993], [-2.932194, 41.167191], [-2.932806, 41.167217], [-2.932689, 41.16755], [-2.931948, 41.167577], [-2.931291, 41.167557], [-2.930483, 41.167486], [-2.92971, 41.167588], [-2.928625, 41.167755], [-2.928174, 41.167825], [-2.92812, 41.167747], [-2.927436, 41.166755], [-2.927189, 41.166469], [-2.926885, 41.166388], [-2.926744, 41.166351], [-2.926648, 41.166116], [-2.926342, 41.165767], [-2.926212, 41.165296], [-2.926145, 41.165051], [-2.926443, 41.164693], [-2.92704, 41.16465], [-2.927076, 41.164151], [-2.92718, 41.163536], [-2.927195, 41.162721], [-2.927068, 41.16189], [-2.92698, 41.160805], [-2.926167, 41.160488], [-2.925957, 41.161045], [-2.925809, 41.161454], [-2.925451, 41.161748], [-2.924797, 41.162187], [-2.924408, 41.162557], [-2.923921, 41.162903], [-2.923601, 41.163157], [-2.923161, 41.163286], [-2.922584, 41.163538], [-2.922361, 41.16343], [-2.922267, 41.163474], [-2.921567, 41.163919], [-2.92069, 41.163963], [-2.919444, 41.163808], [-2.918437, 41.163233], [-2.918747, 41.164041], [-2.918204, 41.1639], [-2.917249, 41.163354], [-2.918033, 41.162862], [-2.917253, 41.162257], [-2.917063, 41.161575], [-2.916855, 41.161921], [-2.916186, 41.16162], [-2.915363, 41.16148], [-2.915644, 41.160595], [-2.916014, 41.160582], [-2.916363, 41.160465], [-2.916286, 41.159874], [-2.9171, 41.158637], [-2.917563, 41.158399], [-2.91724, 41.158194], [-2.917172, 41.157425], [-2.916287, 41.156763], [-2.915925, 41.155927], [-2.91602, 41.155491], [-2.916581, 41.155276], [-2.917152, 41.154883], [-2.917761, 41.154449], [-2.917507, 41.154129], [-2.916862, 41.15439], [-2.916436, 41.153916], [-2.915607, 41.154413], [-2.914789, 41.153849], [-2.914494, 41.15311], [-2.913896, 41.152481], [-2.914699, 41.152306], [-2.914703, 41.151881], [-2.913546, 41.151926], [-2.912913, 41.150242], [-2.913554, 41.150405], [-2.913506, 41.149952], [-2.913123, 41.149684], [-2.913402, 41.149011], [-2.913515, 41.147547], [-2.914083, 41.147367], [-2.914547, 41.147129], [-2.915593, 41.14678], [-2.9161, 41.146749], [-2.916406, 41.147098], [-2.917013, 41.146877], [-2.917354, 41.146726], [-2.918057, 41.14674], [-2.919328, 41.146573], [-2.919439, 41.146877], [-2.919787, 41.14676], [-2.920263, 41.146833], [-2.920655, 41.146894], [-2.921253, 41.146851], [-2.922108, 41.146703], [-2.92302, 41.14616], [-2.923552, 41.146691], [-2.923498, 41.145991], [-2.923236, 41.144965], [-2.923284, 41.144746], [-2.923898, 41.14456], [-2.924237, 41.144532], [-2.924631, 41.144499], [-2.92479, 41.144496], [-2.925035, 41.144199], [-2.92583, 41.143988], [-2.927187, 41.143563], [-2.926821, 41.143151], [-2.928297, 41.142851], [-2.930208, 41.142177], [-2.931359, 41.141884], [-2.932329, 41.141615], [-2.933886, 41.14081], [-2.934985, 41.140489], [-2.935835, 41.140095], [-2.936158, 41.1403], [-2.936142, 41.140443], [-2.93582, 41.14091], [-2.935634, 41.141358], [-2.935374, 41.141675], [-2.935327, 41.141894], [-2.935413, 41.142306], [-2.935356, 41.142703], [-2.934808, 41.143199], [-2.933616, 41.143744], [-2.932689, 41.144219], [-2.932713, 41.144289], [-2.932489, 41.144599], [-2.932478, 41.144989], [-2.932741, 41.145132], [-2.93285, 41.144764], [-2.932965, 41.144591], [-2.933653, 41.144588], [-2.934374, 41.144246], [-2.934983, 41.143812], [-2.935477, 41.1435], [-2.936402, 41.143237], [-2.936791, 41.142868], [-2.937306, 41.142659], [-2.938071, 41.142523], [-2.938295, 41.142034], [-2.938684, 41.141665], [-2.939876, 41.141791], [-2.940373, 41.141266], [-2.940943, 41.140873], [-2.941875, 41.140645], [-2.942682, 41.140044], [-2.943072, 41.139462], [-2.943579, 41.139431], [-2.944274, 41.13941], [-2.944998, 41.138856], [-2.945601, 41.138176], [-2.945885, 41.137749], [-2.946699, 41.137183], [-2.947512, 41.136616], [-2.948172, 41.136424], [-2.94856, 41.136054], [-2.949455, 41.134982], [-2.950586, 41.134374], [-2.95116, 41.13444], [-2.952151, 41.134274], [-2.952676, 41.133887], [-2.95355, 41.133383], [-2.953325, 41.133201], [-2.952646, 41.133078], [-2.95286, 41.132767], [-2.953443, 41.132655], [-2.954131, 41.1326], [-2.954667, 41.132706], [-2.955943, 41.132786], [-2.956511, 41.132605], [-2.956136, 41.132372], [-2.955252, 41.132382], [-2.954981, 41.132205], [-2.955217, 41.131998], [-2.955807, 41.13192], [-2.95575, 41.131645], [-2.955841, 41.131471], [-2.95585, 41.131455], [-2.956282, 41.131292], [-2.95654, 41.131187], [-2.956965, 41.13099], [-2.957418, 41.13093], [-2.958001, 41.13103], [-2.958887, 41.130596], [-2.960389, 41.129974], [-2.960474, 41.129769], [-2.96034, 41.129521], [-2.960609, 41.129026], [-2.96086, 41.128836], [-2.960976, 41.128553], [-2.961596, 41.127729], [-2.961618, 41.127704], [-2.96197, 41.127291], [-2.96208, 41.126039], [-2.962112, 41.125081], [-2.962209, 41.124432], [-2.962441, 41.123765], [-2.962931, 41.123877], [-2.963154, 41.124272], [-2.962708, 41.124366], [-2.962591, 41.124699], [-2.962712, 41.125497], [-2.964566, 41.125217], [-2.964717, 41.124384], [-2.964881, 41.123832], [-2.965978, 41.12284], [-2.966338, 41.122333], [-2.966425, 41.121862], [-2.966527, 41.121459], [-2.9667, 41.120729], [-2.967326, 41.120824], [-2.967801, 41.120867], [-2.96801, 41.121193], [-2.968347, 41.121467], [-2.968883, 41.121573], [-2.969404, 41.121611], [-2.969615, 41.122396], [-2.969691, 41.122558], [-2.969786, 41.122763], [-2.970285, 41.122849], [-2.97064, 41.123498], [-2.97135, 41.123546], [-2.972201, 41.123823], [-2.972697, 41.123298], [-2.972676, 41.122311], [-2.972863, 41.12165], [-2.973292, 41.121028], [-2.973873, 41.120244], [-2.974163, 41.120737], [-2.975098, 41.120083], [-2.975176, 41.11979], [-2.975534, 41.119495], [-2.975485, 41.119042], [-2.975894, 41.118988], [-2.976106, 41.11889], [-2.976947, 41.118673], [-2.977756, 41.118531], [-2.977785, 41.118668], [-2.977872, 41.119081], [-2.978484, 41.119107], [-2.978816, 41.119134], [-2.978808, 41.119983], [-2.980171, 41.120475], [-2.980115, 41.119104], [-2.979816, 41.11879], [-2.97994, 41.117607], [-2.980154, 41.117296], [-2.980161, 41.114891], [-2.98022, 41.112514], [-2.980094, 41.111416], [-2.980188, 41.111083], [-2.980944, 41.110426], [-2.98106, 41.109858], [-2.984092, 41.107696], [-2.984101, 41.107689], [-2.987417, 41.10506], [-2.991231, 41.101693], [-2.991268, 41.101587], [-2.992931, 41.100264], [-2.99369, 41.099424], [-2.994135, 41.098659], [-2.995411, 41.09697], [-2.996658, 41.095144], [-2.997393, 41.093102], [-2.997642, 41.092291], [-2.998506, 41.091081], [-2.999155, 41.091066], [-3.000187, 41.091319], [-3.001038, 41.091595], [-3.001172, 41.091668], [-3.002406, 41.092334], [-3.002373, 41.092621], [-3.002872, 41.092555], [-3.00268, 41.092086], [-3.002765, 41.091827], [-3.003094, 41.091395], [-3.003152, 41.091302], [-3.003339, 41.091009], [-3.003473, 41.090319], [-3.003961, 41.08976], [-3.004168, 41.089414], [-3.005412, 41.088684], [-3.006117, 41.087601], [-3.006706, 41.086639], [-3.007029, 41.086844], [-3.007651, 41.086479], [-3.007822, 41.085962], [-3.007416, 41.085803], [-3.006953, 41.085157], [-3.010001, 41.084578], [-3.010674, 41.084453], [-3.010958, 41.084699], [-3.010463, 41.085224], [-3.010567, 41.085493], [-3.01085, 41.085522], [-3.011472, 41.085585], [-3.011953, 41.084991], [-3.012129, 41.084721], [-3.01221, 41.084524], [-3.012314, 41.084272], [-3.013068, 41.08343], [-3.013199, 41.083165], [-3.012401, 41.082917], [-3.013157, 41.081862], [-3.013172, 41.081931], [-3.013609, 41.082015], [-3.01432, 41.08185], [-3.015002, 41.081548], [-3.014802, 41.081928], [-3.014893, 41.081968], [-3.015111, 41.082064], [-3.015564, 41.082004], [-3.015122, 41.082557], [-3.015802, 41.082467], [-3.015887, 41.082209], [-3.015998, 41.081628], [-3.01627, 41.081592], [-3.017122, 41.081656], [-3.017683, 41.081441], [-3.017443, 41.08119], [-3.016894, 41.081015], [-3.016036, 41.080704], [-3.015881, 41.080606], [-3.015713, 41.080499], [-3.015791, 41.080206], [-3.016294, 41.080037], [-3.016488, 41.079972], [-3.016703, 41.080333], [-3.017004, 41.080434], [-3.017309, 41.080111], [-3.017033, 41.079688], [-3.017396, 41.07964], [-3.017472, 41.079559], [-3.017276, 41.079194], [-3.017242, 41.07913], [-3.016716, 41.078846], [-3.016609, 41.078118], [-3.01724, 41.077575], [-3.017879, 41.077066], [-3.018256, 41.077087], [-3.018617, 41.077251], [-3.019161, 41.077179], [-3.019206, 41.0772], [-3.019575, 41.077372], [-3.019399, 41.077643], [-3.01939, 41.077648], [-3.018981, 41.077875], [-3.01903, 41.078328], [-3.018494, 41.078434], [-3.018869, 41.078667], [-3.019445, 41.078691], [-3.01948, 41.078693], [-3.01985, 41.078679], [-3.019801, 41.07911], [-3.019406, 41.079445], [-3.018989, 41.079677], [-3.018566, 41.079662], [-3.018187, 41.079854], [-3.019103, 41.08044], [-3.019145, 41.080858], [-3.018891, 41.081422], [-3.018283, 41.081856], [-3.018229, 41.08204], [-3.017697, 41.082393], [-3.017206, 41.082494], [-3.017763, 41.082703], [-3.018454, 41.083107], [-3.018599, 41.083795], [-3.018788, 41.084689], [-3.019399, 41.085598], [-3.019907, 41.085354], [-3.019462, 41.084352], [-3.019475, 41.083749], [-3.019959, 41.083615], [-3.021064, 41.083327], [-3.022152, 41.083183], [-3.022818, 41.083024], [-3.022776, 41.082606], [-3.02377, 41.081131], [-3.023944, 41.080188], [-3.02447, 41.079588], [-3.025058, 41.078839], [-3.025259, 41.078246], [-3.025731, 41.07783], [-3.026374, 41.077568], [-3.025359, 41.077172], [-3.024727, 41.076832], [-3.024359, 41.075749], [-3.024606, 41.075151], [-3.024822, 41.074627], [-3.024832, 41.074237], [-3.024172, 41.073758], [-3.023699, 41.073503], [-3.022877, 41.073364], [-3.022168, 41.073316], [-3.022023, 41.073143], [-3.022074, 41.07309], [-3.022065, 41.073047], [-3.022233, 41.072742], [-3.02267, 41.072452], [-3.022765, 41.072389], [-3.022753, 41.072294], [-3.022694, 41.071833], [-3.022783, 41.071149], [-3.022803, 41.070581], [-3.023561, 41.069314], [-3.024429, 41.06835], [-3.024282, 41.067874], [-3.023742, 41.067522], [-3.0231, 41.067571], [-3.02249, 41.067334], [-3.022412, 41.066743], [-3.022079, 41.066045], [-3.021573, 41.065192], [-3.021275, 41.064666], [-3.020778, 41.063636], [-3.020749, 41.062614], [-3.021014, 41.062296], [-3.021519, 41.061689], [-3.022166, 41.062038], [-3.022285, 41.062163], [-3.022842, 41.062372], [-3.022595, 41.062971], [-3.023219, 41.063277], [-3.02412, 41.063794], [-3.024884, 41.063658], [-3.02578, 41.063044], [-3.025783, 41.06262], [-3.025569, 41.062047], [-3.024828, 41.061403], [-3.024454, 41.06161], [-3.024456, 41.061629], [-3.02443, 41.06195], [-3.024037, 41.062073], [-3.023683, 41.061943], [-3.023359, 41.061819], [-3.02272, 41.061575], [-3.022204, 41.061113], [-3.02179, 41.060921], [-3.021081, 41.060873], [-3.020315, 41.060799], [-3.019845, 41.060754], [-3.019424, 41.060527], [-3.019754, 41.059882], [-3.020905, 41.059376], [-3.021816, 41.058831], [-3.023875, 41.057993], [-3.024369, 41.05768], [-3.024668, 41.05711], [-3.025009, 41.056959], [-3.02499, 41.056431], [-3.02519, 41.056051], [-3.025222, 41.055877], [-3.025277, 41.05558], [-3.025149, 41.05553], [-3.024871, 41.055421], [-3.023975, 41.055151], [-3.023259, 41.055069], [-3.022927, 41.055042], [-3.022334, 41.054661], [-3.02233, 41.054202], [-3.022531, 41.053898], [-3.0221, 41.05276], [-3.021966, 41.052694], [-3.021707, 41.052128], [-3.021424, 41.05167], [-3.021223, 41.051378], [-3.021661, 41.05125], [-3.022098, 41.051333], [-3.022829, 41.051641], [-3.024363, 41.051327], [-3.024858, 41.050802], [-3.025078, 41.049931], [-3.027026, 41.049596], [-3.027116, 41.049518], [-3.027561, 41.04962], [-3.028155, 41.049789], [-3.028397, 41.049828], [-3.028417, 41.050143], [-3.028656, 41.050394], [-3.028931, 41.050818], [-3.029263, 41.050844], [-3.029658, 41.050509], [-3.029881, 41.050057], [-3.029889, 41.050054], [-3.030275, 41.049897], [-3.030452, 41.049414], [-3.02982, 41.049286], [-3.029665, 41.04925], [-3.029602, 41.049138], [-3.029312, 41.048646], [-3.028998, 41.048263], [-3.028955, 41.048057], [-3.028958, 41.048018], [-3.029005, 41.047413], [-3.028909, 41.047179], [-3.028494, 41.047272], [-3.028153, 41.047349], [-3.027958, 41.047305], [-3.027301, 41.047285], [-3.02636, 41.047021], [-3.025857, 41.046625], [-3.025747, 41.046538], [-3.025746, 41.046537], [-3.025331, 41.046556], [-3.024673, 41.045866], [-3.024618, 41.045166], [-3.024802, 41.044684], [-3.024888, 41.044458], [-3.025379, 41.043474], [-3.025633, 41.04291], [-3.025425, 41.042559], [-3.025127, 41.042057], [-3.025259, 41.041692], [-3.025274, 41.041649], [-3.025359, 41.04139], [-3.024848, 41.041175], [-3.024362, 41.040699], [-3.024362, 41.040638], [-3.024301, 41.039904], [-3.024262, 41.039293], [-3.024783, 41.03848], [-3.025942, 41.038709], [-3.027316, 41.038993], [-3.027415, 41.039209], [-3.027661, 41.039494], [-3.028031, 41.039481], [-3.028584, 41.039231], [-3.028941, 41.038936], [-3.028461, 41.038646], [-3.028114, 41.03865], [-3.027563, 41.038265], [-3.026605, 41.037549], [-3.025679, 41.036982], [-3.0254, 41.036101], [-3.02506, 41.035773], [-3.024966, 41.035325], [-3.025098, 41.034848], [-3.025551, 41.034788], [-3.025558, 41.034786], [-3.026081, 41.034647], [-3.026091, 41.034257], [-3.02599, 41.033775], [-3.025898, 41.033568], [-3.025953, 41.033499], [-3.025884, 41.032902], [-3.025794, 41.032847], [-3.025481, 41.032464], [-3.025377, 41.032195], [-3.025607, 41.03174], [-3.025564, 41.031534], [-3.025165, 41.03141], [-3.025327, 41.03107], [-3.025292, 41.030686], [-3.024859, 41.030177], [-3.024786, 41.029833], [-3.02502, 41.029838], [-3.025455, 41.030134], [-3.025659, 41.030224], [-3.025763, 41.03027], [-3.025816, 41.030258], [-3.026209, 41.030175], [-3.026501, 41.030455], [-3.026836, 41.030779], [-3.026891, 41.030757], [-3.027358, 41.030766], [-3.027779, 41.030993], [-3.028297, 41.031242], [-3.028785, 41.031567], [-3.02955, 41.032102], [-3.030394, 41.032131], [-3.03096, 41.032163], [-3.031344, 41.032218], [-3.031759, 41.032622], [-3.032265, 41.032497], [-3.032375, 41.03247], [-3.032861, 41.032123], [-3.032931, 41.031971], [-3.033232, 41.031897], [-3.033423, 41.031695], [-3.033243, 41.031506], [-3.032912, 41.03148], [-3.032694, 41.031626], [-3.032661, 41.031619], [-3.03229, 41.031845], [-3.031904, 41.032002], [-3.031679, 41.03182], [-3.031108, 41.031542], [-3.030853, 41.031434], [-3.030644, 41.031108], [-3.030289, 41.031191], [-3.029832, 41.030791], [-3.029533, 41.030477], [-3.029572, 41.030255], [-3.029381, 41.030134], [-3.028764, 41.029603], [-3.028614, 41.029503], [-3.028652, 41.029392], [-3.028784, 41.028915], [-3.029455, 41.029003], [-3.029818, 41.028955], [-3.031108, 41.02889], [-3.031949, 41.029344], [-3.033067, 41.029125], [-3.03317, 41.028511], [-3.032326, 41.028481], [-3.032, 41.027817], [-3.032266, 41.027534], [-3.032126, 41.027093], [-3.031583, 41.027165], [-3.031635, 41.02631], [-3.030997, 41.026818], [-3.030098, 41.025205], [-3.029915, 41.024864], [-3.029868, 41.024776], [-3.030484, 41.024164], [-3.030939, 41.023891], [-3.031073, 41.023202], [-3.030888, 41.022767], [-3.030837, 41.022526], [-3.030788, 41.022073], [-3.030799, 41.021682], [-3.030857, 41.021073], [-3.030589, 41.020685], [-3.031138, 41.020676], [-3.031192, 41.020675], [-3.031834, 41.020626], [-3.032118, 41.020871], [-3.032796, 41.020993], [-3.0328, 41.020569], [-3.032843, 41.020515], [-3.033059, 41.020251], [-3.033206, 41.019843], [-3.033216, 41.019453], [-3.033566, 41.019123], [-3.03374, 41.019065], [-3.034023, 41.018638], [-3.03459, 41.018457], [-3.034661, 41.019014], [-3.034601, 41.019173], [-3.034628, 41.019301], [-3.034784, 41.019598], [-3.035242, 41.019785], [-3.035523, 41.019571], [-3.035982, 41.019758], [-3.036168, 41.019981], [-3.036444, 41.020404], [-3.037046, 41.020607], [-3.037529, 41.020472], [-3.038167, 41.020847], [-3.038591, 41.02065], [-3.037962, 41.020096], [-3.03798, 41.01974], [-3.038231, 41.019601], [-3.038939, 41.019649], [-3.03931, 41.019423], [-3.039071, 41.019172], [-3.038863, 41.018846], [-3.038881, 41.01849], [-3.039176, 41.018344], [-3.03955, 41.01879], [-3.039803, 41.01911], [-3.039883, 41.019488], [-3.040561, 41.019611], [-3.040624, 41.019249], [-3.040733, 41.018881], [-3.041429, 41.018647], [-3.040834, 41.018478], [-3.040889, 41.018294], [-3.040989, 41.017969], [-3.041564, 41.017745], [-3.041929, 41.017484], [-3.042242, 41.017867], [-3.042893, 41.017884], [-3.043058, 41.01734], [-3.043076, 41.017403], [-3.043554, 41.017905], [-3.043913, 41.018282], [-3.044397, 41.018147], [-3.045174, 41.018079], [-3.045509, 41.018565], [-3.045419, 41.019461], [-3.044896, 41.019849], [-3.044568, 41.020281], [-3.044939, 41.020939], [-3.045314, 41.020288], [-3.046072, 41.019905], [-3.046514, 41.019351], [-3.046829, 41.018638], [-3.047331, 41.019031], [-3.047229, 41.019433], [-3.047581, 41.019776], [-3.047744, 41.020108], [-3.047605, 41.02055], [-3.047215, 41.021132], [-3.046743, 41.021761], [-3.047567, 41.022359], [-3.048397, 41.022319], [-3.049557, 41.021635], [-3.050023, 41.021856], [-3.050329, 41.022205], [-3.050622, 41.021388], [-3.051331, 41.021435], [-3.052181, 41.021711], [-3.05279, 41.021949], [-3.053339, 41.022123], [-3.053637, 41.02265], [-3.054034, 41.022986], [-3.054052, 41.023514], [-3.054139, 41.023927], [-3.055091, 41.024684], [-3.055979, 41.02492], [-3.055836, 41.025788], [-3.055605, 41.026455], [-3.054983, 41.02682], [-3.054188, 41.027244], [-3.054222, 41.027628], [-3.055102, 41.028042], [-3.056787, 41.028526], [-3.057144, 41.028231], [-3.056378, 41.027908], [-3.054773, 41.027591], [-3.056062, 41.026854], [-3.056634, 41.026035], [-3.056872, 41.024519], [-3.05572, 41.024353], [-3.054895, 41.023756], [-3.054799, 41.023521], [-3.055445, 41.022834], [-3.055189, 41.021842], [-3.054482, 41.021583], [-3.054004, 41.02108], [-3.054596, 41.020577], [-3.055527, 41.020136], [-3.055848, 41.019669], [-3.05586, 41.019066], [-3.05628, 41.018409], [-3.056492, 41.01831], [-3.056944, 41.018462], [-3.057515, 41.01874], [-3.057774, 41.019307], [-3.058178, 41.019678], [-3.059052, 41.019844], [-3.059925, 41.020011], [-3.060428, 41.020404], [-3.061176, 41.021083], [-3.061764, 41.021217], [-3.061246, 41.020302], [-3.060605, 41.019921], [-3.060212, 41.019407], [-3.059131, 41.019339], [-3.059881, 41.018921], [-3.060465, 41.018596], [-3.060323, 41.018367], [-3.05937, 41.018706], [-3.058479, 41.018895], [-3.057851, 41.01813], [-3.057545, 41.017781], [-3.056333, 41.017553], [-3.05597, 41.017602], [-3.055119, 41.018422], [-3.053909, 41.019749], [-3.053016, 41.020151], [-3.052358, 41.020344], [-3.051176, 41.020041], [-3.05052, 41.020022], [-3.049143, 41.020558], [-3.049402, 41.019357], [-3.049586, 41.018024], [-3.049088, 41.017207], [-3.048722, 41.016796], [-3.048288, 41.016287], [-3.047877, 41.016766], [-3.047629, 41.016693], [-3.04613, 41.016432], [-3.044804, 41.016325], [-3.044343, 41.015467], [-3.044202, 41.015238], [-3.04375, 41.015052], [-3.043488, 41.014944], [-3.042894, 41.014775], [-3.042064, 41.014814], [-3.041874, 41.015016], [-3.041422, 41.014864], [-3.041408, 41.014795], [-3.040665, 41.015247], [-3.04015, 41.015457], [-3.039464, 41.015513], [-3.039029, 41.015217], [-3.039208, 41.014521], [-3.038066, 41.013965], [-3.038371, 41.013642], [-3.039282, 41.013769], [-3.039572, 41.013377], [-3.039672, 41.013187], [-3.040246, 41.01304], [-3.040213, 41.012443], [-3.040452, 41.01181], [-3.040936, 41.011676], [-3.041827, 41.011487], [-3.043081, 41.01125], [-3.04407, 41.011083], [-3.044808, 41.011268], [-3.044888, 41.011292], [-3.045455, 41.011465], [-3.046087, 41.011593], [-3.04648, 41.011471], [-3.04616, 41.011053], [-3.045725, 41.010758], [-3.045449, 41.010334], [-3.045318, 41.009871], [-3.045266, 41.009687], [-3.045708, 41.009133], [-3.045995, 41.009037], [-3.046403, 41.008899], [-3.047298, 41.008385], [-3.047757, 41.008472], [-3.0484, 41.00821], [-3.048702, 41.008099], [-3.048931, 41.007857], [-3.049432, 41.007366], [-3.049088, 41.007058], [-3.048327, 41.006982], [-3.048171, 41.006685], [-3.048776, 41.006463], [-3.04964, 41.005924], [-3.050082, 41.00537], [-3.050455, 41.004932], [-3.051001, 41.004541], [-3.051114, 41.004526], [-3.051636, 41.004351], [-3.052598, 41.003834], [-3.052987, 41.003252], [-3.05345, 41.002498], [-3.053507, 41.002405], [-3.053617, 41.001825], [-3.053345, 41.000977], [-3.05301, 41.000491], [-3.052923, 41.000078], [-3.053237, 40.999365], [-3.054011, 40.998838], [-3.05638, 40.99771], [-3.056909, 40.997569], [-3.057965, 40.997499], [-3.058086, 40.997497], [-3.058403, 40.99737], [-3.05955, 40.997289], [-3.060696, 40.997207], [-3.061068, 40.997188], [-3.061525, 40.997164], [-3.061571, 40.997162], [-3.061588, 40.997196], [-3.062412, 40.997616], [-3.063307, 40.997886], [-3.064128, 40.998024], [-3.063981, 40.998433], [-3.063911, 40.99876], [-3.063186, 40.998857], [-3.062713, 40.998601], [-3.062577, 40.998619], [-3.061964, 40.999019], [-3.061846, 40.999565], [-3.062419, 40.99963], [-3.062927, 40.999174], [-3.063583, 40.999193], [-3.064496, 40.999107], [-3.065371, 40.999061], [-3.065441, 40.998734], [-3.065931, 40.998846], [-3.066053, 40.998912], [-3.066824, 40.999328], [-3.067286, 40.99909], [-3.067635, 40.99876], [-3.067639, 40.998757], [-3.068037, 40.99846], [-3.068546, 40.998003], [-3.069426, 40.99732], [-3.069933, 40.997076], [-3.070812, 40.99749], [-3.071578, 40.997812], [-3.073178, 40.998554], [-3.073516, 40.998827], [-3.073514, 40.99904], [-3.073701, 40.999263], [-3.074085, 40.999318], [-3.074315, 40.999608], [-3.07461, 40.999601], [-3.075198, 41.000619], [-3.075774, 41.001144], [-3.076143, 41.002227], [-3.076288, 41.002914], [-3.076691, 41.003497], [-3.077206, 41.004172], [-3.078034, 41.004344], [-3.078078, 41.004551], [-3.078827, 41.005229], [-3.080834, 41.007013], [-3.082602, 41.008546], [-3.082944, 41.009066], [-3.083568, 41.009372], [-3.08423, 41.009638], [-3.084523, 41.009705], [-3.085119, 41.009661], [-3.085781, 41.009926], [-3.086111, 41.010165], [-3.086252, 41.010394], [-3.08659, 41.010668], [-3.087394, 41.010949], [-3.087461, 41.011047], [-3.087553, 41.011199], [-3.089186, 41.012373], [-3.091788, 41.014325], [-3.09376, 41.014841], [-3.095931, 41.014976], [-3.097456, 41.014702], [-3.09834, 41.014478], [-3.09853, 41.014276], [-3.098595, 41.013702], [-3.098687, 41.013477], [-3.09901, 41.013682], [-3.099211, 41.013973], [-3.099935, 41.014089], [-3.100277, 41.013725], [-3.100751, 41.013768], [-3.101195, 41.013886], [-3.10155, 41.014899], [-3.101715, 41.015019], [-3.102025, 41.014942], [-3.102095, 41.014615], [-3.102287, 41.0142], [-3.102586, 41.013418], [-3.102902, 41.013588], [-3.102989, 41.014], [-3.103337, 41.01498], [-3.102821, 41.015402], [-3.10364, 41.015753], [-3.104089, 41.015233], [-3.104326, 41.014813], [-3.104066, 41.014246], [-3.104593, 41.014317], [-3.105089, 41.013579], [-3.105102, 41.01386], [-3.105584, 41.013938], [-3.105952, 41.014136], [-3.106855, 41.01444], [-3.107263, 41.014386], [-3.107752, 41.014497], [-3.107749, 41.014922], [-3.107686, 41.015284], [-3.108446, 41.015572], [-3.109236, 41.015785], [-3.110026, 41.015998], [-3.110542, 41.016672], [-3.11137, 41.016844], [-3.112149, 41.016563], [-3.112919, 41.016461], [-3.113612, 41.016651], [-3.113305, 41.016303], [-3.112357, 41.016005], [-3.112155, 41.015714], [-3.112285, 41.015449], [-3.112791, 41.015417], [-3.112886, 41.014768], [-3.113032, 41.014359], [-3.112635, 41.014023], [-3.112449, 41.013588], [-3.112943, 41.013063], [-3.113843, 41.012695], [-3.11393, 41.012224], [-3.113262, 41.011712], [-3.113305, 41.011034], [-3.113609, 41.010711], [-3.114197, 41.010632], [-3.114629, 41.010469], [-3.114642, 41.009653], [-3.114359, 41.009196], [-3.114303, 41.008496], [-3.113751, 41.00765], [-3.113583, 41.007323], [-3.113513, 41.007187], [-3.113442, 41.006631], [-3.113388, 41.005718], [-3.11394, 41.005468], [-3.114725, 41.005434], [-3.115252, 41.005505], [-3.115568, 41.005675], [-3.116114, 41.006274], [-3.116099, 41.006358], [-3.116101, 41.006358], [-3.116167, 41.006526], [-3.116194, 41.006653], [-3.11635, 41.00695], [-3.116869, 41.007199], [-3.117088, 41.007134], [-3.117309, 41.006857], [-3.117365, 41.006213], [-3.117684, 41.005994], [-3.118454, 41.005891], [-3.119193, 41.005863], [-3.120067, 41.00603], [-3.12146, 41.006233], [-3.121991, 41.005879], [-3.122182, 41.005465], [-3.122674, 41.005151], [-3.123218, 41.005079], [-3.123734, 41.004656], [-3.124144, 41.004177], [-3.125925, 41.00401], [-3.126511, 41.002852], [-3.126942, 41.002], [-3.12753, 41.000825], [-3.127504, 41.000263], [-3.127313, 40.999581], [-3.127526, 40.99927], [-3.127963, 40.999353], [-3.128622, 41.000043], [-3.129425, 41.000537], [-3.129453, 41.000887], [-3.130152, 41.001112], [-3.13157, 41.001338], [-3.131839, 41.001381], [-3.13322, 41.001303], [-3.134724, 41.000713], [-3.135734, 41.000149], [-3.136473, 40.999737], [-3.136712, 40.998891], [-3.138628, 40.99761], [-3.140915, 40.996102], [-3.141684, 40.995115], [-3.142889, 40.995307], [-3.143923, 40.995134], [-3.145338, 40.994343], [-3.146062, 40.994246], [-3.14642, 40.993739], [-3.147864, 40.993086], [-3.14917, 40.992876], [-3.149947, 40.992807], [-3.151131, 40.992684], [-3.152038, 40.992351], [-3.152602, 40.992594], [-3.153312, 40.992428], [-3.153673, 40.992592], [-3.153556, 40.993138], [-3.153901, 40.993446], [-3.154979, 40.993478], [-3.156227, 40.992781], [-3.157731, 40.99219], [-3.158321, 40.991899], [-3.159248, 40.991881], [-3.160136, 40.991871], [-3.161597, 40.991319], [-3.167334, 40.988959], [-3.168155, 40.989097], [-3.16914, 40.989354], [-3.169553, 40.989758], [-3.170148, 40.989714], [-3.170886, 40.989898], [-3.17107, 40.989449], [-3.172066, 40.988007], [-3.172341, 40.987546], [-3.172932, 40.987042], [-3.173297, 40.986569], [-3.173863, 40.986387], [-3.174273, 40.985907], [-3.174412, 40.985464], [-3.17434, 40.984908], [-3.174621, 40.984481], [-3.175123, 40.983777], [-3.175383, 40.983247], [-3.175354, 40.98311], [-3.175712, 40.98239], [-3.176423, 40.982012], [-3.177238, 40.981902], [-3.177758, 40.981939], [-3.178113, 40.981856], [-3.178891, 40.981575], [-3.180294, 40.981386], [-3.181016, 40.981714], [-3.181591, 40.981354], [-3.181877, 40.981386], [-3.182328, 40.981538], [-3.183268, 40.982013], [-3.183877, 40.98225], [-3.184357, 40.982539], [-3.184935, 40.983063], [-3.185667, 40.982788], [-3.186262, 40.982956], [-3.186661, 40.983079], [-3.186824, 40.983411], [-3.186603, 40.9839], [-3.186132, 40.984529], [-3.185609, 40.984918], [-3.185274, 40.985529], [-3.184991, 40.986168], [-3.185177, 40.986603], [-3.185867, 40.986974], [-3.185966, 40.987028], [-3.187195, 40.986898], [-3.187914, 40.986554], [-3.187972, 40.986829], [-3.187774, 40.987209], [-3.188596, 40.987134], [-3.189214, 40.987193], [-3.188744, 40.98761], [-3.187664, 40.988002], [-3.186651, 40.988492], [-3.185683, 40.988975], [-3.185077, 40.98941], [-3.184313, 40.98976], [-3.183369, 40.990135], [-3.182814, 40.99081], [-3.183432, 40.990869], [-3.184214, 40.991259], [-3.184742, 40.991118], [-3.185324, 40.991004], [-3.185686, 40.990956], [-3.186563, 40.990484], [-3.187318, 40.990312], [-3.188157, 40.989881], [-3.188512, 40.989798], [-3.188904, 40.989887], [-3.188823, 40.989509], [-3.188854, 40.989434], [-3.189543, 40.988953], [-3.190078, 40.988846], [-3.190487, 40.988578], [-3.191267, 40.988085], [-3.191818, 40.987834], [-3.193327, 40.987702], [-3.193772, 40.987607], [-3.193782, 40.987217], [-3.193462, 40.986588], [-3.193553, 40.986363], [-3.194083, 40.986009], [-3.194077, 40.985762], [-3.194312, 40.985554], [-3.194869, 40.985762], [-3.195255, 40.985392], [-3.195504, 40.985465], [-3.195658, 40.986187], [-3.194925, 40.986462], [-3.195021, 40.986697], [-3.195448, 40.98717], [-3.196396, 40.987467], [-3.197255, 40.987564], [-3.198183, 40.987545], [-3.197997, 40.987111], [-3.198082, 40.986639], [-3.199084, 40.986752], [-3.199809, 40.986655], [-3.199691, 40.986105], [-3.199202, 40.985994], [-3.198337, 40.98565], [-3.197811, 40.985367], [-3.197867, 40.984758], [-3.19738, 40.984222], [-3.197639, 40.983905], [-3.197784, 40.983496], [-3.198124, 40.983344], [-3.198644, 40.983381], [-3.199146, 40.983985], [-3.198886, 40.984515], [-3.199707, 40.984653], [-3.19986, 40.984278], [-3.200246, 40.984121], [-3.2004, 40.983534], [-3.20056, 40.983194], [-3.200758, 40.982814], [-3.200859, 40.982411], [-3.200927, 40.982296], [-3.201117, 40.982094], [-3.201262, 40.981685], [-3.201544, 40.981258], [-3.201183, 40.981094], [-3.200345, 40.981313], [-3.199628, 40.981445], [-3.198851, 40.981514], [-3.198399, 40.981574], [-3.198397, 40.981787], [-3.19878, 40.982054], [-3.198966, 40.982489], [-3.199608, 40.982225], [-3.199921, 40.98282], [-3.199212, 40.982986], [-3.198089, 40.98296], [-3.197524, 40.98293], [-3.197141, 40.982663], [-3.197535, 40.982327], [-3.196723, 40.982012], [-3.197517, 40.981587], [-3.196997, 40.98155], [-3.196288, 40.981504], [-3.196151, 40.981735], [-3.195987, 40.982712], [-3.19534, 40.982516], [-3.195069, 40.982552], [-3.194691, 40.982744], [-3.194393, 40.983315], [-3.194338, 40.983711], [-3.19429, 40.984142], [-3.193959, 40.984116], [-3.193622, 40.98363], [-3.192793, 40.983671], [-3.192765, 40.983321], [-3.19244, 40.983542], [-3.191746, 40.983564], [-3.191967, 40.983329], [-3.192239, 40.983038], [-3.191723, 40.982364], [-3.191331, 40.982276], [-3.191477, 40.981867], [-3.19182, 40.98129], [-3.192869, 40.980973], [-3.192707, 40.980429], [-3.192898, 40.980014], [-3.193295, 40.979041], [-3.193983, 40.977463], [-3.195057, 40.976824], [-3.196968, 40.976178], [-3.197121, 40.97612], [-3.198434, 40.975627], [-3.199988, 40.975277], [-3.201049, 40.974357], [-3.201909, 40.972932], [-3.201905, 40.972261], [-3.201149, 40.971337], [-3.200663, 40.970801], [-3.200734, 40.970261], [-3.200759, 40.969727], [-3.200861, 40.969112], [-3.200884, 40.969002], [-3.201611, 40.96848], [-3.202078, 40.968488], [-3.202171, 40.968051], [-3.201781, 40.96775], [-3.201874, 40.967313], [-3.202308, 40.966512], [-3.202674, 40.965826], [-3.202852, 40.965416], [-3.203048, 40.964962], [-3.203401, 40.96457], [-3.203989, 40.963916], [-3.204815, 40.962992], [-3.205604, 40.962108], [-3.205983, 40.961703], [-3.206371, 40.96112], [-3.206437, 40.960522], [-3.206498, 40.959971], [-3.206682, 40.959522], [-3.207182, 40.959031], [-3.207906, 40.958712], [-3.207781, 40.958349], [-3.206727, 40.958207], [-3.206292, 40.957912], [-3.205795, 40.957767], [-3.205231, 40.957524], [-3.204818, 40.957332], [-3.205332, 40.957122], [-3.205672, 40.95697], [-3.205816, 40.956774], [-3.205743, 40.95643], [-3.205955, 40.956118], [-3.205935, 40.955803], [-3.205431, 40.955623], [-3.205394, 40.955451], [-3.205697, 40.955127], [-3.206253, 40.954239], [-3.206835, 40.953913], [-3.207078, 40.953527], [-3.207615, 40.953207], [-3.208315, 40.953219], [-3.209587, 40.953508], [-3.210444, 40.953817], [-3.21082, 40.954049], [-3.211112, 40.954328], [-3.211728, 40.954599], [-3.212124, 40.955147], [-3.212638, 40.954937], [-3.212656, 40.954368], [-3.212002, 40.954138], [-3.211575, 40.953665], [-3.211163, 40.95326], [-3.210811, 40.952919], [-3.2107, 40.952615], [-3.210513, 40.952393], [-3.210097, 40.952626], [-3.209729, 40.952427], [-3.209187, 40.952288], [-3.208435, 40.952035], [-3.207841, 40.951868], [-3.208077, 40.951447], [-3.208351, 40.950986], [-3.208707, 40.95069], [-3.207978, 40.950328], [-3.208071, 40.95003], [-3.208048, 40.950001], [-3.208065, 40.949645], [-3.20812, 40.949248], [-3.208132, 40.948777], [-3.207511, 40.947703], [-3.207047, 40.94727], [-3.206778, 40.946882], [-3.206313, 40.946449], [-3.205963, 40.945683], [-3.205626, 40.94541], [-3.205801, 40.945138], [-3.206292, 40.944825], [-3.205713, 40.944726], [-3.205308, 40.944356], [-3.205506, 40.943975], [-3.205635, 40.943923], [-3.206267, 40.94405], [-3.20662, 40.944179], [-3.207289, 40.944479], [-3.208433, 40.944608], [-3.209585, 40.944771], [-3.210307, 40.944886], [-3.21109, 40.945064], [-3.211941, 40.945126], [-3.212469, 40.945186], [-3.212823, 40.944902], [-3.213043, 40.944624], [-3.213062, 40.944056], [-3.213213, 40.943894], [-3.213306, 40.943457], [-3.213194, 40.943366], [-3.212304, 40.943557], [-3.211642, 40.943292], [-3.211502, 40.942851], [-3.211278, 40.942457], [-3.211482, 40.942323], [-3.211738, 40.94243], [-3.212107, 40.942416], [-3.212184, 40.942122], [-3.211682, 40.94173], [-3.211617, 40.941208], [-3.211761, 40.941012], [-3.211628, 40.940606], [-3.211427, 40.940102], [-3.211076, 40.939548], [-3.211922, 40.939151], [-3.212206, 40.939608], [-3.212548, 40.939032], [-3.212358, 40.938137], [-3.212957, 40.937456], [-3.213718, 40.937318], [-3.213969, 40.936966], [-3.214076, 40.936598], [-3.214041, 40.936213], [-3.213954, 40.935588], [-3.214002, 40.935157], [-3.213785, 40.934797], [-3.213659, 40.934425], [-3.213405, 40.934106], [-3.213203, 40.933814], [-3.212943, 40.933248], [-3.213081, 40.932805], [-3.213195, 40.932684], [-3.214465, 40.933185], [-3.215314, 40.93346], [-3.215559, 40.93417], [-3.215894, 40.934867], [-3.216404, 40.935294], [-3.216915, 40.935508], [-3.217198, 40.935565], [-3.217276, 40.93546], [-3.217668, 40.935548], [-3.218141, 40.935803], [-3.218344, 40.936053], [-3.218877, 40.936199], [-3.220067, 40.937418], [-3.22168, 40.938652], [-3.223137, 40.939375], [-3.224316, 40.939897], [-3.22437, 40.939889], [-3.225084, 40.94021], [-3.22939, 40.942071], [-3.233298, 40.943808], [-3.233742, 40.943925], [-3.234487, 40.943931], [-3.234349, 40.944374], [-3.233934, 40.944607], [-3.233488, 40.944914], [-3.233449, 40.945167], [-3.233529, 40.945546], [-3.233957, 40.945806], [-3.233993, 40.946191], [-3.233426, 40.946585], [-3.232928, 40.946652], [-3.232843, 40.947124], [-3.232947, 40.947393], [-3.233256, 40.947316], [-3.233663, 40.947261], [-3.233936, 40.947012], [-3.234223, 40.946832], [-3.234833, 40.946856], [-3.235083, 40.946716], [-3.235687, 40.946493], [-3.236168, 40.94657], [-3.236352, 40.94612], [-3.236384, 40.945621], [-3.2364, 40.945477], [-3.23674, 40.945325], [-3.237154, 40.945305], [-3.237278, 40.944793], [-3.237512, 40.944584], [-3.237722, 40.94491], [-3.23806, 40.94497], [-3.23828, 40.944693], [-3.238448, 40.944388], [-3.238583, 40.944369], [-3.238959, 40.944602], [-3.239175, 40.944962], [-3.239875, 40.945186], [-3.239914, 40.944933], [-3.240042, 40.94488], [-3.240398, 40.944585], [-3.240559, 40.944032], [-3.240161, 40.943697], [-3.241813, 40.943368], [-3.242, 40.943591], [-3.242799, 40.943412], [-3.242838, 40.943159], [-3.242833, 40.9427], [-3.242873, 40.942235], [-3.243124, 40.941883], [-3.24332, 40.941927], [-3.243584, 40.941856], [-3.243691, 40.941488], [-3.24419, 40.941208], [-3.244162, 40.940646], [-3.245013, 40.940708], [-3.244295, 40.939744], [-3.243422, 40.939578], [-3.243493, 40.939038], [-3.243004, 40.938927], [-3.242751, 40.938261], [-3.242684, 40.938086], [-3.241947, 40.937903], [-3.241987, 40.937437], [-3.242094, 40.937281], [-3.242675, 40.936955], [-3.243333, 40.936548], [-3.243553, 40.936271], [-3.243998, 40.936176], [-3.244698, 40.936187], [-3.245209, 40.936401], [-3.245648, 40.936059], [-3.24598, 40.935873], [-3.24641, 40.935709], [-3.246825, 40.935688], [-3.247779, 40.936232], [-3.248055, 40.936654], [-3.248318, 40.936796], [-3.248701, 40.937063], [-3.248724, 40.937094], [-3.248731, 40.937098], [-3.248759, 40.937111], [-3.249025, 40.937054], [-3.249394, 40.93704], [-3.249573, 40.93744], [-3.249747, 40.937882], [-3.249766, 40.937909], [-3.249835, 40.9379], [-3.250264, 40.937842], [-3.250745, 40.937919], [-3.250648, 40.938252], [-3.250638, 40.938287], [-3.250268, 40.938514], [-3.250326, 40.938789], [-3.25065, 40.93878], [-3.250921, 40.938956], [-3.250942, 40.939272], [-3.250653, 40.939664], [-3.251044, 40.939966], [-3.251299, 40.940073], [-3.251532, 40.940289], [-3.25171, 40.940689], [-3.252041, 40.940928], [-3.252129, 40.94134], [-3.251933, 40.941923], [-3.25193, 40.941933], [-3.252567, 40.942519], [-3.252988, 40.942745], [-3.253115, 40.942905], [-3.252866, 40.943045], [-3.252429, 40.942962], [-3.252219, 40.942849], [-3.251355, 40.942677], [-3.251053, 40.942617], [-3.25069, 40.942879], [-3.250459, 40.943759], [-3.250278, 40.943783], [-3.249126, 40.94362], [-3.249396, 40.944008], [-3.249666, 40.944184], [-3.248978, 40.944666], [-3.249346, 40.944864], [-3.249589, 40.94495], [-3.24985, 40.945044], [-3.250573, 40.945158], [-3.250684, 40.945462], [-3.250336, 40.945792], [-3.250666, 40.94603], [-3.251471, 40.946311], [-3.251341, 40.946576], [-3.25033, 40.946854], [-3.249528, 40.947669], [-3.249772, 40.948379], [-3.249348, 40.94879], [-3.248905, 40.948673], [-3.248452, 40.948622], [-3.248332, 40.948609], [-3.247783, 40.948435], [-3.247219, 40.948193], [-3.247016, 40.948114], [-3.247293, 40.948537], [-3.248037, 40.948967], [-3.248207, 40.949255], [-3.248328, 40.949458], [-3.248954, 40.949339], [-3.248831, 40.94985], [-3.248783, 40.950281], [-3.248676, 40.950649], [-3.248817, 40.95109], [-3.249056, 40.951553], [-3.249001, 40.95195], [-3.248893, 40.952318], [-3.24862, 40.952779], [-3.248452, 40.953085], [-3.248609, 40.953382], [-3.24863, 40.953698], [-3.247973, 40.954105], [-3.246993, 40.954095], [-3.246668, 40.954316], [-3.246618, 40.953863], [-3.246095, 40.95398], [-3.246074, 40.954023], [-3.246056, 40.954062], [-3.245634, 40.954018], [-3.245572, 40.954709], [-3.245572, 40.954896], [-3.245572, 40.955551], [-3.245376, 40.956033], [-3.245661, 40.956244], [-3.24529, 40.956613], [-3.245588, 40.957164], [-3.245205, 40.957193], [-3.244924, 40.95714], [-3.244796, 40.957522], [-3.245212, 40.957647], [-3.244945, 40.957797], [-3.244756, 40.957755], [-3.244661, 40.958291], [-3.244233, 40.958667], [-3.244107, 40.959617], [-3.244113, 40.960208], [-3.243964, 40.960911], [-3.244093, 40.961234], [-3.244728, 40.962241], [-3.243963, 40.962162], [-3.243609, 40.962187], [-3.243131, 40.962752], [-3.243269, 40.963121], [-3.243499, 40.963636], [-3.243511, 40.964249], [-3.24296, 40.963913], [-3.24262, 40.964004], [-3.241911, 40.96517], [-3.241327, 40.965658], [-3.240848, 40.965381], [-3.240614, 40.965549], [-3.240578, 40.966077], [-3.24146, 40.966141], [-3.242126, 40.966733], [-3.241765, 40.967146], [-3.241175, 40.966907], [-3.241357, 40.967201], [-3.241535, 40.967473], [-3.240785, 40.967324], [-3.240548, 40.96706], [-3.240778, 40.966733], [-3.240396, 40.966489], [-3.239976, 40.966204], [-3.239556, 40.965919], [-3.239384, 40.966238], [-3.239334, 40.966564], [-3.238962, 40.967205], [-3.239004, 40.967541], [-3.239175, 40.967359], [-3.239765, 40.966619], [-3.240274, 40.966756], [-3.239809, 40.967524], [-3.240185, 40.967882], [-3.239605, 40.967688], [-3.239326, 40.968203], [-3.239057, 40.96849], [-3.238887, 40.968672], [-3.238043, 40.968786], [-3.238675, 40.969224], [-3.239454, 40.969642], [-3.24038, 40.97061], [-3.239942, 40.971165], [-3.239802, 40.971552], [-3.239495, 40.971935], [-3.239018, 40.972363], [-3.238546, 40.972541], [-3.238246, 40.972536], [-3.237448, 40.973007], [-3.236884, 40.973311], [-3.236353, 40.973769], [-3.236006, 40.974248], [-3.235626, 40.974709], [-3.23545, 40.974869], [-3.235224, 40.975491], [-3.235083, 40.975533], [-3.234867, 40.976063], [-3.234365, 40.976654], [-3.234037, 40.977221], [-3.233535, 40.977676], [-3.233241, 40.978125], [-3.233085, 40.978234], [-3.232876, 40.978379], [-3.232526, 40.978699], [-3.232796, 40.978845], [-3.232994, 40.978788], [-3.233248, 40.978715], [-3.233033, 40.979109], [-3.232911, 40.979218], [-3.232706, 40.979403], [-3.232667, 40.979499], [-3.232529, 40.979973], [-3.231983, 40.980501], [-3.231893, 40.980923], [-3.232218, 40.981341], [-3.232678, 40.981932], [-3.232653, 40.982095], [-3.232967, 40.982303], [-3.232834, 40.982662], [-3.232529, 40.982635], [-3.232151, 40.982549], [-3.231302, 40.982701], [-3.231112, 40.982735], [-3.230529, 40.983086], [-3.230128, 40.983595], [-3.230155, 40.983721], [-3.230213, 40.983994], [-3.230313, 40.984458], [-3.229264, 40.984736], [-3.228674, 40.984733], [-3.228554, 40.984811], [-3.228319, 40.984962], [-3.228074, 40.985117], [-3.227821, 40.985276], [-3.227779, 40.985302], [-3.227021, 40.985174], [-3.226962, 40.985319], [-3.226315, 40.985656], [-3.225849, 40.985855], [-3.225757, 40.986557], [-3.225666, 40.987245], [-3.225835, 40.987473], [-3.225415, 40.98803], [-3.224706, 40.98808], [-3.223989, 40.988085], [-3.223325, 40.988766], [-3.222985, 40.988994], [-3.222528, 40.989101], [-3.222439, 40.989386], [-3.222759, 40.989479], [-3.22268, 40.989809], [-3.222189, 40.990034], [-3.222032, 40.990283], [-3.221457, 40.990815], [-3.221152, 40.99163], [-3.22033, 40.99199], [-3.219444, 40.991768], [-3.21947, 40.992311], [-3.218937, 40.992201], [-3.218585, 40.992657], [-3.217851, 40.993007], [-3.217417, 40.993361], [-3.21754, 40.993936], [-3.217078, 40.994157], [-3.216594, 40.993995], [-3.216368, 40.994204], [-3.216019, 40.994527], [-3.215541, 40.994955], [-3.21484, 40.995459], [-3.214316, 40.99553], [-3.214159, 40.995778], [-3.21351, 40.995684], [-3.213717, 40.995951], [-3.213836, 40.996231], [-3.214843, 40.997438], [-3.215295, 40.997309], [-3.215439, 40.9977], [-3.215931, 40.998043], [-3.216576, 40.998116], [-3.216896, 40.999051], [-3.21608, 40.999297], [-3.216272, 40.999635], [-3.216668, 40.999946], [-3.216418, 41.000321], [-3.216133, 41.000246], [-3.216483, 41.000904], [-3.216709, 41.000911], [-3.216965, 41.001476], [-3.217174, 41.001516], [-3.217246, 41.00153], [-3.217483, 41.001657], [-3.218007, 41.001587], [-3.218048, 41.002059], [-3.218378, 41.00206], [-3.21858, 41.002443], [-3.218511, 41.002679], [-3.218567, 41.002945], [-3.218793, 41.003301], [-3.218676, 41.003454], [-3.218399, 41.003559], [-3.218301, 41.0038], [-3.218087, 41.00392], [-3.217916, 41.004102], [-3.217991, 41.004456], [-3.217733, 41.00465], [-3.218021, 41.005294], [-3.217674, 41.005636], [-3.217791, 41.006462], [-3.217708, 41.006633], [-3.217696, 41.006998], [-3.21788, 41.007156], [-3.218125, 41.007464], [-3.218304, 41.007599], [-3.218293, 41.007828], [-3.218554, 41.00793], [-3.218597, 41.008129], [-3.218509, 41.008277], [-3.219118, 41.008605], [-3.218816, 41.008873], [-3.21909, 41.009314], [-3.218789, 41.009445], [-3.21854, 41.009684], [-3.21834, 41.00987], [-3.218128, 41.010558], [-3.217165, 41.011803], [-3.217298, 41.012422], [-3.217127, 41.012436], [-3.217171, 41.01253], [-3.21697, 41.012853], [-3.2166, 41.013084], [-3.216672, 41.01328], [-3.21684, 41.013644], [-3.217052, 41.013934], [-3.216822, 41.014124], [-3.216763, 41.014405], [-3.216703, 41.014686], [-3.216778, 41.015177], [-3.216466, 41.015401], [-3.216504, 41.015578], [-3.216794, 41.015812], [-3.216957, 41.016154], [-3.217188, 41.016396], [-3.217311, 41.016971], [-3.217077, 41.017275], [-3.216516, 41.017738], [-3.216934, 41.01759], [-3.217297, 41.017883], [-3.217067, 41.01821], [-3.216647, 41.01863], [-3.216539, 41.018827], [-3.216537, 41.019236], [-3.216361, 41.019533], [-3.216332, 41.019702], [-3.216321, 41.019766], [-3.21633, 41.019775], [-3.216745, 41.02021], [-3.216739, 41.020461], [-3.217248, 41.020597], [-3.217338, 41.020881], [-3.216565, 41.021326], [-3.216722, 41.021783], [-3.216578, 41.022371], [-3.216248, 41.022506], [-3.216237, 41.022735], [-3.21594, 41.022889], [-3.215667, 41.022941], [-3.215933, 41.02314], [-3.216272, 41.023322], [-3.216154, 41.023611], [-3.216113, 41.024117], [-3.216048, 41.024376], [-3.216357, 41.024699], [-3.215915, 41.024736], [-3.215957, 41.025071], [-3.21613, 41.025321], [-3.216397, 41.025308], [-3.216484, 41.025433], [-3.216371, 41.025607], [-3.215929, 41.02578], [-3.215525, 41.025994], [-3.215542, 41.026356], [-3.215609, 41.026529], [-3.215958, 41.026618], [-3.215281, 41.027096], [-3.215182, 41.027473], [-3.214642, 41.027751], [-3.214432, 41.027893], [-3.214313, 41.028318], [-3.214013, 41.028313], [-3.213788, 41.028525], [-3.214179, 41.028951], [-3.214193, 41.029017], [-3.214151, 41.029523], [-3.214067, 41.02983], [-3.214031, 41.030222], [-3.214049, 41.030584], [-3.214208, 41.030767], [-3.214351, 41.031157], [-3.21433, 41.031479], [-3.214226, 41.031834], [-3.213934, 41.03201], [-3.213758, 41.03217], [-3.21338, 41.032221], [-3.212982, 41.032183], [-3.212745, 41.032056], [-3.212391, 41.031944], [-3.212037, 41.031832], [-3.211844, 41.031767], [-3.211581, 41.031803], [-3.211304, 41.031908], [-3.21111, 41.03198], [-3.210571, 41.031984], [-3.210317, 41.0322], [-3.209813, 41.032086], [-3.209829, 41.031879], [-3.20986, 41.031601], [-3.209871, 41.031372], [-3.209691, 41.031374], [-3.209568, 41.031641], [-3.209534, 41.031759], [-3.209324, 41.031901], [-3.209172, 41.032172], [-3.209143, 41.032176], [-3.208886, 41.032096], [-3.208844, 41.03209], [-3.208895, 41.032277], [-3.208961, 41.032587], [-3.209211, 41.033054], [-3.209674, 41.033538], [-3.209528, 41.033694], [-3.209784, 41.03391], [-3.210021, 41.034037], [-3.210429, 41.033982], [-3.210228, 41.034305], [-3.210665, 41.034246], [-3.211069, 41.034033], [-3.2116, 41.033711], [-3.212036, 41.033789], [-3.211927, 41.034259], [-3.211731, 41.034604], [-3.211614, 41.034756], [-3.211641, 41.035025], [-3.21114, 41.035343], [-3.210893, 41.035172], [-3.210687, 41.035472], [-3.210094, 41.035779], [-3.209758, 41.035893], [-3.209824, 41.036339], [-3.209687, 41.036539], [-3.209527, 41.036356], [-3.209263, 41.035959], [-3.20906, 41.035713], [-3.209189, 41.035332], [-3.209219, 41.035055], [-3.20897, 41.035293], [-3.208857, 41.035604], [-3.208827, 41.035745], [-3.209038, 41.036171], [-3.209298, 41.036546], [-3.209622, 41.036798], [-3.209348, 41.037199], [-3.208994, 41.037224], [-3.208149, 41.037201], [-3.208109, 41.037434], [-3.207623, 41.037545], [-3.207076, 41.037231], [-3.206586, 41.03732], [-3.206026, 41.037645], [-3.205439, 41.037565], [-3.205801, 41.037994], [-3.205051, 41.038413], [-3.204696, 41.038373], [-3.20467, 41.038737], [-3.204712, 41.039073], [-3.205433, 41.0395], [-3.205308, 41.040176], [-3.204658, 41.040082], [-3.204529, 41.040599], [-3.204083, 41.040561], [-3.204193, 41.040713], [-3.204406, 41.040866], [-3.204496, 41.041286], [-3.204753, 41.041366], [-3.204794, 41.041701], [-3.204549, 41.041853], [-3.204285, 41.041755], [-3.204246, 41.041661], [-3.203749, 41.041593], [-3.20357, 41.041866], [-3.202965, 41.042402], [-3.202627, 41.04222], [-3.202146, 41.042216], [-3.201995, 41.04235], [-3.201852, 41.042665], [-3.20161, 41.042652], [-3.201505, 41.042302], [-3.201238, 41.042315], [-3.20111, 41.042697], [-3.201225, 41.042818], [-3.201442, 41.04313], [-3.201325, 41.043282], [-3.200892, 41.043363], [-3.200838, 41.043529], [-3.200821, 41.043873], [-3.20039, 41.04368], [-3.200119, 41.043535], [-3.200223, 41.043316], [-3.199756, 41.043515], [-3.199685, 41.043184], [-3.200234, 41.042951], [-3.200415, 41.042813], [-3.20018, 41.042275], [-3.200255, 41.041924], [-3.199909, 41.04213], [-3.199752, 41.042378], [-3.19975, 41.042788], [-3.199482, 41.042938], [-3.199073, 41.043129], [-3.198937, 41.043193], [-3.198656, 41.04314], [-3.198783, 41.042895], [-3.198395, 41.042902], [-3.19834, 41.043205], [-3.198126, 41.043325], [-3.197709, 41.043198], [-3.197656, 41.043092], [-3.19747, 41.043481], [-3.197155, 41.043273], [-3.197221, 41.042877], [-3.197192, 41.042744], [-3.197604, 41.042848], [-3.197862, 41.042791], [-3.197989, 41.042683], [-3.198019, 41.042406], [-3.198247, 41.042489], [-3.198465, 41.042528], [-3.199013, 41.042568], [-3.199116, 41.042486], [-3.198724, 41.042334], [-3.198438, 41.042122], [-3.198134, 41.041958], [-3.197887, 41.041787], [-3.197629, 41.041844], [-3.197371, 41.042038], [-3.197324, 41.041911], [-3.197299, 41.041843], [-3.197271, 41.04171], [-3.197, 41.041564], [-3.196579, 41.041416], [-3.196356, 41.041218], [-3.196032, 41.041103], [-3.195691, 41.04133], [-3.195539, 41.041601], [-3.195619, 41.041977], [-3.195767, 41.04239], [-3.19563, 41.042663], [-3.19562, 41.042682], [-3.195593, 41.042679], [-3.195343, 41.042651], [-3.195057, 41.042712], [-3.194536, 41.042942], [-3.194249, 41.043003], [-3.194109, 41.042908], [-3.194338, 41.042718], [-3.194033, 41.042554], [-3.19383, 41.042445], [-3.193466, 41.042425], [-3.193321, 41.042308], [-3.19298, 41.041831], [-3.192546, 41.041343], [-3.192364, 41.040912], [-3.192322, 41.040576], [-3.192298, 41.040466], [-3.192115, 41.040308], [-3.19204, 41.039818], [-3.192027, 41.039478], [-3.191644, 41.038665], [-3.191463, 41.037961], [-3.191163, 41.037956], [-3.19113, 41.037665], [-3.191311, 41.037527], [-3.191099, 41.037237], [-3.19073, 41.037195], [-3.190678, 41.036952], [-3.190903, 41.03674], [-3.190766, 41.036098], [-3.190748, 41.035736], [-3.190571, 41.035464], [-3.190214, 41.035899], [-3.190477, 41.036569], [-3.190266, 41.036984], [-3.190091, 41.037008], [-3.189761, 41.03687], [-3.189154, 41.036974], [-3.188878, 41.036943], [-3.188222, 41.036962], [-3.187732, 41.036914], [-3.187562, 41.03696], [-3.187702, 41.037192], [-3.187909, 41.03746], [-3.187451, 41.037703], [-3.187044, 41.037621], [-3.186929, 41.037363], [-3.1864, 41.037275], [-3.186573, 41.037661], [-3.186101, 41.037838], [-3.186152, 41.038218], [-3.185632, 41.038447], [-3.185902, 41.038593], [-3.186236, 41.038753], [-3.185871, 41.039007], [-3.185584, 41.039068], [-3.185192, 41.038916], [-3.185108, 41.039223], [-3.18483, 41.039465], [-3.184624, 41.039766], [-3.184636, 41.040105], [-3.184421, 41.040362], [-3.18409, 41.040634], [-3.184331, 41.04092], [-3.184352, 41.04144], [-3.184662, 41.04149], [-3.184891, 41.041436], [-3.18511, 41.042044], [-3.184997, 41.042355], [-3.185024, 41.042624], [-3.185323, 41.043039], [-3.18578, 41.043638], [-3.18579, 41.044387], [-3.185304, 41.044635], [-3.185266, 41.045163], [-3.185911, 41.045372], [-3.186013, 41.045852], [-3.185972, 41.045864], [-3.186133, 41.046412], [-3.185751, 41.047009], [-3.18551, 41.047428], [-3.184961, 41.047524], [-3.184815, 41.047681], [-3.185357, 41.047835], [-3.185681, 41.048088], [-3.185728, 41.048446], [-3.185702, 41.048745], [-3.185501, 41.048931], [-3.185111, 41.049211], [-3.184921, 41.049441], [-3.184796, 41.049981], [-3.183916, 41.050213], [-3.183142, 41.050658], [-3.182912, 41.050984], [-3.182618, 41.051433], [-3.18231, 41.051679], [-3.182268, 41.052185], [-3.181986, 41.052405], [-3.182071, 41.052803], [-3.181779, 41.052843], [-3.181394, 41.053144], [-3.180422, 41.052847], [-3.180297, 41.053064], [-3.180034, 41.053236], [-3.179505, 41.053147], [-3.179833, 41.053558], [-3.179846, 41.053761], [-3.179666, 41.053899], [-3.17963, 41.054154], [-3.179281, 41.054201], [-3.17911, 41.054247], [-3.178757, 41.054135], [-3.179084, 41.054546], [-3.17899, 41.054809], [-3.178734, 41.055435], [-3.179019, 41.055783], [-3.179583, 41.055617], [-3.179999, 41.05588], [-3.179898, 41.056394], [-3.179566, 41.056802], [-3.179273, 41.057114], [-3.179019, 41.05733], [-3.179245, 41.057687], [-3.179753, 41.057118], [-3.1801, 41.057618], [-3.180388, 41.058125], [-3.180182, 41.058426], [-3.179955, 41.058467], [-3.17969, 41.058788], [-3.179353, 41.059174], [-3.178872, 41.05917], [-3.178591, 41.059117], [-3.178564, 41.058711], [-3.178161, 41.058788], [-3.178073, 41.058799], [-3.177919, 41.058535], [-3.177742, 41.05823], [-3.177237, 41.058252], [-3.176978, 41.058446], [-3.176994, 41.05849], [-3.177054, 41.058663], [-3.177358, 41.058963], [-3.177036, 41.05928], [-3.176835, 41.059602], [-3.176785, 41.059928], [-3.176689, 41.060464], [-3.177058, 41.060505], [-3.17708, 41.060889], [-3.177448, 41.061773], [-3.177735, 41.061711], [-3.178718, 41.062103], [-3.178663, 41.062406], [-3.178237, 41.062236], [-3.177897, 41.06219], [-3.177774, 41.062457], [-3.177454, 41.0625], [-3.1771, 41.062388], [-3.176529, 41.062101], [-3.17626, 41.062387], [-3.17589, 41.062482], [-3.175642, 41.062583], [-3.175251, 41.063], [-3.175724, 41.063528], [-3.175003, 41.063943], [-3.173908, 41.063589], [-3.173282, 41.063468], [-3.173156, 41.063439], [-3.172428, 41.0634], [-3.17148, 41.063596], [-3.171217, 41.063631], [-3.17106, 41.063174], [-3.170961, 41.062709], [-3.170894, 41.062536], [-3.170404, 41.062488], [-3.169899, 41.06251], [-3.169558, 41.061896], [-3.169164, 41.062017], [-3.16933, 41.062655], [-3.168916, 41.062824], [-3.168598, 41.063162], [-3.167985, 41.063381], [-3.167818, 41.063722], [-3.16721, 41.063826], [-3.167095, 41.063568], [-3.16665, 41.063446], [-3.16652, 41.063122], [-3.165981, 41.063262], [-3.165926, 41.063429], [-3.165817, 41.063762], [-3.165377, 41.063525], [-3.165227, 41.063386], [-3.164879, 41.063159], [-3.164654, 41.063371], [-3.16461, 41.064287], [-3.164199, 41.064047], [-3.164034, 41.063978], [-3.163708, 41.064135], [-3.163437, 41.064695], [-3.162739, 41.064515], [-3.162532, 41.064247], [-3.162387, 41.06413], [-3.162406, 41.064064], [-3.162491, 41.063775], [-3.162634, 41.06346], [-3.162246, 41.06333], [-3.161975, 41.06332], [-3.161713, 41.063219], [-3.161315, 41.063181], [-3.161115, 41.063367], [-3.160935, 41.063368], [-3.160596, 41.063186], [-3.160181, 41.062923], [-3.159577, 41.063186], [-3.159115, 41.063271], [-3.158496, 41.062898], [-3.158239, 41.062819], [-3.158092, 41.062975], [-3.157729, 41.062819], [-3.157449, 41.062629], [-3.157132, 41.061989], [-3.156646, 41.062099], [-3.156326, 41.062005], [-3.156519, 41.062207], [-3.156688, 41.062435], [-3.156384, 41.062839], [-3.155934, 41.062558], [-3.156344, 41.062367], [-3.155957, 41.0621], [-3.155786, 41.062282], [-3.155451, 41.062259], [-3.155784, 41.062556], [-3.155386, 41.063223], [-3.155244, 41.063538], [-3.155073, 41.063583], [-3.15512, 41.063941], [-3.154797, 41.064257], [-3.154491, 41.064367], [-3.15445, 41.0646], [-3.154226, 41.064812], [-3.153681, 41.06493], [-3.153365, 41.065046], [-3.153035, 41.064994], [-3.152511, 41.064927], [-3.152422, 41.065075], [-3.151694, 41.065036], [-3.151312, 41.064928], [-3.150354, 41.065079], [-3.150114, 41.065361], [-3.14992, 41.065433], [-3.14901, 41.065668], [-3.148607, 41.065608], [-3.148524, 41.065778], [-3.147902, 41.065816], [-3.14792, 41.066041], [-3.14789, 41.066182], [-3.14735, 41.066322], [-3.14737, 41.066979], [-3.14681, 41.067168], [-3.146271, 41.067308], [-3.145712, 41.06736], [-3.145728, 41.067153], [-3.146104, 41.066807], [-3.145848, 41.066591], [-3.145362, 41.066701], [-3.145259, 41.066783], [-3.145476, 41.067096], [-3.145445, 41.067373], [-3.145055, 41.067516], [-3.144875, 41.067654], [-3.144734, 41.067695], [-3.143695, 41.067607], [-3.143966, 41.067752], [-3.144207, 41.068039], [-3.144313, 41.068115], [-3.144613, 41.068257], [-3.144559, 41.068424], [-3.144408, 41.068558], [-3.144343, 41.068817], [-3.144, 41.068476], [-3.143569, 41.068283], [-3.143372, 41.068059], [-3.143306, 41.06775], [-3.143229, 41.067532], [-3.142928, 41.067527], [-3.142838, 41.067243], [-3.142454, 41.067272], [-3.142778, 41.067524], [-3.142795, 41.067886], [-3.142382, 41.067918], [-3.141804, 41.067882], [-3.141111, 41.067724], [-3.140998, 41.067898], [-3.140863, 41.068531], [-3.141095, 41.068636], [-3.141084, 41.068865], [-3.141383, 41.069144], [-3.141281, 41.069226], [-3.140272, 41.068996], [-3.139676, 41.068871], [-3.139636, 41.069104], [-3.139679, 41.069167], [-3.140554, 41.069755], [-3.141061, 41.070165], [-3.141302, 41.070451], [-3.141426, 41.072466], [-3.14146, 41.073024], [-3.140923, 41.07346], [-3.140961, 41.073637], [-3.141307, 41.073431], [-3.141524, 41.073607], [-3.141824, 41.073749], [-3.1414, 41.07401], [-3.141049, 41.074193], [-3.141143, 41.074636], [-3.140933, 41.074914], [-3.140904, 41.07498], [-3.141038, 41.075128], [-3.140838, 41.075314], [-3.140685, 41.075721], [-3.140658, 41.07602], [-3.140578, 41.076486], [-3.140791, 41.076503], [-3.140929, 41.076166], [-3.141073, 41.07642], [-3.141554, 41.076424], [-3.1416, 41.076782], [-3.141114, 41.076892], [-3.14136, 41.0772], [-3.141347, 41.077703], [-3.141039, 41.077949], [-3.141287, 41.077984], [-3.141358, 41.078179], [-3.141118, 41.078461], [-3.140837, 41.078408], [-3.14058, 41.078328], [-3.140237, 41.078124], [-3.140188, 41.078185], [-3.140095, 41.078302], [-3.139928, 41.078506], [-3.140151, 41.078536], [-3.140268, 41.078552], [-3.140704, 41.07863], [-3.141658, 41.079163], [-3.141394, 41.079334], [-3.140996, 41.079296], [-3.140978, 41.079913], [-3.140404, 41.080035], [-3.140342, 41.079748], [-3.13951, 41.080064], [-3.139533, 41.080311], [-3.139084, 41.080598], [-3.138645, 41.080793], [-3.138053, 41.080827], [-3.137685, 41.080649], [-3.137414, 41.080503], [-3.136874, 41.080643], [-3.136456, 41.080653], [-3.135396, 41.080886], [-3.134973, 41.080874], [-3.13468, 41.080481], [-3.134289, 41.080761], [-3.134306, 41.080417], [-3.134068, 41.080426], [-3.134065, 41.080398], [-3.134013, 41.079887], [-3.133449, 41.080054], [-3.133813, 41.080421], [-3.133907, 41.080516], [-3.133997, 41.080936], [-3.133531, 41.080862], [-3.133235, 41.080742], [-3.132832, 41.080818], [-3.132899, 41.080503], [-3.132937, 41.080327], [-3.132649, 41.080526], [-3.132571, 41.08058], [-3.132467, 41.080543], [-3.132019, 41.080381], [-3.131739, 41.080608], [-3.131584, 41.080735], [-3.1324, 41.080762], [-3.13253, 41.08095], [-3.132898, 41.081128], [-3.133206, 41.081588], [-3.132763, 41.081624], [-3.132324, 41.08125], [-3.131982, 41.081478], [-3.131471, 41.081751], [-3.13081, 41.081748], [-3.130724, 41.081486], [-3.130374, 41.081533], [-3.130295, 41.081726], [-3.129816, 41.081585], [-3.129637, 41.081449], [-3.129268, 41.081408], [-3.129383, 41.08096], [-3.129071, 41.08085], [-3.128636, 41.080696], [-3.128767, 41.080877], [-3.128935, 41.081111], [-3.129156, 41.081445], [-3.128983, 41.081901], [-3.128705, 41.082006], [-3.128496, 41.082011], [-3.12851, 41.082214], [-3.127639, 41.083058], [-3.127949, 41.083244], [-3.128124, 41.083926], [-3.128302, 41.084198], [-3.128614, 41.08468], [-3.128115, 41.084587], [-3.127588, 41.084225], [-3.12739, 41.084001], [-3.127344, 41.084349], [-3.127214, 41.084867], [-3.127005, 41.085008], [-3.126916, 41.084451], [-3.12687, 41.084093], [-3.127096, 41.083745], [-3.126767, 41.08347], [-3.126799, 41.083762], [-3.126638, 41.083851], [-3.126461, 41.083443], [-3.126192, 41.083024], [-3.125927, 41.082763], [-3.125555, 41.082426], [-3.125265, 41.082192], [-3.124674, 41.082089], [-3.124253, 41.081804], [-3.123648, 41.081497], [-3.123309, 41.081315], [-3.122966, 41.081111], [-3.122525, 41.081056], [-3.122474, 41.081097], [-3.122451, 41.081088], [-3.121694, 41.081053], [-3.121126, 41.08106], [-3.120621, 41.080946], [-3.120204, 41.080819], [-3.119814, 41.080393], [-3.119641, 41.080143], [-3.119511, 41.079956], [-3.119648, 41.079756], [-3.119683, 41.079637], [-3.119881, 41.079156], [-3.120173, 41.078981], [-3.119337, 41.078432], [-3.119108, 41.078486], [-3.11901, 41.078726], [-3.118868, 41.078904], [-3.118693, 41.078791], [-3.118551, 41.078969], [-3.118152, 41.079068], [-3.117969, 41.07891], [-3.117869, 41.078582], [-3.118003, 41.078223], [-3.117768, 41.077823], [-3.117691, 41.077742], [-3.117297, 41.077726], [-3.116811, 41.077836], [-3.116674, 41.078037], [-3.116959, 41.078249], [-3.117025, 41.078422], [-3.117412, 41.078689], [-3.117086, 41.078846], [-3.117069, 41.07919], [-3.117512, 41.079017], [-3.117972, 41.079206], [-3.117805, 41.07941], [-3.117309, 41.079476], [-3.117235, 41.079691], [-3.117292, 41.079956], [-3.117372, 41.080332], [-3.117451, 41.080708], [-3.117536, 41.081107], [-3.117307, 41.081296], [-3.117397, 41.08158], [-3.117356, 41.081813], [-3.117258, 41.082054], [-3.117539, 41.082107], [-3.117402, 41.082307], [-3.117036, 41.082424], [-3.116952, 41.082731], [-3.116664, 41.082929], [-3.116445, 41.083026], [-3.116798, 41.083138], [-3.116715, 41.083309], [-3.116692, 41.083767], [-3.116621, 41.08414], [-3.116678, 41.084406], [-3.116745, 41.084476], [-3.116738, 41.084479], [-3.116953, 41.08471], [-3.113975, 41.086085], [-3.113891, 41.085687], [-3.114034, 41.085557], [-3.114067, 41.085527], [-3.11422, 41.085424], [-3.115373, 41.084898], [-3.115738, 41.084781], [-3.116143, 41.084568], [-3.116382, 41.084422], [-3.116242, 41.084191], [-3.11619, 41.084084], [-3.115872, 41.084286], [-3.115924, 41.083824], [-3.115682, 41.083674], [-3.115521, 41.0839], [-3.115572, 41.084144], [-3.11558, 41.084461], [-3.115447, 41.084683], [-3.115235, 41.084393], [-3.115123, 41.083862], [-3.115021, 41.083808], [-3.114594, 41.083773], [-3.114389, 41.083937], [-3.114054, 41.083914], [-3.113852, 41.083531], [-3.113683, 41.08344], [-3.11362, 41.083425], [-3.11352, 41.083803], [-3.113408, 41.08384], [-3.113072, 41.083953], [-3.113018, 41.08412], [-3.113107, 41.08454], [-3.113116, 41.084721], [-3.112702, 41.08489], [-3.112709, 41.085208], [-3.112803, 41.08565], [-3.112636, 41.085854], [-3.112554, 41.085888], [-3.112085, 41.085518], [-3.112326, 41.085099], [-3.112364, 41.084571], [-3.112009, 41.084596], [-3.111622, 41.085034], [-3.111422, 41.08522], [-3.110743, 41.085697], [-3.11026, 41.086103], [-3.110219, 41.086187], [-3.109933, 41.08626], [-3.10964, 41.086435], [-3.109954, 41.08678], [-3.109763, 41.08701], [-3.110136, 41.087074], [-3.110008, 41.087319], [-3.110307, 41.087598], [-3.110292, 41.087668], [-3.110098, 41.087739], [-3.110105, 41.088057], [-3.109979, 41.088028], [-3.109815, 41.087822], [-3.109524, 41.087861], [-3.109496, 41.087592], [-3.109498, 41.087319], [-3.109353, 41.087201], [-3.109216, 41.087402], [-3.109028, 41.087927], [-3.108817, 41.088206], [-3.108955, 41.088574], [-3.108688, 41.088587], [-3.108486, 41.088909], [-3.108581, 41.089215], [-3.108041, 41.089355], [-3.107924, 41.089507], [-3.108661, 41.089591], [-3.108401, 41.090058], [-3.108216, 41.090037], [-3.108169, 41.089816], [-3.107917, 41.089759], [-3.107713, 41.089786], [-3.107622, 41.090207], [-3.1073, 41.090523], [-3.107077, 41.091031], [-3.106885, 41.090692], [-3.106567, 41.09103], [-3.106749, 41.091461], [-3.106952, 41.092276], [-3.106799, 41.092683], [-3.10683, 41.092974], [-3.107512, 41.092793], [-3.107627, 41.09305], [-3.10783, 41.093179], [-3.107835, 41.093182], [-3.107885, 41.093562], [-3.108132, 41.093734], [-3.108179, 41.093955], [-3.107925, 41.094171], [-3.108079, 41.094332], [-3.108393, 41.094541], [-3.108319, 41.094755], [-3.108517, 41.094979], [-3.108224, 41.095155], [-3.108456, 41.095965], [-3.108322, 41.096324], [-3.108402, 41.0967], [-3.108413, 41.097313], [-3.108601, 41.097493], [-3.108846, 41.098507], [-3.108867, 41.098604], [-3.108931, 41.098905], [-3.108809, 41.099035], [-3.109055, 41.099207], [-3.109439, 41.099178], [-3.109508, 41.099062], [-3.10957, 41.099107], [-3.109704, 41.09887], [-3.109996, 41.098695], [-3.110312, 41.098767], [-3.110437, 41.098932], [-3.110047, 41.099075], [-3.110225, 41.099347], [-3.110117, 41.099497], [-3.110063, 41.099573], [-3.110226, 41.099915], [-3.110279, 41.099925], [-3.110444, 41.099955], [-3.110983, 41.099951], [-3.111352, 41.099993], [-3.111344, 41.100517], [-3.112084, 41.101033], [-3.112446, 41.102031], [-3.112323, 41.102298], [-3.111517, 41.102178], [-3.11154, 41.102288], [-3.112079, 41.102421], [-3.111932, 41.102577], [-3.111411, 41.102669], [-3.111318, 41.102949], [-3.111228, 41.103217], [-3.111118, 41.103687], [-3.111233, 41.103808], [-3.111563, 41.103946], [-3.111619, 41.104211], [-3.111767, 41.104192], [-3.112407, 41.104106], [-3.113416, 41.104336], [-3.113041, 41.104545], [-3.113272, 41.104787], [-3.113257, 41.105563], [-3.113122, 41.106058], [-3.11331, 41.106375], [-3.112939, 41.106606], [-3.112752, 41.106858], [-3.112782, 41.106999], [-3.112851, 41.107323], [-3.112897, 41.107317], [-3.113445, 41.107244], [-3.113905, 41.107342], [-3.114756, 41.107251], [-3.114767, 41.107247], [-3.115159, 41.107311], [-3.116615, 41.107527], [-3.116472, 41.107842], [-3.116045, 41.108513], [-3.115859, 41.108628], [-3.115877, 41.108854], [-3.115322, 41.109064], [-3.11533, 41.109381], [-3.115061, 41.109531], [-3.115395, 41.109691], [-3.115055, 41.109782], [-3.114661, 41.109766], [-3.114472, 41.109723], [-3.11408, 41.109434], [-3.113627, 41.109336], [-3.113168, 41.109237], [-3.112386, 41.109228], [-3.11169, 41.10948], [-3.111916, 41.1097], [-3.112587, 41.109747], [-3.112594, 41.110064], [-3.112203, 41.110344], [-3.111978, 41.110556], [-3.111474, 41.110441], [-3.111856, 41.110686], [-3.112049, 41.110888], [-3.111667, 41.111348], [-3.110914, 41.111334], [-3.110248, 41.111309], [-3.109631, 41.111369], [-3.109305, 41.111389], [-3.109386, 41.111629], [-3.109359, 41.112065], [-3.109673, 41.112273], [-3.109356, 41.112475], [-3.109073, 41.112558], [-3.109165, 41.112705], [-3.10948, 41.112777], [-3.109133, 41.113119], [-3.10899, 41.113297], [-3.109036, 41.113791], [-3.109489, 41.113839], [-3.109573, 41.114061], [-3.109965, 41.11435], [-3.110216, 41.114544], [-3.110734, 41.114862], [-3.110818, 41.11526], [-3.110648, 41.115305], [-3.110484, 41.1151], [-3.110308, 41.11526], [-3.110487, 41.115395], [-3.110622, 41.115605], [-3.11045, 41.115787], [-3.110619, 41.116014], [-3.110887, 41.115865], [-3.111049, 41.115639], [-3.111815, 41.115855], [-3.111738, 41.11648], [-3.111992, 41.116969], [-3.111844, 41.117262], [-3.111994, 41.117401], [-3.112156, 41.11788], [-3.112607, 41.118024], [-3.112662, 41.118563], [-3.112442, 41.118661], [-3.112137, 41.118497], [-3.111845, 41.118535], [-3.112003, 41.118856], [-3.111667, 41.118969], [-3.111713, 41.119463], [-3.111436, 41.119432], [-3.111565, 41.119756], [-3.11149, 41.11997], [-3.111776, 41.120888], [-3.111328, 41.120902], [-3.111424, 41.121071], [-3.111803, 41.121157], [-3.11179, 41.121659], [-3.111662, 41.121904], [-3.111908, 41.122076], [-3.111522, 41.122377], [-3.111526, 41.122536], [-3.111537, 41.123012], [-3.111357, 41.123013], [-3.111198, 41.12283], [-3.110975, 41.123474], [-3.110499, 41.124197], [-3.110776, 41.124228], [-3.110978, 41.124474], [-3.111373, 41.124658], [-3.111511, 41.124722], [-3.111378, 41.124944], [-3.111247, 41.124987], [-3.110453, 41.12525], [-3.109976, 41.125267], [-3.110231, 41.12562], [-3.110666, 41.125972], [-3.109873, 41.126191], [-3.109085, 41.12757], [-3.108517, 41.127577], [-3.109056, 41.128279], [-3.109232, 41.128824], [-3.109298, 41.129134], [-3.109613, 41.129206], [-3.109835, 41.129147], [-3.109867, 41.129234], [-3.109827, 41.129928], [-3.109461, 41.130181], [-3.109692, 41.130424], [-3.109877, 41.130444], [-3.109636, 41.130863], [-3.109628, 41.131251], [-3.109572, 41.131691], [-3.10975, 41.131963], [-3.109365, 41.132128], [-3.109693, 41.132402], [-3.110177, 41.132702], [-3.110335, 41.132454], [-3.110546, 41.132175], [-3.110837, 41.131922], [-3.111103, 41.131692], [-3.11145, 41.131486], [-3.11171, 41.131725], [-3.111762, 41.131968], [-3.111369, 41.132657], [-3.111341, 41.133319], [-3.111339, 41.133366], [-3.111475, 41.13369], [-3.111827, 41.13453], [-3.112257, 41.134996], [-3.112616, 41.135699], [-3.113189, 41.13585], [-3.113582, 41.136571], [-3.114649, 41.137634], [-3.115964, 41.138733], [-3.115696, 41.138883], [-3.115326, 41.138978], [-3.115152, 41.139433], [-3.11466, 41.139658], [-3.114454, 41.139958], [-3.114746, 41.139919], [-3.114816, 41.140251], [-3.115245, 41.140148], [-3.115467, 41.140346], [-3.115591, 41.140648], [-3.116012, 41.140933], [-3.116262, 41.140695], [-3.116919, 41.141245], [-3.117227, 41.141704], [-3.116968, 41.141898], [-3.117044, 41.142252], [-3.117678, 41.141986], [-3.118643, 41.142994], [-3.11852, 41.143261], [-3.118724, 41.143234], [-3.119138, 41.143065], [-3.119434, 41.143185], [-3.119428, 41.143436], [-3.119382, 41.143647], [-3.11935, 41.143649], [-3.119445, 41.143798], [-3.119423, 41.144119], [-3.119796, 41.144319], [-3.120245, 41.144737], [-3.120708, 41.145358], [-3.121247, 41.145355], [-3.121259, 41.145126], [-3.121662, 41.145186], [-3.121966, 41.145486], [-3.122088, 41.145493], [-3.122342, 41.145277], [-3.122417, 41.145631], [-3.122713, 41.145751], [-3.12306, 41.146251], [-3.123327, 41.146238], [-3.12358, 41.146295], [-3.123793, 41.146312], [-3.124127, 41.146609], [-3.124281, 41.14677], [-3.124622, 41.146816], [-3.125079, 41.147415], [-3.124927, 41.147992], [-3.12483, 41.148358], [-3.125182, 41.148038], [-3.12546, 41.147933], [-3.125873, 41.148037], [-3.126027, 41.147493], [-3.126031, 41.147482], [-3.128952, 41.146134], [-3.135696, 41.1486], [-3.141505, 41.155004], [-3.143944, 41.163653], [-3.136535, 41.166249], [-3.13618, 41.170297], [-3.128525, 41.174682], [-3.121407, 41.177424], [-3.116865, 41.178108], [-3.111111, 41.181935], [-3.089742, 41.191505], [-3.084823, 41.199025], [-3.085491, 41.202164], [-3.085629, 41.209773], [-3.081147, 41.212386], [-3.072006, 41.212304], [-3.065905, 41.215977], [-3.053637, 41.219621], [-3.044715, 41.22062], [-3.044315, 41.221075], [-3.043707, 41.22161], [-3.042936, 41.22194], [-3.042613, 41.222119], [-3.041523, 41.222081], [-3.040444, 41.221814], [-3.039717, 41.221501], [-3.039225, 41.220884], [-3.038622, 41.220873], [-3.037087, 41.220439], [-3.035854, 41.22001], [-3.035077, 41.219749], [-3.033725, 41.219609], [-3.033201, 41.219406], [-3.032682, 41.219793], [-3.030986, 41.220017], [-3.030402, 41.220094], [-3.02963, 41.220423], [-3.024789, 41.221973], [-3.022593, 41.222672], [-3.022397, 41.22288], [-3.022542, 41.224134], [-3.022545, 41.224998], [-3.022227, 41.225768], [-3.022675, 41.227028], [-3.021938, 41.227807], [-3.020125, 41.228047], [-3.019033, 41.228282], [-3.018244, 41.22825], [-3.017257, 41.228698], [-3.016205, 41.228837], [-3.016397, 41.229176], [-3.017534, 41.229435], [-3.016247, 41.229605], [-3.015468, 41.229617], [-3.015073, 41.229168], [-3.013529, 41.22869], [-3.013334, 41.228625], [-3.01296, 41.229129], [-3.013276, 41.229769], [-3.012769, 41.229927], [-3.012404, 41.229339], [-3.011781, 41.229239], [-3.011746, 41.229926], [-3.011227, 41.230313], [-3.010408, 41.230421], [-3.009812, 41.230727], [-3.009019, 41.231241], [-3.007613, 41.231699], [-3.0058, 41.231938], [-3.006156, 41.231345], [-3.006778, 41.231445], [-3.007491, 41.231124], [-3.006684, 41.231003], [-3.006817, 41.230212], [-3.007508, 41.230348], [-3.008025, 41.230235], [-3.008446, 41.229952], [-3.008347, 41.228919], [-3.008167, 41.228351], [-3.007437, 41.228311], [-3.007086, 41.228357], [-3.006696, 41.2285], [-3.006153, 41.228207], [-3.00586, 41.228246], [-3.005547, 41.228469], [-3.003406, 41.228297], [-3.003362, 41.227802], [-3.002639, 41.228079], [-3.00233, 41.228893], [-3.001629, 41.228986], [-3.001683, 41.229524], [-3.001292, 41.229667], [-3.001662, 41.230846], [-3.00111, 41.23051], [-3.000216, 41.230264], [-2.999926, 41.230029], [-2.999783, 41.229638], [-2.99924, 41.229346], [-2.998548, 41.229483], [-2.998136, 41.22981], [-2.998522, 41.230214], [-2.998911, 41.230345], [-2.999736, 41.230554], [-2.999804, 41.230591], [-2.998483, 41.231447], [-2.998363, 41.231736], [-2.997942, 41.232019], [-2.997762, 41.232588], [-2.997364, 41.232413], [-2.997317, 41.231055], [-2.996527, 41.231296], [-2.996021, 41.23118], [-2.994695, 41.231446], [-2.995221, 41.232514], [-2.997002, 41.232688], [-2.996403, 41.233268], [-2.995612, 41.233508], [-2.994786, 41.233299], [-2.993881, 41.233282], [-2.99316, 41.233285], [-2.992938, 41.233087], [-2.992922, 41.233017], [-2.992501, 41.233009], [-2.992227, 41.233136], [-2.99167, 41.233345], [-2.991984, 41.234259], [-2.991469, 41.2341], [-2.990627, 41.233528], [-2.990353, 41.233655], [-2.989595, 41.233482], [-2.989501, 41.234177], [-2.990486, 41.234002], [-2.990533, 41.23536], [-2.991116, 41.235556], [-2.991998, 41.236031], [-2.991661, 41.236712], [-2.991041, 41.236339], [-2.990957, 41.235941], [-2.990035, 41.235562], [-2.989658, 41.235202], [-2.989031, 41.234512], [-2.988378, 41.234552], [-2.988626, 41.235156], [-2.987475, 41.235399], [-2.987698, 41.235597], [-2.989108, 41.235729], [-2.989076, 41.236143], [-2.988285, 41.236384], [-2.987726, 41.236867], [-2.985997, 41.237504], [-2.986918, 41.236746], [-2.986093, 41.236536], [-2.986661, 41.236097], [-2.985753, 41.236353], [-2.984808, 41.236432], [-2.98358, 41.236594], [-2.983278, 41.236588], [-2.982487, 41.235691], [-2.98212, 41.235376], [-2.981856, 41.235547], [-2.981849, 41.236367], [-2.982291, 41.237036], [-2.982405, 41.237294], [-2.982665, 41.237669], [-2.98347, 41.238064], [-2.982822, 41.238695], [-2.981472, 41.238281], [-2.980814, 41.237731], [-2.980178, 41.236996], [-2.979574, 41.236984], [-2.979287, 41.236476], [-2.979991, 41.236111], [-2.98041, 41.236101], [-2.980953, 41.236394], [-2.981297, 41.23603], [-2.981329, 41.235616], [-2.981341, 41.235387], [-2.980663, 41.235022], [-2.981056, 41.234606], [-2.981702, 41.234248], [-2.982226, 41.234452], [-2.983045, 41.234345], [-2.984107, 41.23425], [-2.985548, 41.234242], [-2.985152, 41.233794], [-2.984392, 41.233894], [-2.98348, 41.23356], [-2.98199, 41.233619], [-2.98085, 41.233633], [-2.980059, 41.233873], [-2.979142, 41.234085], [-2.979248, 41.234298], [-2.978583, 41.234568], [-2.978225, 41.234296], [-2.977144, 41.234302], [-2.97667, 41.234046], [-2.976195, 41.23379], [-2.975797, 41.233615], [-2.974382, 41.232892], [-2.973781, 41.232607], [-2.973196, 41.232684], [-2.972712, 41.232384], [-2.972588, 41.232082], [-2.972022, 41.232247], [-2.971745, 41.232647], [-2.971137, 41.233182], [-2.971886, 41.233311], [-2.972529, 41.233226], [-2.973558, 41.233546], [-2.974452, 41.233792], [-2.975364, 41.234127], [-2.975909, 41.234146], [-2.975439, 41.234481], [-2.974622, 41.234316], [-2.97368, 41.234121], [-2.973085, 41.234154], [-2.973315, 41.23467], [-2.974115, 41.234473], [-2.975521, 41.235153], [-2.976791, 41.235759], [-2.977244, 41.236199], [-2.977502, 41.236848], [-2.976641, 41.237325], [-2.975838, 41.237794], [-2.975529, 41.237471], [-2.975894, 41.236923], [-2.974748, 41.236619], [-2.974792, 41.237113], [-2.973541, 41.236596], [-2.972589, 41.236357], [-2.972062, 41.236426], [-2.971382, 41.236334], [-2.970694, 41.235924], [-2.970647, 41.235703], [-2.971574, 41.235535], [-2.970954, 41.235162], [-2.970205, 41.235033], [-2.968881, 41.235025], [-2.968247, 41.235154], [-2.96792, 41.234742], [-2.968409, 41.234496], [-2.968938, 41.234154], [-2.969221, 41.234071], [-2.970973, 41.234113], [-2.970559, 41.233576], [-2.970033, 41.233646], [-2.969696, 41.23319], [-2.969153, 41.232897], [-2.969306, 41.232195], [-2.968945, 41.232197], [-2.968939, 41.231879], [-2.968599, 41.231697], [-2.968333, 41.231004], [-2.96663, 41.230909], [-2.964843, 41.230417], [-2.964221, 41.230316], [-2.963391, 41.229516], [-2.962214, 41.229352], [-2.962132, 41.229818], [-2.963519, 41.230409], [-2.963856, 41.230865], [-2.963317, 41.231163], [-2.963011, 41.231703], [-2.962428, 41.231507], [-2.961797, 41.231363], [-2.961128, 41.231041], [-2.960489, 41.230579], [-2.959608, 41.230104], [-2.958717, 41.229584], [-2.958909, 41.228786], [-2.959075, 41.228718], [-2.959655, 41.229188], [-2.960256, 41.229473], [-2.960794, 41.229175], [-2.960998, 41.229284], [-2.961454, 41.229452], [-2.961459, 41.228906], [-2.960916, 41.228613], [-2.960481, 41.228261], [-2.959705, 41.227999], [-2.958872, 41.227472], [-2.957951, 41.227092], [-2.956922, 41.226773], [-2.957533, 41.225965], [-2.957882, 41.225055], [-2.958716, 41.222171], [-2.960213, 41.222429], [-2.961186, 41.222483], [-2.961916, 41.222524], [-2.962882, 41.22226], [-2.962789, 41.221818], [-2.963453, 41.221548], [-2.963828, 41.221044], [-2.963938, 41.220711], [-2.963531, 41.220492], [-2.964177, 41.220134], [-2.964607, 41.219896], [-2.964631, 41.219438], [-2.965505, 41.219596], [-2.966984, 41.219765], [-2.966794, 41.22029], [-2.96754, 41.220693], [-2.967942, 41.220321], [-2.968473, 41.219706], [-2.967611, 41.219319], [-2.966776, 41.219065], [-2.96588, 41.219092], [-2.964814, 41.218595], [-2.96527, 41.217625], [-2.965186, 41.217227], [-2.965745, 41.216744], [-2.96597, 41.216669], [-2.967118, 41.2167], [-2.967364, 41.21644], [-2.967647, 41.216358], [-2.967731, 41.216756], [-2.968414, 41.216575], [-2.968821, 41.216795], [-2.967962, 41.216999], [-2.968428, 41.21721], [-2.969263, 41.217464], [-2.969333, 41.217228], [-2.969801, 41.217166], [-2.970444, 41.217082], [-2.970514, 41.216845], [-2.970982, 41.216783], [-2.97149, 41.216517], [-2.971794, 41.216358], [-2.972519, 41.215808], [-2.972023, 41.215737], [-2.971041, 41.215639], [-2.970669, 41.215869], [-2.9705, 41.21621], [-2.969771, 41.216169], [-2.969804, 41.215756], [-2.970594, 41.215515], [-2.970938, 41.215152], [-2.970592, 41.214651], [-2.969453, 41.214665], [-2.969147, 41.214068], [-2.969075, 41.213441], [-2.968271, 41.213047], [-2.967427, 41.212748], [-2.96706, 41.212433], [-2.967102, 41.212063], [-2.967436, 41.211655], [-2.967617, 41.211086], [-2.966632, 41.211261], [-2.96598, 41.211301], [-2.965774, 41.211465], [-2.965365, 41.211518], [-2.964939, 41.21121], [-2.964845, 41.211905], [-2.964399, 41.211782], [-2.963999, 41.21188], [-2.963749, 41.211549], [-2.962766, 41.211451], [-2.962215, 41.211114], [-2.961925, 41.210879], [-2.961558, 41.210563], [-2.960071, 41.210349], [-2.959245, 41.21014], [-2.958722, 41.209936], [-2.958434, 41.209427], [-2.958009, 41.20912], [-2.957583, 41.208812], [-2.95736, 41.208592], [-2.957647, 41.208257], [-2.958087, 41.208063], [-2.958683, 41.207757], [-2.958695, 41.207528], [-2.9583, 41.20708], [-2.958265, 41.20663], [-2.958712, 41.206753], [-2.958946, 41.206722], [-2.959367, 41.20644], [-2.95943, 41.205885], [-2.959954, 41.206089], [-2.960129, 41.206066], [-2.960351, 41.206265], [-2.961065, 41.205943], [-2.961488, 41.206525], [-2.9616, 41.207056], [-2.961015, 41.207133], [-2.961136, 41.207708], [-2.96126, 41.20801], [-2.960719, 41.208581], [-2.960815, 41.208751], [-2.961501, 41.208297], [-2.962331, 41.20796], [-2.963357, 41.208553], [-2.963748, 41.208411], [-2.965167, 41.208588], [-2.96606, 41.208834], [-2.96646, 41.208736], [-2.966519, 41.208729], [-2.96748, 41.209012], [-2.966649, 41.209348], [-2.965499, 41.20959], [-2.965466, 41.210004], [-2.965938, 41.210533], [-2.966735, 41.21061], [-2.967699, 41.21062], [-2.96815, 41.210197], [-2.968377, 41.209849], [-2.968364, 41.209214], [-2.968289, 41.20886], [-2.968116, 41.20861], [-2.968479, 41.208334], [-2.968493, 41.207832], [-2.968168, 41.207147], [-2.968091, 41.207066], [-2.967602, 41.207313], [-2.966971, 41.207168], [-2.967472, 41.206693], [-2.967388, 41.206295], [-2.966611, 41.206033], [-2.96598, 41.205889], [-2.965213, 41.205671], [-2.963824, 41.205353], [-2.963878, 41.204755], [-2.963254, 41.204928], [-2.963191, 41.205482], [-2.962756, 41.20513], [-2.962515, 41.204843], [-2.961867, 41.205474], [-2.961748, 41.204626], [-2.963065, 41.204316], [-2.962845, 41.203845], [-2.962207, 41.203383], [-2.961391, 41.203217], [-2.961027, 41.202628], [-2.961214, 41.202376], [-2.960997, 41.201632], [-2.960289, 41.201406], [-2.959555, 41.200775], [-2.958847, 41.20055], [-2.958136, 41.200598], [-2.95761, 41.200667], [-2.95734, 41.201384], [-2.957132, 41.201821], [-2.957985, 41.202164], [-2.958434, 41.202014], [-2.958944, 41.20272], [-2.957999, 41.202799], [-2.957807, 41.20246], [-2.956591, 41.202393], [-2.956393, 41.201736], [-2.956115, 41.201273], [-2.955608, 41.20143], [-2.955362, 41.20169], [-2.954294, 41.201466], [-2.953943, 41.201512], [-2.953908, 41.201062], [-2.953043, 41.200948], [-2.953011, 41.200225], [-2.953013, 41.199952], [-2.952548, 41.19974], [-2.952551, 41.199467], [-2.951756, 41.199116], [-2.951663, 41.198674], [-2.950515, 41.198643], [-2.949767, 41.198513], [-2.949935, 41.19931], [-2.949343, 41.199069], [-2.949011, 41.199204], [-2.948976, 41.199891], [-2.949967, 41.200034], [-2.950141, 41.201148], [-2.949664, 41.201165], [-2.949208, 41.200997], [-2.94875, 41.201103], [-2.947569, 41.201485], [-2.947204, 41.202034], [-2.946012, 41.201508], [-2.945803, 41.201945], [-2.946546, 41.20262], [-2.946461, 41.203359], [-2.946043, 41.203369], [-2.94544, 41.203357], [-2.945133, 41.203897], [-2.945598, 41.204109], [-2.946127, 41.203767], [-2.94683, 41.204539], [-2.946166, 41.204808], [-2.945805, 41.205947], [-2.945063, 41.206135], [-2.944378, 41.206589], [-2.94406, 41.206221], [-2.942366, 41.207308], [-2.941383, 41.208347], [-2.940222, 41.209681], [-2.940056, 41.209749], [-2.939861, 41.21082], [-2.939994, 41.211167], [-2.940318, 41.211852], [-2.940414, 41.212021], [-2.940205, 41.212458], [-2.941171, 41.212195], [-2.94144, 41.212614], [-2.941936, 41.212686], [-2.942312, 41.213046], [-2.942103, 41.213482], [-2.942217, 41.214877], [-2.941482, 41.215383], [-2.941042, 41.215577], [-2.940892, 41.216006], [-2.940786, 41.21693], [-2.94047, 41.217426], [-2.941302, 41.217954], [-2.940069, 41.218661], [-2.940943, 41.218819], [-2.941139, 41.218711], [-2.941395, 41.218396], [-2.941881, 41.218423], [-2.941881, 41.218488], [-2.942242, 41.218421], [-2.942452, 41.218849], [-2.942797, 41.219349], [-2.942947, 41.220057], [-2.943002, 41.220458], [-2.942593, 41.220484], [-2.942415, 41.220673], [-2.942167, 41.221206], [-2.942066, 41.221583], [-2.941537, 41.221925], [-2.94146, 41.221844], [-2.940709, 41.221988], [-2.940143, 41.222153], [-2.93982, 41.222332], [-2.940023, 41.222442], [-2.940304, 41.222633], [-2.93988, 41.223188], [-2.93948, 41.223286], [-2.938797, 41.223467], [-2.939145, 41.223694], [-2.939533, 41.223825], [-2.939331, 41.224579], [-2.938898, 41.225091], [-2.938486, 41.225418], [-2.938098, 41.225287], [-2.937682, 41.225023], [-2.937327, 41.224478], [-2.937262, 41.224169], [-2.937089, 41.223918], [-2.935596, 41.224251], [-2.935138, 41.224356], [-2.934805, 41.224491], [-2.934726, 41.224683], [-2.93434, 41.224279], [-2.933404, 41.224402], [-2.932761, 41.224486], [-2.932284, 41.224503], [-2.93234, 41.224769], [-2.931074, 41.224753], [-2.930566, 41.22491], [-2.929853, 41.225231], [-2.929209, 41.225315], [-2.928961, 41.225848], [-2.928724, 41.225707], [-2.92857, 41.22599]]]}}]}