{"type": "FeatureCollection", "name": "NAVALUENGA", "features": [{"type": "Feature", "properties": {"id": "562592", "FIREDATE": "2026-07-22T13:36:00", "FINALDATE": "2026-07-27T03:49:00", "LASTUPDATE": "2026-07-23 07:55:54.878692", "COUNTRY": "ES", "PROVINCE": "Ávila", "COMMUNE": "Navaluenga", "AREA_HA": 46139.0, "BROADLEA": 4.5233, "CONIFER": 19.5019, "MIXED": 27.8051, "SCLEROPH": 20.4252, "TRANSIT": 5.0478, "OTHERNATLC": 9.9785, "AGRIAREAS": 11.1272, "ARTIFSURF": 1.2484, "OTHERLC": 0.3424, "PERCNA2K": 74.3822, "CLASS": "7DAYS", "AÑO": 2026, "LATITUD": 40.36593771814474, "LONGITUD": -4.604714232501654}, "geometry": {"type": "Polygon", "coordinates": [[[-4.734619, 40.404943], [-4.731386, 40.405547], [-4.729508, 40.406246], [-4.728952, 40.406107], [-4.727729, 40.405759], [-4.726422, 40.405349], [-4.725255, 40.404953], [-4.725507, 40.403507], [-4.725265, 40.402797], [-4.724002, 40.402529], [-4.724103, 40.401365], [-4.722998, 40.40113], [-4.723257, 40.399999], [-4.722719, 40.399621], [-4.721771, 40.39942], [-4.721589, 40.398643], [-4.720497, 40.398464], [-4.719926, 40.397631], [-4.719586, 40.396821], [-4.717874, 40.397195], [-4.718326, 40.39816], [-4.718278, 40.398914], [-4.717994, 40.399302], [-4.718993, 40.399725], [-4.720158, 40.399894], [-4.719958, 40.400958], [-4.718838, 40.401299], [-4.717139, 40.401729], [-4.717122, 40.402684], [-4.715535, 40.403522], [-4.714143, 40.404938], [-4.711515, 40.405565], [-4.712473, 40.404214], [-4.711236, 40.404057], [-4.709941, 40.403333], [-4.708451, 40.402434], [-4.707433, 40.402661], [-4.706348, 40.402958], [-4.705209, 40.403322], [-4.704813, 40.403465], [-4.704485, 40.403411], [-4.703526, 40.402522], [-4.702815, 40.402687], [-4.701136, 40.402883], [-4.700575, 40.40337], [-4.699279, 40.403278], [-4.697652, 40.403696], [-4.696512, 40.40427], [-4.695489, 40.405344], [-4.692149, 40.406135], [-4.691934, 40.40655], [-4.691633, 40.407132], [-4.690368, 40.407495], [-4.688249, 40.407412], [-4.687287, 40.407787], [-4.687673, 40.406236], [-4.688592, 40.404682], [-4.689016, 40.403966], [-4.68923, 40.402957], [-4.690047, 40.402604], [-4.69071, 40.400953], [-4.692132, 40.400624], [-4.694015, 40.40034], [-4.695806, 40.400299], [-4.696117, 40.399391], [-4.69455, 40.399742], [-4.694017, 40.399708], [-4.693527, 40.398575], [-4.694234, 40.397435], [-4.695218, 40.396195], [-4.695494, 40.394964], [-4.696214, 40.394618], [-4.697222, 40.394163], [-4.698089, 40.393792], [-4.698814, 40.393506], [-4.698648, 40.392635], [-4.697589, 40.391179], [-4.697812, 40.390112], [-4.699316, 40.389435], [-4.700999, 40.388638], [-4.70286, 40.387721], [-4.703956, 40.38718], [-4.704288, 40.387017], [-4.705212, 40.385996], [-4.706728, 40.384119], [-4.707376, 40.382709], [-4.707155, 40.381768], [-4.706244, 40.380594], [-4.704642, 40.379188], [-4.703367, 40.377919], [-4.702417, 40.376788], [-4.699888, 40.375596], [-4.695779, 40.374343], [-4.693086, 40.373701], [-4.691807, 40.373669], [-4.69019, 40.3747], [-4.688235, 40.376794], [-4.686085, 40.378055], [-4.68374, 40.378484], [-4.680612, 40.37933], [-4.676702, 40.380594], [-4.673517, 40.381824], [-4.671058, 40.383019], [-4.668973, 40.38534], [-4.667262, 40.388787], [-4.666224, 40.390673], [-4.66586, 40.390998], [-4.665521, 40.391332], [-4.665208, 40.391675], [-4.664926, 40.392022], [-4.664675, 40.392373], [-4.664454, 40.392729], [-4.664264, 40.393089], [-4.664061, 40.393463], [-4.663846, 40.393851], [-4.663617, 40.394252], [-4.663375, 40.394667], [-4.66312, 40.395095], [-4.662852, 40.395537], [-4.662571, 40.395993], [-4.662277, 40.396463], [-4.66197, 40.396947], [-4.661649, 40.397444], [-4.661316, 40.397954], [-4.66097, 40.398479], [-4.660611, 40.399017], [-4.660239, 40.399569], [-4.659853, 40.400135], [-4.659455, 40.400714], [-4.659074, 40.401261], [-4.65871, 40.401777], [-4.658363, 40.402262], [-4.658034, 40.402714], [-4.657722, 40.403135], [-4.657427, 40.403525], [-4.657149, 40.403882], [-4.656888, 40.404208], [-4.65676, 40.404559], [-4.656766, 40.404935], [-4.656905, 40.405336], [-4.657177, 40.405761], [-4.657582, 40.406212], [-4.658121, 40.406688], [-4.658792, 40.407188], [-4.659597, 40.407713], [-4.660379, 40.408295], [-4.661137, 40.408932], [-4.661871, 40.409625], [-4.662582, 40.410374], [-4.66327, 40.411179], [-4.663934, 40.41204], [-4.664419, 40.412711], [-4.664724, 40.413192], [-4.664862, 40.413586], [-4.664831, 40.413894], [-4.66401, 40.414993], [-4.662398, 40.416885], [-4.661596, 40.419104], [-4.661604, 40.42165], [-4.662231, 40.424059], [-4.663477, 40.42633], [-4.66416, 40.427576], [-4.664281, 40.427797], [-4.664472, 40.428675], [-4.664734, 40.430209], [-4.664051, 40.431473], [-4.662424, 40.432468], [-4.660126, 40.433525], [-4.657158, 40.434647], [-4.655509, 40.435196], [-4.655181, 40.435175], [-4.653789, 40.435085], [-4.651334, 40.434925], [-4.6495, 40.435387], [-4.648284, 40.436469], [-4.647005, 40.437485], [-4.645661, 40.438437], [-4.644817, 40.439057], [-4.644474, 40.439347], [-4.643024, 40.439553], [-4.640467, 40.439676], [-4.637362, 40.441197], [-4.633709, 40.444116], [-4.630839, 40.44596], [-4.628751, 40.44673], [-4.626984, 40.447087], [-4.625539, 40.44703], [-4.624608, 40.446622], [-4.624192, 40.445862], [-4.623623, 40.443938], [-4.622902, 40.440849], [-4.621909, 40.438897], [-4.620645, 40.438082], [-4.618094, 40.438145], [-4.614256, 40.439086], [-4.611451, 40.439615], [-4.609679, 40.439731], [-4.607893, 40.439848], [-4.606093, 40.439966], [-4.605176, 40.440026], [-4.605143, 40.440028], [-4.605074, 40.440111], [-4.604969, 40.440275], [-4.604617, 40.440742], [-4.604018, 40.441514], [-4.603315, 40.4422], [-4.602508, 40.442801], [-4.601598, 40.443315], [-4.600584, 40.443744], [-4.599467, 40.444088], [-4.598246, 40.444345], [-4.596922, 40.444517], [-4.595494, 40.444603], [-4.594066, 40.444599], [-4.592638, 40.444503], [-4.59121, 40.444318], [-4.589781, 40.444042], [-4.588352, 40.443675], [-4.586923, 40.443218], [-4.585494, 40.44267], [-4.584065, 40.442031], [-4.582766, 40.441416], [-4.581598, 40.440824], [-4.580561, 40.440254], [-4.579654, 40.439708], [-4.578952, 40.439242], [-4.578455, 40.438857], [-4.576925, 40.43876], [-4.574361, 40.438949], [-4.572189, 40.438811], [-4.570411, 40.438347], [-4.568925, 40.436834], [-4.567733, 40.434272], [-4.567317, 40.431457], [-4.567677, 40.428389], [-4.568555, 40.426522], [-4.569951, 40.425857], [-4.571657, 40.425558], [-4.573672, 40.425627], [-4.5774, 40.425754], [-4.58284, 40.42594], [-4.58744, 40.426162], [-4.591198, 40.426421], [-4.594749, 40.427579], [-4.598091, 40.429636], [-4.602501, 40.430893], [-4.607977, 40.431351], [-4.611845, 40.430542], [-4.614105, 40.428467], [-4.615468, 40.426893], [-4.615933, 40.425818], [-4.618261, 40.425058], [-4.622452, 40.424611], [-4.625654, 40.423765], [-4.627869, 40.422519], [-4.627834, 40.420834], [-4.625548, 40.418711], [-4.623589, 40.417727], [-4.621955, 40.417881], [-4.617457, 40.419058], [-4.610097, 40.421259], [-4.601479, 40.422414], [-4.591603, 40.422524], [-4.5857, 40.421764], [-4.58377, 40.420135], [-4.581749, 40.418885], [-4.579638, 40.418013], [-4.578535, 40.417631], [-4.57844, 40.417736], [-4.57692, 40.418793], [-4.574117, 40.420705], [-4.574056, 40.420665], [-4.572258, 40.420187], [-4.570379, 40.420061], [-4.570426, 40.419887], [-4.570744, 40.418031], [-4.571627, 40.417956], [-4.571731, 40.417596], [-4.571169, 40.417278], [-4.570328, 40.416887], [-4.56922, 40.415991], [-4.569282, 40.414804], [-4.570376, 40.413866], [-4.5712, 40.413541], [-4.570817, 40.412536], [-4.569895, 40.411957], [-4.569624, 40.407892], [-4.568758, 40.408682], [-4.568047, 40.410137], [-4.567204, 40.412962], [-4.567371, 40.414487], [-4.565304, 40.417208], [-4.564651, 40.417622], [-4.56425, 40.418801], [-4.562683, 40.418835], [-4.561825, 40.419336], [-4.561981, 40.419787], [-4.562166, 40.420319], [-4.560293, 40.420972], [-4.559028, 40.421821], [-4.558793, 40.422746], [-4.557027, 40.423699], [-4.554339, 40.424072], [-4.552361, 40.424109], [-4.551191, 40.423107], [-4.551689, 40.422143], [-4.551786, 40.421956], [-4.550918, 40.42177], [-4.549522, 40.421892], [-4.547965, 40.421809], [-4.546539, 40.421965], [-4.545268, 40.421982], [-4.544575, 40.421741], [-4.543974, 40.422061], [-4.543473, 40.421676], [-4.543148, 40.421409], [-4.542267, 40.421971], [-4.542043, 40.422379], [-4.541892, 40.422458], [-4.541211, 40.423076], [-4.539702, 40.423359], [-4.537075, 40.423349], [-4.534896, 40.423377], [-4.534758, 40.423379], [-4.533367, 40.423041], [-4.532489, 40.422971], [-4.53167, 40.423882], [-4.530937, 40.423996], [-4.530831, 40.423907], [-4.529803, 40.423515], [-4.52936, 40.422089], [-4.528142, 40.422012], [-4.526748, 40.422306], [-4.526444, 40.42439], [-4.525815, 40.423938], [-4.524113, 40.423388], [-4.523656, 40.423198], [-4.520822, 40.423103], [-4.518757, 40.423411], [-4.51822, 40.42352], [-4.517419, 40.424271], [-4.517006, 40.425079], [-4.516679, 40.425931], [-4.516558, 40.426026], [-4.515948, 40.4265], [-4.514492, 40.4262], [-4.514227, 40.425866], [-4.512521, 40.42546], [-4.512166, 40.42455], [-4.512151, 40.424511], [-4.511945, 40.424463], [-4.511398, 40.424336], [-4.510657, 40.424532], [-4.509921, 40.424269], [-4.508671, 40.424053], [-4.507942, 40.423817], [-4.508329, 40.423386], [-4.507819, 40.422802], [-4.506181, 40.421553], [-4.505372, 40.420812], [-4.505879, 40.420249], [-4.506825, 40.419965], [-4.506507, 40.419237], [-4.506828, 40.418357], [-4.507427, 40.418311], [-4.508006, 40.418267], [-4.508752, 40.417926], [-4.508604, 40.417288], [-4.507905, 40.416531], [-4.507771, 40.416536], [-4.508139, 40.414861], [-4.50781, 40.413256], [-4.506724, 40.411998], [-4.505942, 40.411049], [-4.505463, 40.41041], [-4.504417, 40.410186], [-4.502806, 40.410375], [-4.500921, 40.41096], [-4.498764, 40.41194], [-4.497411, 40.412674], [-4.496861, 40.413162], [-4.496218, 40.413816], [-4.49548, 40.414636], [-4.494624, 40.414941], [-4.493648, 40.414731], [-4.492806, 40.414957], [-4.492099, 40.415621], [-4.492476, 40.41668], [-4.493939, 40.418136], [-4.49477, 40.419295], [-4.494969, 40.420156], [-4.495167, 40.421014], [-4.495365, 40.421869], [-4.494124, 40.422926], [-4.491445, 40.424184], [-4.489967, 40.424961], [-4.489692, 40.425259], [-4.489126, 40.425961], [-4.48827, 40.427069], [-4.48734, 40.428134], [-4.486338, 40.429156], [-4.485264, 40.430136], [-4.484117, 40.431074], [-4.482898, 40.431969], [-4.481606, 40.432821], [-4.480684, 40.433395], [-4.480132, 40.43369], [-4.479713, 40.434369], [-4.479426, 40.435431], [-4.478587, 40.436826], [-4.477198, 40.438554], [-4.476164, 40.439671], [-4.475487, 40.440178], [-4.474816, 40.441292], [-4.474154, 40.443013], [-4.473304, 40.444635], [-4.472264, 40.446159], [-4.470381, 40.446895], [-4.467652, 40.446844], [-4.465515, 40.446708], [-4.46397, 40.446488], [-4.463113, 40.446433], [-4.462945, 40.446542], [-4.462948, 40.447053], [-4.46312, 40.447965], [-4.463197, 40.448725], [-4.46318, 40.449333], [-4.462624, 40.449788], [-4.46153, 40.450091], [-4.459676, 40.450893], [-4.457061, 40.452194], [-4.456491, 40.453166], [-4.457964, 40.45381], [-4.459242, 40.454393], [-4.460323, 40.454917], [-4.45968, 40.45587], [-4.45731, 40.45725], [-4.454172, 40.458366], [-4.450264, 40.459219], [-4.447323, 40.459579], [-4.445349, 40.459446], [-4.44389, 40.460113], [-4.442946, 40.461578], [-4.44071, 40.463206], [-4.437182, 40.464999], [-4.433332, 40.466522], [-4.429161, 40.467774], [-4.426075, 40.468781], [-4.424074, 40.469541], [-4.422947, 40.470012], [-4.422694, 40.470195], [-4.422377, 40.470421], [-4.421995, 40.470691], [-4.421563, 40.470996], [-4.421083, 40.471336], [-4.419271, 40.47155], [-4.416126, 40.471638], [-4.413681, 40.472842], [-4.411933, 40.475164], [-4.410375, 40.477181], [-4.409005, 40.478891], [-4.40799, 40.480113], [-4.407329, 40.480845], [-4.40572, 40.48152], [-4.403165, 40.482135], [-4.400261, 40.483715], [-4.397008, 40.486259], [-4.395138, 40.487981], [-4.394652, 40.488881], [-4.392862, 40.489526], [-4.389768, 40.489915], [-4.384667, 40.489405], [-4.37756, 40.487995], [-4.372815, 40.486513], [-4.37043, 40.484958], [-4.369203, 40.483964], [-4.369134, 40.48353], [-4.368273, 40.482968], [-4.36662, 40.48228], [-4.365072, 40.481635], [-4.363628, 40.481034], [-4.360808, 40.480407], [-4.356614, 40.479755], [-4.354449, 40.478685], [-4.354315, 40.477197], [-4.354321, 40.47541], [-4.354465, 40.473326], [-4.354043, 40.470808], [-4.353056, 40.467859], [-4.353738, 40.465179], [-4.356089, 40.462769], [-4.3584, 40.461318], [-4.360672, 40.460824], [-4.363, 40.461038], [-4.365385, 40.461959], [-4.367319, 40.462705], [-4.368803, 40.463278], [-4.371314, 40.463819], [-4.374853, 40.464329], [-4.37678, 40.463688], [-4.377094, 40.461896], [-4.377423, 40.459942], [-4.377767, 40.457828], [-4.378126, 40.455553], [-4.3785, 40.453116], [-4.379019, 40.450857], [-4.379681, 40.448775], [-4.379642, 40.446797], [-4.3789, 40.444922], [-4.37795, 40.443039], [-4.37679, 40.441146], [-4.376824, 40.439038], [-4.378053, 40.436714], [-4.37929, 40.435103], [-4.380535, 40.434204], [-4.381179, 40.433395], [-4.381221, 40.432675], [-4.380927, 40.431845], [-4.380297, 40.430906], [-4.378867, 40.430998], [-4.376637, 40.432121], [-4.374416, 40.432607], [-4.372205, 40.432457], [-4.370676, 40.431214], [-4.36983, 40.428879], [-4.369151, 40.427273], [-4.368639, 40.426396], [-4.367991, 40.426055], [-4.367206, 40.42625], [-4.366192, 40.426796], [-4.364946, 40.427694], [-4.363394, 40.428541], [-4.361534, 40.429336], [-4.3604, 40.430863], [-4.359991, 40.43312], [-4.356963, 40.434919], [-4.351315, 40.436257], [-4.346205, 40.436693], [-4.341632, 40.436226], [-4.33596, 40.435288], [-4.329187, 40.433878], [-4.325281, 40.431983], [-4.324241, 40.429603], [-4.323651, 40.425573], [-4.323511, 40.419895], [-4.323731, 40.41543], [-4.324311, 40.412179], [-4.322758, 40.407911], [-4.319072, 40.402627], [-4.317541, 40.399179], [-4.318165, 40.397568], [-4.319469, 40.39459], [-4.320824, 40.391622], [-4.320585, 40.388688], [-4.32152, 40.385566], [-4.322007, 40.384908], [-4.323238, 40.383247], [-4.329244, 40.38397], [-4.333135, 40.385923], [-4.338523, 40.389836], [-4.34153, 40.390542], [-4.347607, 40.390909], [-4.349129, 40.392981], [-4.347594, 40.398717], [-4.350904, 40.402706], [-4.356643, 40.400942], [-4.367234, 40.398118], [-4.368971, 40.399813], [-4.371299, 40.400818], [-4.374126, 40.402037], [-4.376241, 40.400807], [-4.376272, 40.403557], [-4.375137, 40.405995], [-4.375067, 40.406146], [-4.375199, 40.406604], [-4.375798, 40.408679], [-4.380826, 40.410347], [-4.385557, 40.411371], [-4.388817, 40.412109], [-4.390417, 40.411032], [-4.392429, 40.411274], [-4.394278, 40.412149], [-4.396119, 40.412336], [-4.398719, 40.413214], [-4.399588, 40.415038], [-4.398664, 40.418848], [-4.398134, 40.421107], [-4.395719, 40.423645], [-4.39425, 40.426388], [-4.396296, 40.427463], [-4.399519, 40.427791], [-4.403646, 40.428788], [-4.406648, 40.428803], [-4.407562, 40.426257], [-4.407938, 40.425283], [-4.413421, 40.424357], [-4.416082, 40.424193], [-4.416432, 40.423108], [-4.415095, 40.420551], [-4.4142, 40.418617], [-4.416426, 40.418517], [-4.418762, 40.417597], [-4.418439, 40.416841], [-4.416333, 40.416809], [-4.416939, 40.414882], [-4.418047, 40.414488], [-4.420298, 40.414499], [-4.422072, 40.413089], [-4.424681, 40.412702], [-4.426676, 40.413555], [-4.430078, 40.414659], [-4.434247, 40.415189], [-4.436012, 40.415042], [-4.439031, 40.41448], [-4.441256, 40.41438], [-4.442467, 40.41443], [-4.442638, 40.412567], [-4.441333, 40.410809], [-4.44112, 40.409233], [-4.437574, 40.408152], [-4.436159, 40.407213], [-4.436218, 40.406171], [-4.437549, 40.404137], [-4.437796, 40.402608], [-4.439919, 40.402063], [-4.439254, 40.401129], [-4.43922, 40.40033], [-4.440584, 40.399095], [-4.43853, 40.397332], [-4.43645, 40.397411], [-4.433637, 40.398861], [-4.43021, 40.399599], [-4.427917, 40.398102], [-4.424627, 40.39813], [-4.420808, 40.398466], [-4.418157, 40.397366], [-4.411347, 40.396422], [-4.407972, 40.395429], [-4.39976, 40.395231], [-4.398476, 40.394915], [-4.390784, 40.391755], [-4.386206, 40.388092], [-4.382575, 40.384852], [-4.379891, 40.382037], [-4.378345, 40.37875], [-4.378087, 40.376372], [-4.380334, 40.37552], [-4.384638, 40.375344], [-4.38947, 40.374859], [-4.39233, 40.377536], [-4.395747, 40.378065], [-4.397032, 40.3804], [-4.400074, 40.37995], [-4.402077, 40.379539], [-4.40201, 40.377942], [-4.400197, 40.375914], [-4.400393, 40.375437], [-4.401684, 40.375822], [-4.405053, 40.376939], [-4.4079, 40.378013], [-4.409956, 40.377434], [-4.411222, 40.375203], [-4.413294, 40.372987], [-4.416174, 40.370785], [-4.417735, 40.369625], [-4.417977, 40.369507], [-4.418158, 40.368918], [-4.418279, 40.367859], [-4.418222, 40.36725], [-4.417988, 40.36709], [-4.417223, 40.365508], [-4.415928, 40.362502], [-4.415452, 40.360163], [-4.415793, 40.35849], [-4.416547, 40.356641], [-4.417714, 40.354614], [-4.419302, 40.353499], [-4.42131, 40.353294], [-4.422762, 40.353959], [-4.423659, 40.355495], [-4.425185, 40.357006], [-4.42734, 40.358494], [-4.429756, 40.359959], [-4.432434, 40.361399], [-4.434055, 40.362271], [-4.43462, 40.362574], [-4.435386, 40.363256], [-4.436356, 40.364318], [-4.436533, 40.366006], [-4.435916, 40.368322], [-4.435818, 40.371048], [-4.436236, 40.374183], [-4.436711, 40.376639], [-4.43724, 40.378414], [-4.438174, 40.379318], [-4.439512, 40.379351], [-4.440768, 40.376269], [-4.441941, 40.37007], [-4.442637, 40.365408], [-4.442856, 40.362282], [-4.443018, 40.359964], [-4.443123, 40.358454], [-4.443338, 40.356956], [-4.443661, 40.355471], [-4.444704, 40.354089], [-4.446464, 40.352808], [-4.448856, 40.352036], [-4.451878, 40.351772], [-4.454028, 40.352055], [-4.455307, 40.352885], [-4.45601, 40.353313], [-4.456138, 40.353341], [-4.457238, 40.353654], [-4.459311, 40.354254], [-4.461846, 40.353592], [-4.464844, 40.35167], [-4.469175, 40.350453], [-4.47484, 40.349944], [-4.479049, 40.348929], [-4.481801, 40.347409], [-4.484699, 40.346958], [-4.487741, 40.347575], [-4.49049, 40.348319], [-4.492946, 40.349188], [-4.495995, 40.349599], [-4.499636, 40.349551], [-4.502238, 40.350357], [-4.503804, 40.352018], [-4.506142, 40.353769], [-4.509253, 40.355611], [-4.512898, 40.356509], [-4.517077, 40.356462], [-4.52147, 40.356877], [-4.526077, 40.357754], [-4.528993, 40.3586], [-4.530215, 40.359415], [-4.53231, 40.359702], [-4.535275, 40.35946], [-4.53947, 40.359891], [-4.544893, 40.360993], [-4.550166, 40.362595], [-4.555288, 40.364698], [-4.560511, 40.366192], [-4.565838, 40.367077], [-4.568648, 40.367417], [-4.568944, 40.36721], [-4.569725, 40.366661], [-4.570991, 40.365768], [-4.572299, 40.364842], [-4.573647, 40.363884], [-4.575037, 40.362892], [-4.576467, 40.361868], [-4.577957, 40.360937], [-4.579506, 40.360097], [-4.581115, 40.35935], [-4.582784, 40.358695], [-4.584512, 40.358132], [-4.5863, 40.357662], [-4.588147, 40.357284], [-4.590053, 40.356998], [-4.59135, 40.356771], [-4.592037, 40.356603], [-4.591701, 40.355171], [-4.590342, 40.352474], [-4.589114, 40.34923], [-4.588018, 40.345438], [-4.58691, 40.343798], [-4.58579, 40.344309], [-4.583984, 40.342631], [-4.581491, 40.338765], [-4.580004, 40.334421], [-4.579523, 40.329601], [-4.578968, 40.325606], [-4.57834, 40.322439], [-4.576502, 40.31933], [-4.573456, 40.31628], [-4.570982, 40.313634], [-4.56908, 40.311391], [-4.567683, 40.309031], [-4.56679, 40.306556], [-4.566545, 40.30435], [-4.566947, 40.302414], [-4.568927, 40.301098], [-4.572485, 40.300402], [-4.576132, 40.299856], [-4.579866, 40.299459], [-4.584207, 40.29893], [-4.589156, 40.298269], [-4.593118, 40.297023], [-4.596093, 40.29519], [-4.59813, 40.293661], [-4.599227, 40.292436], [-4.600942, 40.290669], [-4.603276, 40.288362], [-4.606524, 40.287018], [-4.610686, 40.286637], [-4.614366, 40.286695], [-4.617564, 40.287193], [-4.620032, 40.288209], [-4.62177, 40.289741], [-4.622987, 40.291393], [-4.623682, 40.293162], [-4.624333, 40.294818], [-4.624939, 40.296359], [-4.626826, 40.298686], [-4.629995, 40.301797], [-4.632614, 40.304829], [-4.634683, 40.307779], [-4.637046, 40.309707], [-4.639702, 40.310612], [-4.64202, 40.310753], [-4.644001, 40.310128], [-4.64581, 40.308306], [-4.647445, 40.305287], [-4.648313, 40.303682], [-4.648414, 40.303491], [-4.649114, 40.302162], [-4.650414, 40.299695], [-4.651315, 40.297486], [-4.651816, 40.295535], [-4.653111, 40.29379], [-4.655197, 40.292252], [-4.657422, 40.289715], [-4.659786, 40.286178], [-4.661703, 40.283686], [-4.663173, 40.282241], [-4.666543, 40.281652], [-4.671813, 40.281917], [-4.676644, 40.282125], [-4.681037, 40.282277], [-4.683851, 40.281812], [-4.685086, 40.280728], [-4.687578, 40.277741], [-4.691325, 40.272852], [-4.695386, 40.269592], [-4.699762, 40.267962], [-4.702157, 40.26707], [-4.702571, 40.266915], [-4.70308, 40.266788], [-4.703683, 40.266686], [-4.706189, 40.266267], [-4.710596, 40.265528], [-4.713967, 40.264696], [-4.716301, 40.263772], [-4.718201, 40.263035], [-4.719667, 40.262487], [-4.72117, 40.261648], [-4.722712, 40.260517], [-4.724703, 40.259032], [-4.727142, 40.257194], [-4.729841, 40.255562], [-4.732801, 40.254134], [-4.737209, 40.253221], [-4.743066, 40.252822], [-4.74754, 40.253326], [-4.750633, 40.254732], [-4.752964, 40.256744], [-4.754534, 40.259361], [-4.755484, 40.261827], [-4.755815, 40.264142], [-4.755336, 40.266047], [-4.754046, 40.267541], [-4.753834, 40.269234], [-4.7547, 40.271126], [-4.755663, 40.272812], [-4.756722, 40.274291], [-4.75945, 40.274151], [-4.763845, 40.27239], [-4.766238, 40.271206], [-4.76663, 40.2706], [-4.767462, 40.268833], [-4.768734, 40.265907], [-4.770243, 40.26513], [-4.77199, 40.266505], [-4.777123, 40.26675], [-4.785641, 40.265864], [-4.791755, 40.265091], [-4.795467, 40.26443], [-4.79996, 40.262778], [-4.805235, 40.260136], [-4.808954, 40.258177], [-4.811118, 40.256902], [-4.815619, 40.255953], [-4.822455, 40.25533], [-4.828323, 40.25496], [-4.833224, 40.254843], [-4.838305, 40.256064], [-4.843564, 40.258624], [-4.84722, 40.26106], [-4.849272, 40.263374], [-4.850616, 40.266164], [-4.85125, 40.269431], [-4.851266, 40.272686], [-4.850663, 40.275931], [-4.849771, 40.278537], [-4.848592, 40.280504], [-4.845634, 40.283058], [-4.840896, 40.286199], [-4.83605, 40.288883], [-4.831096, 40.291111], [-4.825282, 40.293469], [-4.818608, 40.295958], [-4.815129, 40.297279], [-4.814846, 40.297432], [-4.815064, 40.299472], [-4.815784, 40.303399], [-4.8156, 40.307417], [-4.814512, 40.311525], [-4.814477, 40.315736], [-4.815495, 40.320049], [-4.816128, 40.322976], [-4.816377, 40.324515], [-4.815844, 40.325647], [-4.81453, 40.326373], [-4.811987, 40.327461], [-4.808215, 40.328912], [-4.805225, 40.330287], [-4.803018, 40.331587], [-4.802549, 40.332142], [-4.801427, 40.332077], [-4.795642, 40.331694], [-4.790749, 40.332553], [-4.787841, 40.333569], [-4.786246, 40.336339], [-4.782229, 40.340282], [-4.780438, 40.341588], [-4.777347, 40.341828], [-4.775122, 40.3432], [-4.774866, 40.34657], [-4.773559, 40.349296], [-4.776293, 40.350719], [-4.777237, 40.352184], [-4.778367, 40.353162], [-4.785115, 40.35317], [-4.788546, 40.354372], [-4.79053, 40.355794], [-4.793421, 40.357882], [-4.792919, 40.359567], [-4.791707, 40.360785], [-4.790376, 40.362136], [-4.788784, 40.362378], [-4.788074, 40.361912], [-4.786814, 40.36038], [-4.786271, 40.36253], [-4.78719, 40.363884], [-4.789028, 40.366592], [-4.78967, 40.368677], [-4.792296, 40.372184], [-4.789608, 40.374776], [-4.789633, 40.376151], [-4.790775, 40.377815], [-4.792208, 40.379555], [-4.792877, 40.380368], [-4.79003, 40.383558], [-4.787474, 40.38544], [-4.786089, 40.387833], [-4.784404, 40.388319], [-4.781297, 40.389135], [-4.778532, 40.389177], [-4.778467, 40.389318], [-4.775829, 40.391491], [-4.770902, 40.395087], [-4.767858, 40.397535], [-4.766696, 40.398836], [-4.76297, 40.400675], [-4.756679, 40.403053], [-4.752193, 40.404782], [-4.749511, 40.405863], [-4.746435, 40.406517], [-4.742964, 40.406743], [-4.740436, 40.406601], [-4.73885, 40.406093], [-4.738277, 40.406048], [-4.734619, 40.404943]], [[-4.78009, 40.335498], [-4.780241, 40.335696], [-4.780344, 40.335857], [-4.780398, 40.335981], [-4.780404, 40.336068], [-4.78041, 40.336153], [-4.780415, 40.336235], [-4.780419, 40.336315], [-4.780423, 40.336392], [-4.780481, 40.336455], [-4.780593, 40.336504], [-4.78076, 40.336539], [-4.780981, 40.336561], [-4.781234, 40.336578], [-4.781518, 40.33659], [-4.781833, 40.336597], [-4.78218, 40.3366], [-4.782437, 40.336574], [-4.782604, 40.336521], [-4.782682, 40.33644], [-4.782671, 40.336332], [-4.782638, 40.336221], [-4.782582, 40.336108], [-4.782505, 40.335992], [-4.782405, 40.335875], [-4.782294, 40.335756], [-4.782173, 40.335637], [-4.78204, 40.335516], [-4.781896, 40.335394], [-4.781783, 40.335282], [-4.781701, 40.335178], [-4.78165, 40.335084], [-4.78163, 40.334998], [-4.781616, 40.334895], [-4.781609, 40.334775], [-4.781609, 40.334637], [-4.781616, 40.334481], [-4.781588, 40.334364], [-4.781526, 40.334285], [-4.78143, 40.334244], [-4.7813, 40.334242], [-4.781109, 40.334274], [-4.780858, 40.334339], [-4.780547, 40.334439], [-4.780175, 40.334573], [-4.779894, 40.334682], [-4.779705, 40.334766], [-4.779607, 40.334825], [-4.779601, 40.334859], [-4.779646, 40.334944], [-4.779742, 40.335078], [-4.77989, 40.335263], [-4.78009, 40.335498]]]}}]}