{"type": "FeatureCollection", "name": "ALMONASTERLAREAL", "features": [{"type": "Feature", "properties": {"id": "42771", "FIREDATE": "2020-08-27T12:24:00", "FINALDATE": "2020-09-01T14:12:00", "LASTUPDATE": "2022-01-26 11:45:36.105095", "COUNTRY": "ES", "PROVINCE": "Huelva", "COMMUNE": "Almonaster la Real", "AREA_HA": 16758.0, "BROADLEA": 11.3008, "CONIFER": 4.746, "MIXED": 1.6118, "SCLEROPH": 18.0586, "TRANSIT": 56.1578, "OTHERNATLC": 1.7253, "AGRIAREAS": 3.9639, "ARTIFSURF": 1.0447, "OTHERLC": 1.391, "PERCNA2K": 0.0, "CLASS": "FireSeason", "AÑO": 2020, "LATITUD": 37.72804210269516, "LONGITUD": -6.763786501524515}, "geometry": {"type": "Polygon", "coordinates": [[[-6.816487, 37.805046], [-6.805072, 37.807523], [-6.792971, 37.804202], [-6.785966, 37.799401], [-6.783634, 37.79654], [-6.771784, 37.796165], [-6.766331, 37.794152], [-6.762545, 37.790681], [-6.759567, 37.787765], [-6.760767, 37.783453], [-6.759701, 37.778811], [-6.756965, 37.776612], [-6.743505, 37.775917], [-6.714339, 37.774111], [-6.707334, 37.771218], [-6.695712, 37.768643], [-6.688772, 37.765805], [-6.686387, 37.771238], [-6.681627, 37.770776], [-6.675234, 37.761166], [-6.671286, 37.750759], [-6.680597, 37.742761], [-6.683555, 37.739289], [-6.691757, 37.742402], [-6.691571, 37.739972], [-6.690964, 37.732959], [-6.683023, 37.733228], [-6.666234, 37.735528], [-6.65792, 37.736506], [-6.654044, 37.728948], [-6.65084, 37.726036], [-6.646962, 37.725363], [-6.64479, 37.724087], [-6.644325, 37.722209], [-6.647583, 37.720172], [-6.654563, 37.717974], [-6.656236, 37.714197], [-6.652603, 37.70884], [-6.654034, 37.707077], [-6.660529, 37.708908], [-6.66519, 37.708967], [-6.668017, 37.707255], [-6.667638, 37.703969], [-6.664053, 37.699111], [-6.657791, 37.693795], [-6.648853, 37.68802], [-6.643578, 37.683394], [-6.641968, 37.679919], [-6.641723, 37.675581], [-6.642845, 37.670382], [-6.644175, 37.668465], [-6.645716, 37.669832], [-6.645895, 37.670961], [-6.644711, 37.671851], [-6.645639, 37.672867], [-6.648678, 37.674008], [-6.649082, 37.675037], [-6.646852, 37.675952], [-6.645942, 37.677034], [-6.64635, 37.678282], [-6.654247, 37.682243], [-6.669634, 37.688914], [-6.678136, 37.692166], [-6.679749, 37.691999], [-6.678612, 37.68822], [-6.674726, 37.680828], [-6.67422, 37.678377], [-6.677092, 37.680868], [-6.679194, 37.681055], [-6.680525, 37.678938], [-6.684229, 37.677599], [-6.690306, 37.677039], [-6.69297, 37.678886], [-6.692219, 37.683141], [-6.695257, 37.687102], [-6.702083, 37.690769], [-6.706025, 37.69463], [-6.707081, 37.698683], [-6.709213, 37.700504], [-6.712421, 37.700093], [-6.716397, 37.701866], [-6.721142, 37.705823], [-6.723014, 37.708411], [-6.722013, 37.70963], [-6.724787, 37.711996], [-6.731338, 37.715509], [-6.7363, 37.717852], [-6.739671, 37.719025], [-6.74174, 37.719161], [-6.742508, 37.71826], [-6.743268, 37.718561], [-6.744018, 37.720065], [-6.74564, 37.719707], [-6.748133, 37.717489], [-6.751779, 37.716948], [-6.756579, 37.718084], [-6.760593, 37.717261], [-6.760451, 37.713026], [-6.76017, 37.710729], [-6.758626, 37.709886], [-6.761844, 37.707761], [-6.761807, 37.706589], [-6.773993, 37.70518], [-6.781649, 37.700684], [-6.788096, 37.69953], [-6.78746, 37.690789], [-6.788796, 37.687711], [-6.791711, 37.687053], [-6.791977, 37.683321], [-6.789595, 37.676515], [-6.787368, 37.672587], [-6.785294, 37.671539], [-6.784116, 37.669007], [-6.783833, 37.66499], [-6.778667, 37.664086], [-6.768616, 37.666291], [-6.76067, 37.662389], [-6.75483, 37.652379], [-6.751807, 37.647704], [-6.756266, 37.646981], [-6.759741, 37.643464], [-6.758165, 37.642763], [-6.757876, 37.641873], [-6.758872, 37.640795], [-6.761289, 37.641373], [-6.765126, 37.643608], [-6.768082, 37.64237], [-6.770157, 37.637659], [-6.77007, 37.635246], [-6.767819, 37.635129], [-6.771124, 37.632478], [-6.779984, 37.627291], [-6.784401, 37.624099], [-6.784376, 37.622902], [-6.786039, 37.622032], [-6.789389, 37.621487], [-6.793093, 37.622434], [-6.797152, 37.624873], [-6.805304, 37.637556], [-6.809829, 37.639288], [-6.810414, 37.646009], [-6.806851, 37.650972], [-6.808603, 37.655462], [-6.813534, 37.660368], [-6.816774, 37.668319], [-6.81833, 37.67678], [-6.826923, 37.689529], [-6.836807, 37.701453], [-6.836949, 37.70812], [-6.825107, 37.709753], [-6.820183, 37.711361], [-6.819978, 37.717223], [-6.822138, 37.719137], [-6.826244, 37.719137], [-6.82833, 37.718107], [-6.827928, 37.715202], [-6.831614, 37.713315], [-6.839965, 37.707815], [-6.841341, 37.71355], [-6.841691, 37.724241], [-6.840706, 37.731378], [-6.838386, 37.73496], [-6.841655, 37.737076], [-6.850514, 37.737726], [-6.856172, 37.738921], [-6.859542, 37.741232], [-6.859455, 37.744515], [-6.855531, 37.746672], [-6.855572, 37.750315], [-6.858348, 37.751722], [-6.852941, 37.757776], [-6.85179, 37.766261], [-6.843574, 37.772745], [-6.8378, 37.774188], [-6.832748, 37.778662], [-6.831865, 37.787116], [-6.824537, 37.790607], [-6.820862, 37.799286], [-6.816487, 37.805046]], [[-6.817167, 37.769923], [-6.822556, 37.770701], [-6.825348, 37.76657], [-6.824636, 37.761179], [-6.830008, 37.758619], [-6.83041, 37.75695], [-6.827795, 37.754513], [-6.826924, 37.752128], [-6.82485, 37.75003], [-6.823143, 37.747213], [-6.821486, 37.747147], [-6.819411, 37.748317], [-6.820002, 37.75177], [-6.816182, 37.753979], [-6.813529, 37.757576], [-6.811139, 37.757858], [-6.81128, 37.755873], [-6.806956, 37.755339], [-6.805211, 37.756014], [-6.805734, 37.757373], [-6.808994, 37.758024], [-6.808678, 37.761131], [-6.810018, 37.765393], [-6.812914, 37.764948], [-6.812512, 37.766617], [-6.811081, 37.767454], [-6.813138, 37.768756], [-6.817167, 37.769923]], [[-6.793881, 37.730631], [-6.793969, 37.729857], [-6.794667, 37.729059], [-6.795308, 37.728453], [-6.794911, 37.727921], [-6.794306, 37.726906], [-6.795583, 37.726453], [-6.795382, 37.725437], [-6.795514, 37.724557], [-6.794015, 37.724053], [-6.792658, 37.723622], [-6.791226, 37.724299], [-6.790512, 37.723767], [-6.789339, 37.724777], [-6.791611, 37.726055], [-6.790993, 37.727807], [-6.789954, 37.729214], [-6.789943, 37.730156], [-6.791549, 37.730669], [-6.793288, 37.730863], [-6.793881, 37.730631]], [[-6.728609, 37.759228], [-6.728535, 37.75623], [-6.728539, 37.753961], [-6.7243, 37.753767], [-6.723801, 37.750928], [-6.723001, 37.749379], [-6.718961, 37.749149], [-6.716323, 37.750815], [-6.716259, 37.753053], [-6.713286, 37.753582], [-6.716657, 37.756942], [-6.723272, 37.757744], [-6.724576, 37.759657], [-6.728609, 37.759228]], [[-6.732309, 37.751021], [-6.734846, 37.749786], [-6.735652, 37.748034], [-6.734833, 37.746406], [-6.73237, 37.744618], [-6.729886, 37.743369], [-6.727533, 37.741602], [-6.725282, 37.742951], [-6.725207, 37.740985], [-6.7251, 37.739932], [-6.724805, 37.738747], [-6.724691, 37.73621], [-6.726053, 37.733782], [-6.726661, 37.731446], [-6.725682, 37.730837], [-6.722345, 37.730936], [-6.722154, 37.732249], [-6.722833, 37.734355], [-6.722215, 37.736445], [-6.719493, 37.736105], [-6.719619, 37.737237], [-6.721527, 37.738671], [-6.722376, 37.740004], [-6.721745, 37.743705], [-6.722289, 37.74402], [-6.723673, 37.745218], [-6.722014, 37.747905], [-6.724739, 37.747214], [-6.726681, 37.746703], [-6.728217, 37.746017], [-6.729981, 37.74562], [-6.73213, 37.745939], [-6.732751, 37.747189], [-6.732857, 37.749068], [-6.730903, 37.750364], [-6.730971, 37.751053], [-6.732309, 37.751021]], [[-6.704648, 37.753799], [-6.706292, 37.754166], [-6.706898, 37.753275], [-6.704926, 37.749089], [-6.705923, 37.746437], [-6.701841, 37.746874], [-6.699086, 37.747653], [-6.700053, 37.749461], [-6.699625, 37.750238], [-6.700171, 37.753893], [-6.704648, 37.753799]], [[-6.703094, 37.719878], [-6.706011, 37.720957], [-6.70694, 37.720277], [-6.704684, 37.716916], [-6.706257, 37.716224], [-6.705397, 37.713801], [-6.703896, 37.710357], [-6.705408, 37.708903], [-6.706018, 37.707197], [-6.704602, 37.704615], [-6.701633, 37.705143], [-6.699202, 37.708101], [-6.698513, 37.711315], [-6.697212, 37.712319], [-6.694704, 37.716269], [-6.696257, 37.718363], [-6.696885, 37.719591], [-6.698541, 37.720276], [-6.703094, 37.719878]], [[-6.773298, 37.649815], [-6.774725, 37.648955], [-6.777929, 37.649659], [-6.779483, 37.650321], [-6.782632, 37.650128], [-6.785225, 37.649731], [-6.785162, 37.648802], [-6.783721, 37.648757], [-6.781138, 37.647506], [-6.782464, 37.643541], [-6.78045, 37.644237], [-6.776974, 37.64244], [-6.780059, 37.641317], [-6.779788, 37.639384], [-6.776505, 37.638527], [-6.77318, 37.638181], [-6.773064, 37.640083], [-6.771239, 37.648134], [-6.773298, 37.649815]], [[-6.813046, 37.778563], [-6.811514, 37.776816], [-6.811816, 37.775751], [-6.809272, 37.774672], [-6.807588, 37.775113], [-6.806315, 37.775968], [-6.805878, 37.777893], [-6.805961, 37.779273], [-6.807125, 37.77903], [-6.808992, 37.780543], [-6.812886, 37.780195], [-6.813046, 37.778563]], [[-6.775979, 37.78341], [-6.775352, 37.782302], [-6.776008, 37.780024], [-6.773371, 37.779275], [-6.770951, 37.779393], [-6.770313, 37.780692], [-6.772958, 37.781475], [-6.773352, 37.781823], [-6.773065, 37.783128], [-6.771307, 37.783268], [-6.769949, 37.783963], [-6.7704, 37.784894], [-6.772418, 37.785091], [-6.773305, 37.785665], [-6.77524, 37.785529], [-6.775979, 37.78341]]]}}]}