{"type": "FeatureCollection", "name": "BEJIS", "features": [{"type": "Feature", "properties": {"id": "209196", "FIREDATE": "2022-08-15T22:29:00", "FINALDATE": "2022-08-22T22:29:00", "LASTUPDATE": "2022-08-24 09:20:51.79681", "COUNTRY": "ES", "PROVINCE": "Castellón/Castelló", "COMMUNE": "Bejís", "AREA_HA": 19362.0, "BROADLEA": 3.4768, "CONIFER": 36.953, "MIXED": 0.2118, "SCLEROPH": 24.9212, "TRANSIT": 8.4982, "OTHERNATLC": 13.6953, "AGRIAREAS": 12.1041, "ARTIFSURF": 0.1395, "OTHERLC": 0.0, "PERCNA2K": 51.5915, "CLASS": "FireSeason", "AÑO": 2022, "LATITUD": 39.8899359038683, "LONGITUD": -0.7031811446385313}, "geometry": {"type": "Polygon", "coordinates": [[[-0.705254, 39.95952], [-0.704923, 39.959242], [-0.704482, 39.959038], [-0.703932, 39.95891], [-0.703273, 39.958857], [-0.702757, 39.958888], [-0.702386, 39.959005], [-0.70216, 39.959206], [-0.702078, 39.959492], [-0.701941, 39.959746], [-0.701751, 39.959969], [-0.701506, 39.960159], [-0.701207, 39.960318], [-0.701058, 39.960543], [-0.701057, 39.960832], [-0.701206, 39.961188], [-0.701504, 39.961608], [-0.701564, 39.961967], [-0.701386, 39.962264], [-0.70097, 39.962498], [-0.700316, 39.962671], [-0.699695, 39.962708], [-0.69911, 39.962608], [-0.698558, 39.962373], [-0.69804, 39.962002], [-0.697453, 39.961745], [-0.696795, 39.961604], [-0.696066, 39.961577], [-0.695268, 39.961664], [-0.69449, 39.961826], [-0.693732, 39.96206], [-0.692994, 39.962368], [-0.692277, 39.962749], [-0.691807, 39.963147], [-0.691583, 39.963562], [-0.691607, 39.963994], [-0.691877, 39.964443], [-0.691955, 39.964812], [-0.691841, 39.965102], [-0.691534, 39.965312], [-0.691035, 39.965442], [-0.690561, 39.965476], [-0.690111, 39.965412], [-0.689686, 39.965251], [-0.689285, 39.964992], [-0.688878, 39.964848], [-0.688467, 39.964818], [-0.68805, 39.964901], [-0.687627, 39.965099], [-0.687119, 39.965268], [-0.686524, 39.965409], [-0.685843, 39.965522], [-0.685077, 39.965606], [-0.684365, 39.965583], [-0.683709, 39.965454], [-0.683109, 39.965217], [-0.682564, 39.964874], [-0.681983, 39.964711], [-0.681368, 39.964728], [-0.680718, 39.964926], [-0.680033, 39.965303], [-0.679409, 39.965611], [-0.678847, 39.965849], [-0.678346, 39.966017], [-0.677907, 39.966116], [-0.677636, 39.966291], [-0.677531, 39.966541], [-0.677594, 39.966868], [-0.677823, 39.967271], [-0.677889, 39.967617], [-0.677791, 39.967905], [-0.677528, 39.968135], [-0.677102, 39.968308], [-0.676642, 39.968377], [-0.676148, 39.968343], [-0.675621, 39.968206], [-0.67506, 39.967965], [-0.674476, 39.967733], [-0.67387, 39.96751], [-0.673241, 39.967296], [-0.672588, 39.96709], [-0.671921, 39.966943], [-0.671239, 39.966854], [-0.670543, 39.966823], [-0.669832, 39.966851], [-0.669156, 39.966843], [-0.668514, 39.9668], [-0.667907, 39.966722], [-0.667335, 39.966608], [-0.666837, 39.966449], [-0.666413, 39.966244], [-0.666062, 39.965992], [-0.665784, 39.965695], [-0.665468, 39.965358], [-0.665113, 39.964982], [-0.664718, 39.964565], [-0.664284, 39.964109], [-0.663878, 39.963719], [-0.663498, 39.963395], [-0.663146, 39.963138], [-0.662822, 39.962947], [-0.662484, 39.962726], [-0.662133, 39.962474], [-0.661769, 39.962193], [-0.661392, 39.961882], [-0.660996, 39.961604], [-0.660581, 39.96136], [-0.660148, 39.961149], [-0.659696, 39.960972], [-0.659185, 39.960883], [-0.658615, 39.960882], [-0.657988, 39.96097], [-0.657301, 39.961146], [-0.656615, 39.961372], [-0.655929, 39.961649], [-0.655244, 39.961976], [-0.654558, 39.962353], [-0.653876, 39.962604], [-0.653198, 39.962729], [-0.652523, 39.962728], [-0.651851, 39.9626], [-0.65135, 39.962226], [-0.651019, 39.961608], [-0.650859, 39.960743], [-0.65087, 39.959634], [-0.650719, 39.958775], [-0.650406, 39.958167], [-0.649932, 39.957809], [-0.649296, 39.957703], [-0.648662, 39.957608], [-0.648031, 39.957526], [-0.647401, 39.957457], [-0.646774, 39.9574], [-0.646183, 39.957414], [-0.645628, 39.9575], [-0.645109, 39.957657], [-0.644627, 39.957886], [-0.644159, 39.958007], [-0.643706, 39.958019], [-0.643267, 39.957922], [-0.642842, 39.957716], [-0.64253, 39.957455], [-0.642331, 39.957136], [-0.642244, 39.956762], [-0.64227, 39.956331], [-0.642281, 39.955907], [-0.642277, 39.955492], [-0.642258, 39.955085], [-0.642225, 39.954686], [-0.642207, 39.954335], [-0.642206, 39.954033], [-0.64222, 39.953779], [-0.642251, 39.953574], [-0.642117, 39.953255], [-0.641817, 39.952822], [-0.641352, 39.952275], [-0.640722, 39.951613], [-0.640378, 39.951059], [-0.64032, 39.950612], [-0.640548, 39.950272], [-0.641062, 39.950039], [-0.641547, 39.949823], [-0.642001, 39.949622], [-0.642426, 39.949437], [-0.64282, 39.949268], [-0.642986, 39.949136], [-0.642921, 39.949042], [-0.642627, 39.948986], [-0.642104, 39.948968], [-0.641685, 39.948894], [-0.641371, 39.948765], [-0.641161, 39.94858], [-0.641056, 39.94834], [-0.64076, 39.94812], [-0.640272, 39.947922], [-0.639592, 39.947744], [-0.63872, 39.947588], [-0.638083, 39.947374], [-0.63768, 39.947103], [-0.637512, 39.946775], [-0.637578, 39.94639], [-0.637727, 39.946015], [-0.637959, 39.945649], [-0.638274, 39.945294], [-0.638672, 39.944948], [-0.638966, 39.944613], [-0.639156, 39.94429], [-0.639243, 39.943979], [-0.639225, 39.943678], [-0.639391, 39.943503], [-0.639741, 39.943452], [-0.640273, 39.943526], [-0.640989, 39.943725], [-0.641585, 39.943792], [-0.642062, 39.943727], [-0.64242, 39.94353], [-0.642658, 39.943202], [-0.642968, 39.942916], [-0.643351, 39.942673], [-0.643805, 39.942472], [-0.644331, 39.942313], [-0.644868, 39.942022], [-0.645416, 39.941596], [-0.645973, 39.941038], [-0.646541, 39.940346], [-0.646831, 39.939842], [-0.646844, 39.939526], [-0.646578, 39.939397], [-0.646035, 39.939457], [-0.645618, 39.939439], [-0.645326, 39.939345], [-0.645159, 39.939175], [-0.645118, 39.938927], [-0.645191, 39.93868], [-0.645378, 39.938433], [-0.645678, 39.938186], [-0.646092, 39.937939], [-0.646258, 39.937713], [-0.646175, 39.937508], [-0.645844, 39.937324], [-0.645264, 39.937161], [-0.644641, 39.937128], [-0.643974, 39.937226], [-0.643264, 39.937455], [-0.642511, 39.937815], [-0.641863, 39.938024], [-0.64132, 39.938083], [-0.640882, 39.937993], [-0.64055, 39.937752], [-0.640266, 39.937512], [-0.640031, 39.937274], [-0.639846, 39.937036], [-0.639709, 39.936799], [-0.63976, 39.936522], [-0.640001, 39.936206], [-0.640429, 39.935851], [-0.641046, 39.935456], [-0.641349, 39.935127], [-0.641338, 39.934863], [-0.641013, 39.934666], [-0.640373, 39.934535], [-0.639858, 39.934515], [-0.639467, 39.934608], [-0.6392, 39.934814], [-0.639058, 39.935132], [-0.638882, 39.935346], [-0.638673, 39.935457], [-0.638431, 39.935465], [-0.638155, 39.935369], [-0.637906, 39.935245], [-0.637686, 39.935093], [-0.637494, 39.934913], [-0.637329, 39.934704], [-0.637102, 39.934559], [-0.636812, 39.934477], [-0.636459, 39.934459], [-0.636044, 39.934504], [-0.635571, 39.934543], [-0.63504, 39.934576], [-0.634451, 39.934603], [-0.633804, 39.934623], [-0.6333, 39.934767], [-0.632937, 39.935033], [-0.632717, 39.935422], [-0.63264, 39.935935], [-0.632528, 39.936192], [-0.632383, 39.936196], [-0.632203, 39.935945], [-0.631989, 39.935439], [-0.631773, 39.934971], [-0.631555, 39.934542], [-0.631336, 39.93415], [-0.631115, 39.933796], [-0.630928, 39.933357], [-0.630776, 39.932832], [-0.630658, 39.932222], [-0.630575, 39.931525], [-0.630449, 39.93101], [-0.63028, 39.930676], [-0.630068, 39.930523], [-0.629812, 39.930551], [-0.629501, 39.93039], [-0.629134, 39.930039], [-0.628712, 39.9295], [-0.628233, 39.928771], [-0.627805, 39.9281], [-0.627427, 39.927486], [-0.627099, 39.92693], [-0.626821, 39.926432], [-0.626511, 39.925886], [-0.626169, 39.925294], [-0.625795, 39.924655], [-0.625389, 39.923968], [-0.625046, 39.923275], [-0.624768, 39.922575], [-0.624553, 39.921868], [-0.624402, 39.921154], [-0.624257, 39.920427], [-0.624118, 39.919686], [-0.623985, 39.918933], [-0.623858, 39.918166], [-0.623895, 39.917507], [-0.624097, 39.916956], [-0.624462, 39.916513], [-0.624992, 39.916178], [-0.625316, 39.915878], [-0.625434, 39.915613], [-0.625347, 39.915383], [-0.625055, 39.915188], [-0.624979, 39.914926], [-0.625119, 39.914596], [-0.625476, 39.914198], [-0.626049, 39.913732], [-0.626605, 39.913312], [-0.627144, 39.912938], [-0.627667, 39.912611], [-0.628173, 39.912329], [-0.628467, 39.912044], [-0.628549, 39.911758], [-0.62842, 39.91147], [-0.62808, 39.91118], [-0.627843, 39.910878], [-0.62771, 39.910565], [-0.62768, 39.910241], [-0.627755, 39.909906], [-0.627946, 39.909639], [-0.628255, 39.909442], [-0.62868, 39.909313], [-0.629223, 39.909254], [-0.629739, 39.909134], [-0.63023, 39.908955], [-0.630694, 39.908715], [-0.631131, 39.908415], [-0.631384, 39.908079], [-0.631453, 39.907706], [-0.631336, 39.907297], [-0.631035, 39.906851], [-0.630986, 39.90646], [-0.63119, 39.906123], [-0.631647, 39.90584], [-0.632356, 39.905611], [-0.632889, 39.905295], [-0.633244, 39.904891], [-0.633423, 39.904399], [-0.633424, 39.903819], [-0.633552, 39.903219], [-0.633807, 39.9026], [-0.634188, 39.90196], [-0.634696, 39.901299], [-0.635184, 39.900761], [-0.635651, 39.900345], [-0.636098, 39.90005], [-0.636524, 39.899878], [-0.636885, 39.8998], [-0.63718, 39.899818], [-0.63741, 39.899932], [-0.637575, 39.90014], [-0.637762, 39.90029], [-0.637972, 39.90038], [-0.638205, 39.900412], [-0.63846, 39.900384], [-0.638668, 39.900317], [-0.63883, 39.900211], [-0.638944, 39.900066], [-0.639011, 39.899883], [-0.639251, 39.899762], [-0.639664, 39.899704], [-0.640249, 39.899709], [-0.641008, 39.899777], [-0.641658, 39.900021], [-0.642198, 39.90044], [-0.64263, 39.901036], [-0.642953, 39.901806], [-0.643445, 39.90242], [-0.644106, 39.902877], [-0.644935, 39.903176], [-0.645934, 39.903319], [-0.646787, 39.903515], [-0.647495, 39.903765], [-0.648057, 39.904069], [-0.648474, 39.904426], [-0.648946, 39.904677], [-0.649474, 39.90482], [-0.650057, 39.904857], [-0.650695, 39.904787], [-0.65142, 39.904752], [-0.652233, 39.904751], [-0.653132, 39.904785], [-0.654118, 39.904853], [-0.655145, 39.904822], [-0.656212, 39.904693], [-0.65732, 39.904464], [-0.658468, 39.904137], [-0.659254, 39.90383], [-0.659677, 39.903544], [-0.659739, 39.90328], [-0.659439, 39.903035], [-0.659203, 39.90274], [-0.659031, 39.902394], [-0.658925, 39.901996], [-0.658882, 39.901547], [-0.659031, 39.901172], [-0.659371, 39.90087], [-0.659902, 39.900642], [-0.660624, 39.900487], [-0.661307, 39.900299], [-0.661953, 39.900077], [-0.66256, 39.899821], [-0.66313, 39.899532], [-0.663642, 39.899243], [-0.664098, 39.898953], [-0.664496, 39.898664], [-0.664838, 39.898375], [-0.665132, 39.89804], [-0.665378, 39.89766], [-0.665575, 39.897236], [-0.665724, 39.896766], [-0.666043, 39.896384], [-0.66653, 39.896092], [-0.667187, 39.895887], [-0.668012, 39.895771], [-0.668676, 39.89561], [-0.669178, 39.895404], [-0.669518, 39.895153], [-0.669696, 39.894856], [-0.669806, 39.894491], [-0.669848, 39.894058], [-0.669821, 39.893558], [-0.669727, 39.892988], [-0.669496, 39.892479], [-0.669128, 39.892028], [-0.668624, 39.891636], [-0.667984, 39.891303], [-0.667383, 39.89106], [-0.666822, 39.890908], [-0.6663, 39.890845], [-0.665817, 39.890873], [-0.665342, 39.8909], [-0.664875, 39.890926], [-0.664417, 39.890951], [-0.663966, 39.890976], [-0.663425, 39.890947], [-0.662794, 39.890865], [-0.662073, 39.89073], [-0.661262, 39.890542], [-0.660365, 39.890281], [-0.659384, 39.889948], [-0.658318, 39.889542], [-0.657166, 39.889064], [-0.656251, 39.888786], [-0.655572, 39.88871], [-0.655129, 39.888834], [-0.654924, 39.889159], [-0.654794, 39.889456], [-0.654742, 39.889726], [-0.654766, 39.889969], [-0.654867, 39.890185], [-0.654907, 39.890426], [-0.654886, 39.890693], [-0.654804, 39.890985], [-0.654662, 39.891303], [-0.654507, 39.891541], [-0.654338, 39.891698], [-0.654156, 39.891774], [-0.65396, 39.891771], [-0.653775, 39.891684], [-0.653601, 39.891514], [-0.653437, 39.891261], [-0.653284, 39.890925], [-0.652994, 39.890598], [-0.652567, 39.89028], [-0.652004, 39.88997], [-0.651304, 39.889669], [-0.650798, 39.889359], [-0.650485, 39.88904], [-0.650366, 39.888713], [-0.65044, 39.888378], [-0.650183, 39.888104], [-0.649596, 39.887891], [-0.648677, 39.88774], [-0.647428, 39.88765], [-0.646498, 39.887531], [-0.645889, 39.887384], [-0.6456, 39.887208], [-0.645631, 39.887003], [-0.645457, 39.886833], [-0.645077, 39.886698], [-0.644492, 39.886599], [-0.643701, 39.886534], [-0.643042, 39.886329], [-0.642514, 39.885984], [-0.642116, 39.885498], [-0.64185, 39.884873], [-0.641649, 39.884296], [-0.641513, 39.88377], [-0.641442, 39.883292], [-0.641436, 39.882865], [-0.641464, 39.882446], [-0.641526, 39.882036], [-0.641622, 39.881635], [-0.641752, 39.881243], [-0.641884, 39.880914], [-0.642018, 39.880647], [-0.642155, 39.880443], [-0.642294, 39.880302], [-0.642358, 39.88015], [-0.642348, 39.879988], [-0.642262, 39.879814], [-0.642102, 39.87963], [-0.642063, 39.879446], [-0.642146, 39.87926], [-0.64235, 39.879074], [-0.642677, 39.878887], [-0.643048, 39.878777], [-0.643465, 39.878744], [-0.643927, 39.878788], [-0.644434, 39.878909], [-0.644919, 39.878988], [-0.64538, 39.879026], [-0.645818, 39.879022], [-0.646232, 39.878976], [-0.646577, 39.878995], [-0.64685, 39.879079], [-0.647054, 39.879226], [-0.647186, 39.879439], [-0.647278, 39.879649], [-0.647329, 39.879858], [-0.647339, 39.880064], [-0.647308, 39.880269], [-0.647344, 39.880442], [-0.647449, 39.880581], [-0.647621, 39.880688], [-0.647861, 39.880763], [-0.648107, 39.88078], [-0.64836, 39.88074], [-0.64862, 39.880642], [-0.648887, 39.880487], [-0.64921, 39.880376], [-0.649588, 39.880309], [-0.650023, 39.880287], [-0.650514, 39.880308], [-0.65105, 39.880256], [-0.65163, 39.880129], [-0.652254, 39.879929], [-0.652923, 39.879654], [-0.653386, 39.879408], [-0.653642, 39.879191], [-0.653692, 39.879003], [-0.653536, 39.878843], [-0.653339, 39.878682], [-0.6531, 39.87852], [-0.652821, 39.878355], [-0.652501, 39.878188], [-0.652188, 39.877914], [-0.651881, 39.877532], [-0.65158, 39.877042], [-0.651286, 39.876445], [-0.651022, 39.875882], [-0.650788, 39.875353], [-0.650584, 39.874859], [-0.650411, 39.874399], [-0.650165, 39.873998], [-0.649849, 39.873655], [-0.64946, 39.87337], [-0.649, 39.873143], [-0.648481, 39.872948], [-0.647902, 39.872785], [-0.647263, 39.872654], [-0.646564, 39.872554], [-0.645936, 39.87239], [-0.645378, 39.872161], [-0.644891, 39.871868], [-0.644475, 39.871511], [-0.644072, 39.87124], [-0.643684, 39.871055], [-0.643311, 39.870958], [-0.642952, 39.870947], [-0.642636, 39.87095], [-0.642362, 39.870967], [-0.642132, 39.870999], [-0.641945, 39.871044], [-0.641656, 39.871064], [-0.641265, 39.871056], [-0.640772, 39.871022], [-0.640177, 39.870961], [-0.639651, 39.870823], [-0.639193, 39.870609], [-0.638804, 39.870318], [-0.638483, 39.86995], [-0.638215, 39.869608], [-0.638, 39.869291], [-0.637838, 39.869], [-0.637729, 39.868735], [-0.637591, 39.868486], [-0.637422, 39.868252], [-0.637224, 39.868035], [-0.636995, 39.867833], [-0.636813, 39.867614], [-0.636676, 39.867377], [-0.636585, 39.867122], [-0.63654, 39.86685], [-0.636431, 39.866629], [-0.636256, 39.866459], [-0.636017, 39.86634], [-0.635714, 39.866273], [-0.635396, 39.866169], [-0.635065, 39.866029], [-0.634719, 39.865853], [-0.634359, 39.86564], [-0.634009, 39.865634], [-0.633668, 39.865835], [-0.633338, 39.866243], [-0.633018, 39.866858], [-0.632737, 39.867172], [-0.632495, 39.867186], [-0.632294, 39.866899], [-0.632132, 39.866312], [-0.632206, 39.865781], [-0.632517, 39.865306], [-0.633065, 39.864887], [-0.633849, 39.864525], [-0.634629, 39.864137], [-0.635405, 39.863724], [-0.636177, 39.863287], [-0.636945, 39.862825], [-0.637437, 39.862412], [-0.637653, 39.862049], [-0.637593, 39.861734], [-0.637256, 39.861469], [-0.636877, 39.861283], [-0.636453, 39.861179], [-0.635986, 39.861154], [-0.635476, 39.86121], [-0.634922, 39.861296], [-0.634324, 39.861412], [-0.633683, 39.861558], [-0.632997, 39.861733], [-0.632271, 39.861857], [-0.631503, 39.861928], [-0.630694, 39.861948], [-0.629845, 39.861915], [-0.629118, 39.861843], [-0.628515, 39.861732], [-0.628036, 39.861583], [-0.62768, 39.861396], [-0.627321, 39.861334], [-0.626958, 39.861399], [-0.626592, 39.86159], [-0.626222, 39.861908], [-0.625643, 39.862085], [-0.624853, 39.862121], [-0.623853, 39.862016], [-0.622644, 39.86177], [-0.621735, 39.861725], [-0.621127, 39.861879], [-0.620821, 39.862234], [-0.620815, 39.862789], [-0.620704, 39.863248], [-0.620488, 39.863612], [-0.620167, 39.86388], [-0.619741, 39.864052], [-0.619355, 39.864025], [-0.619009, 39.863799], [-0.618703, 39.863372], [-0.618437, 39.862746], [-0.61831, 39.862175], [-0.618322, 39.861657], [-0.618473, 39.861193], [-0.618762, 39.860784], [-0.618862, 39.860452], [-0.618771, 39.860197], [-0.61849, 39.86002], [-0.618019, 39.85992], [-0.617606, 39.859783], [-0.617252, 39.859607], [-0.616957, 39.859394], [-0.616721, 39.859143], [-0.616588, 39.85888], [-0.616559, 39.858606], [-0.616634, 39.858321], [-0.616812, 39.858024], [-0.616808, 39.857804], [-0.616622, 39.857661], [-0.616254, 39.857594], [-0.615704, 39.857604], [-0.61521, 39.857368], [-0.614773, 39.856887], [-0.614393, 39.85616], [-0.61407, 39.855188], [-0.613645, 39.854434], [-0.613119, 39.8539], [-0.61249, 39.853584], [-0.61176, 39.853488], [-0.611051, 39.853471], [-0.610363, 39.853533], [-0.609697, 39.853675], [-0.609051, 39.853897], [-0.608363, 39.854054], [-0.607631, 39.854146], [-0.606857, 39.854174], [-0.606039, 39.854138], [-0.605474, 39.85396], [-0.605162, 39.853641], [-0.605102, 39.853182], [-0.605295, 39.852581], [-0.605277, 39.85213], [-0.605049, 39.851827], [-0.604609, 39.851674], [-0.603959, 39.851669], [-0.603603, 39.851576], [-0.60354, 39.851394], [-0.603772, 39.851123], [-0.604297, 39.850763], [-0.604739, 39.850394], [-0.605098, 39.850015], [-0.605375, 39.849625], [-0.605569, 39.849226], [-0.605889, 39.848851], [-0.606334, 39.8485], [-0.606905, 39.848174], [-0.607602, 39.847871], [-0.608141, 39.847698], [-0.608524, 39.847657], [-0.60875, 39.847745], [-0.608818, 39.847965], [-0.608956, 39.848107], [-0.609161, 39.848173], [-0.609435, 39.848162], [-0.609778, 39.848074], [-0.610082, 39.847946], [-0.610346, 39.847779], [-0.610572, 39.847572], [-0.610758, 39.847324], [-0.610835, 39.847102], [-0.610802, 39.846904], [-0.61066, 39.846731], [-0.610408, 39.846582], [-0.610233, 39.846305], [-0.610133, 39.8459], [-0.61011, 39.845367], [-0.610163, 39.844707], [-0.610481, 39.844174], [-0.611064, 39.843771], [-0.611911, 39.843495], [-0.613023, 39.843349], [-0.613999, 39.843066], [-0.614839, 39.842646], [-0.615543, 39.842091], [-0.61611, 39.841399], [-0.616508, 39.840808], [-0.616735, 39.840317], [-0.616792, 39.839926], [-0.616679, 39.839636], [-0.616662, 39.839286], [-0.61674, 39.838874], [-0.616913, 39.838402], [-0.617182, 39.837868], [-0.617481, 39.837464], [-0.617809, 39.837189], [-0.618166, 39.837043], [-0.618553, 39.837026], [-0.618815, 39.836896], [-0.618954, 39.836654], [-0.618968, 39.8363], [-0.618859, 39.835833], [-0.618937, 39.835422], [-0.619203, 39.835065], [-0.619656, 39.834764], [-0.620297, 39.834517], [-0.620721, 39.834238], [-0.620929, 39.833925], [-0.620921, 39.83358], [-0.620696, 39.833201], [-0.620525, 39.832855], [-0.620408, 39.83254], [-0.620345, 39.832257], [-0.620336, 39.832006], [-0.620426, 39.831764], [-0.620615, 39.831529], [-0.620902, 39.831302], [-0.621288, 39.831084], [-0.621578, 39.830781], [-0.621774, 39.830394], [-0.621875, 39.829924], [-0.621881, 39.829369], [-0.621672, 39.828894], [-0.62125, 39.828499], [-0.620614, 39.828185], [-0.619764, 39.82795], [-0.618919, 39.827747], [-0.618079, 39.827574], [-0.617244, 39.827432], [-0.616414, 39.827321], [-0.615755, 39.827211], [-0.615266, 39.8271], [-0.614947, 39.82699], [-0.614799, 39.826881], [-0.614678, 39.826736], [-0.614584, 39.826558], [-0.614516, 39.826345], [-0.614475, 39.826097], [-0.61451, 39.825816], [-0.614621, 39.825502], [-0.614807, 39.825154], [-0.615068, 39.824773], [-0.615196, 39.824419], [-0.615191, 39.824092], [-0.615052, 39.823792], [-0.61478, 39.82352], [-0.614508, 39.823442], [-0.614235, 39.82356], [-0.613962, 39.823874], [-0.613689, 39.824382], [-0.61343, 39.824731], [-0.613186, 39.824922], [-0.612956, 39.824953], [-0.61274, 39.824826], [-0.612556, 39.824644], [-0.612404, 39.824409], [-0.612283, 39.82412], [-0.612194, 39.823777], [-0.611957, 39.823526], [-0.611574, 39.823366], [-0.611044, 39.823298], [-0.610366, 39.823322], [-0.609791, 39.823227], [-0.609317, 39.823014], [-0.608946, 39.822683], [-0.608677, 39.822234], [-0.608711, 39.821752], [-0.609048, 39.821236], [-0.609688, 39.820688], [-0.61063, 39.820106], [-0.611325, 39.819596], [-0.611772, 39.819156], [-0.611971, 39.818788], [-0.611922, 39.818491], [-0.611737, 39.818209], [-0.611417, 39.817942], [-0.610962, 39.817689], [-0.610371, 39.817452], [-0.609942, 39.817215], [-0.609676, 39.81698], [-0.609573, 39.816745], [-0.609632, 39.816512], [-0.609798, 39.816343], [-0.610073, 39.816237], [-0.610456, 39.816195], [-0.610946, 39.816217], [-0.611395, 39.816187], [-0.611804, 39.816105], [-0.612171, 39.81597], [-0.612497, 39.815783], [-0.612698, 39.815528], [-0.612775, 39.815205], [-0.612726, 39.814813], [-0.612553, 39.814354], [-0.612296, 39.814023], [-0.611954, 39.813821], [-0.611528, 39.813748], [-0.611018, 39.813804], [-0.610697, 39.813675], [-0.610564, 39.813362], [-0.61062, 39.812865], [-0.610864, 39.812183], [-0.611063, 39.811519], [-0.611216, 39.810872], [-0.611323, 39.810243], [-0.611384, 39.809632], [-0.611474, 39.809093], [-0.611592, 39.808627], [-0.611738, 39.808233], [-0.611912, 39.807912], [-0.612029, 39.80754], [-0.612089, 39.807118], [-0.612092, 39.806645], [-0.612038, 39.806122], [-0.611915, 39.805669], [-0.611722, 39.805287], [-0.61146, 39.804976], [-0.611128, 39.804735], [-0.610914, 39.804519], [-0.610818, 39.804328], [-0.610839, 39.804162], [-0.610978, 39.804021], [-0.61117, 39.803905], [-0.611414, 39.803816], [-0.611712, 39.803752], [-0.612063, 39.803713], [-0.612559, 39.803722], [-0.613201, 39.803778], [-0.613988, 39.803881], [-0.614922, 39.80403], [-0.615842, 39.80415], [-0.616749, 39.80424], [-0.617643, 39.8043], [-0.618524, 39.804329], [-0.619061, 39.804245], [-0.619256, 39.804048], [-0.619107, 39.803736], [-0.618615, 39.803312], [-0.618311, 39.802891], [-0.618193, 39.802476], [-0.618264, 39.802065], [-0.618521, 39.801659], [-0.618749, 39.801269], [-0.618946, 39.800895], [-0.619114, 39.800536], [-0.619252, 39.800194], [-0.619406, 39.799849], [-0.619576, 39.799503], [-0.619762, 39.799155], [-0.619964, 39.798806], [-0.620196, 39.798491], [-0.620458, 39.79821], [-0.62075, 39.797964], [-0.621072, 39.797752], [-0.621376, 39.79753], [-0.621662, 39.797297], [-0.62193, 39.797054], [-0.62218, 39.7968], [-0.622435, 39.796627], [-0.622696, 39.796535], [-0.622962, 39.796525], [-0.623233, 39.796596], [-0.623432, 39.79643], [-0.62356, 39.796025], [-0.623616, 39.795383], [-0.623601, 39.794503], [-0.62368, 39.793707], [-0.623855, 39.792995], [-0.624124, 39.792367], [-0.624489, 39.791823], [-0.624954, 39.79135], [-0.62552, 39.790948], [-0.626187, 39.790617], [-0.626955, 39.790357], [-0.62764, 39.790181], [-0.628241, 39.79009], [-0.628759, 39.790084], [-0.629194, 39.790162], [-0.629572, 39.790391], [-0.629895, 39.790772], [-0.630161, 39.791303], [-0.630371, 39.791986], [-0.630626, 39.7926], [-0.630928, 39.793146], [-0.631274, 39.793625], [-0.631667, 39.794035], [-0.631985, 39.794441], [-0.63223, 39.794843], [-0.632401, 39.79524], [-0.632498, 39.795632], [-0.632633, 39.795813], [-0.632807, 39.795781], [-0.633018, 39.795538], [-0.633267, 39.795082], [-0.63366, 39.794907], [-0.634196, 39.795012], [-0.634876, 39.795397], [-0.6357, 39.796062], [-0.636411, 39.796488], [-0.63701, 39.796675], [-0.637496, 39.796622], [-0.637869, 39.796329], [-0.6382, 39.796122], [-0.638488, 39.796003], [-0.638734, 39.795969], [-0.638938, 39.796023], [-0.639251, 39.796202], [-0.639675, 39.796509], [-0.640209, 39.796941], [-0.640853, 39.797501], [-0.641435, 39.797978], [-0.641955, 39.798375], [-0.642412, 39.79869], [-0.642808, 39.798924], [-0.643204, 39.799113], [-0.643601, 39.799259], [-0.643999, 39.79936], [-0.644398, 39.799417], [-0.644705, 39.799654], [-0.64492, 39.800072], [-0.645043, 39.800669], [-0.645075, 39.801447], [-0.645078, 39.802202], [-0.645053, 39.802935], [-0.645001, 39.803647], [-0.64492, 39.804336], [-0.644947, 39.804843], [-0.645082, 39.805168], [-0.645325, 39.805312], [-0.645676, 39.805273], [-0.645998, 39.805357], [-0.646292, 39.805565], [-0.646557, 39.805894], [-0.646794, 39.806347], [-0.647049, 39.806514], [-0.647322, 39.806396], [-0.647612, 39.805993], [-0.64792, 39.805304], [-0.648256, 39.805034], [-0.648622, 39.805183], [-0.649016, 39.805751], [-0.649439, 39.806737], [-0.649686, 39.807642], [-0.649757, 39.808466], [-0.649653, 39.809208], [-0.649373, 39.809869], [-0.649317, 39.81046], [-0.649485, 39.810984], [-0.649876, 39.811438], [-0.650492, 39.811824], [-0.650989, 39.812034], [-0.651368, 39.812068], [-0.651629, 39.811926], [-0.651771, 39.811608], [-0.651865, 39.811201], [-0.651913, 39.810705], [-0.651913, 39.810119], [-0.651866, 39.809444], [-0.651915, 39.808903], [-0.652058, 39.808497], [-0.652297, 39.808225], [-0.652631, 39.808088], [-0.653055, 39.808199], [-0.653569, 39.808558], [-0.654173, 39.809166], [-0.654866, 39.810022], [-0.655411, 39.810812], [-0.655807, 39.811537], [-0.656054, 39.812196], [-0.656153, 39.81279], [-0.656128, 39.813278], [-0.65598, 39.813659], [-0.65571, 39.813935], [-0.655316, 39.814104], [-0.654985, 39.814411], [-0.654718, 39.814856], [-0.654515, 39.815439], [-0.654374, 39.81616], [-0.654179, 39.816691], [-0.653927, 39.817034], [-0.65362, 39.817187], [-0.653257, 39.817152], [-0.652857, 39.817189], [-0.652421, 39.8173], [-0.651949, 39.817484], [-0.65144, 39.817741], [-0.651062, 39.81801], [-0.650816, 39.818289], [-0.650702, 39.818578], [-0.650719, 39.818879], [-0.650832, 39.819068], [-0.65104, 39.819146], [-0.651342, 39.819113], [-0.65174, 39.818968], [-0.65228, 39.818896], [-0.652962, 39.818897], [-0.653785, 39.818971], [-0.654751, 39.819117], [-0.655613, 39.819179], [-0.656373, 39.819159], [-0.657029, 39.819055], [-0.657582, 39.818869], [-0.658047, 39.818786], [-0.658424, 39.818808], [-0.658713, 39.818934], [-0.658913, 39.819164], [-0.658997, 39.819476], [-0.658965, 39.81987], [-0.658817, 39.820346], [-0.658552, 39.820904], [-0.658447, 39.821394], [-0.658501, 39.821816], [-0.658714, 39.822171], [-0.659086, 39.822458], [-0.659296, 39.822743], [-0.659343, 39.823028], [-0.659227, 39.823311], [-0.65895, 39.823594], [-0.658867, 39.82388], [-0.65898, 39.82417], [-0.659289, 39.824463], [-0.659792, 39.824761], [-0.660229, 39.825141], [-0.660598, 39.825605], [-0.660899, 39.826151], [-0.661134, 39.82678], [-0.661442, 39.827414], [-0.661823, 39.828052], [-0.662279, 39.828695], [-0.662808, 39.829342], [-0.663244, 39.830013], [-0.663586, 39.830706], [-0.663835, 39.831421], [-0.66399, 39.83216], [-0.663941, 39.83294], [-0.663688, 39.833762], [-0.66323, 39.834624], [-0.662569, 39.835529], [-0.661997, 39.836341], [-0.661516, 39.837061], [-0.661125, 39.83769], [-0.660825, 39.838227], [-0.660767, 39.838756], [-0.660951, 39.839277], [-0.661377, 39.839791], [-0.662045, 39.840297], [-0.662736, 39.840839], [-0.663448, 39.841415], [-0.664183, 39.842028], [-0.66494, 39.842675], [-0.665618, 39.843193], [-0.666218, 39.84358], [-0.66674, 39.843838], [-0.667183, 39.843965], [-0.667605, 39.844303], [-0.668004, 39.844851], [-0.668382, 39.84561], [-0.668737, 39.846579], [-0.669152, 39.847314], [-0.669625, 39.847816], [-0.670157, 39.848085], [-0.670747, 39.848121], [-0.671212, 39.848039], [-0.671552, 39.847838], [-0.671767, 39.847518], [-0.671857, 39.84708], [-0.671829, 39.846623], [-0.671686, 39.846148], [-0.671425, 39.845653], [-0.671047, 39.845141], [-0.670624, 39.844545], [-0.670154, 39.843866], [-0.669638, 39.843104], [-0.669075, 39.842259], [-0.66855, 39.841636], [-0.668061, 39.841236], [-0.66761, 39.841059], [-0.667195, 39.841105], [-0.666836, 39.841043], [-0.666532, 39.840875], [-0.666284, 39.8406], [-0.66609, 39.840218], [-0.666036, 39.83984], [-0.66612, 39.839466], [-0.666342, 39.839095], [-0.666703, 39.838728], [-0.666832, 39.83838], [-0.666729, 39.838051], [-0.666393, 39.837741], [-0.665826, 39.837451], [-0.665393, 39.837139], [-0.665094, 39.836807], [-0.66493, 39.836453], [-0.6649, 39.836079], [-0.665076, 39.835719], [-0.665457, 39.835375], [-0.666043, 39.835046], [-0.666835, 39.834732], [-0.667294, 39.834417], [-0.667421, 39.834101], [-0.667214, 39.833784], [-0.666674, 39.833465], [-0.666331, 39.833112], [-0.666186, 39.832725], [-0.666238, 39.832304], [-0.666487, 39.831848], [-0.666894, 39.831419], [-0.66746, 39.831017], [-0.668185, 39.830641], [-0.669069, 39.830292], [-0.669917, 39.830073], [-0.67073, 39.829984], [-0.671508, 39.830024], [-0.67225, 39.830195], [-0.672885, 39.830452], [-0.673413, 39.830797], [-0.673834, 39.83123], [-0.674148, 39.83175], [-0.674432, 39.832241], [-0.674688, 39.832704], [-0.674914, 39.833139], [-0.675112, 39.833546], [-0.675368, 39.833915], [-0.675682, 39.834245], [-0.676056, 39.834538], [-0.676487, 39.834793], [-0.676946, 39.835064], [-0.677432, 39.83535], [-0.677945, 39.835653], [-0.678485, 39.835971], [-0.679088, 39.836182], [-0.679755, 39.836285], [-0.680485, 39.836281], [-0.681277, 39.836168], [-0.682026, 39.835985], [-0.682731, 39.835731], [-0.683391, 39.835407], [-0.684007, 39.835011], [-0.684548, 39.8347], [-0.685013, 39.834472], [-0.685403, 39.834329], [-0.685718, 39.834269], [-0.686032, 39.834398], [-0.686344, 39.834716], [-0.686656, 39.835224], [-0.686967, 39.83592], [-0.687352, 39.836432], [-0.687812, 39.836759], [-0.688347, 39.836902], [-0.688957, 39.83686], [-0.689683, 39.837026], [-0.690524, 39.837399], [-0.691481, 39.837981], [-0.692554, 39.838769], [-0.693444, 39.839434], [-0.694151, 39.839973], [-0.694674, 39.840388], [-0.695015, 39.840678], [-0.695415, 39.840842], [-0.695876, 39.840879], [-0.696397, 39.84079], [-0.696978, 39.840575], [-0.697479, 39.840318], [-0.6979, 39.84002], [-0.698242, 39.83968], [-0.698503, 39.839298], [-0.698904, 39.838782], [-0.699445, 39.83813], [-0.700125, 39.837343], [-0.700946, 39.836422], [-0.701722, 39.835624], [-0.702454, 39.834952], [-0.703142, 39.834403], [-0.703786, 39.83398], [-0.704254, 39.833575], [-0.704547, 39.83319], [-0.704665, 39.832825], [-0.704607, 39.832478], [-0.704834, 39.832037], [-0.705345, 39.831502], [-0.706142, 39.830873], [-0.707222, 39.830149], [-0.708218, 39.829504], [-0.70913, 39.828937], [-0.709958, 39.828449], [-0.710701, 39.82804], [-0.711198, 39.827563], [-0.711448, 39.827019], [-0.711452, 39.826407], [-0.711209, 39.825729], [-0.710807, 39.825168], [-0.710247, 39.824726], [-0.709527, 39.824402], [-0.708649, 39.824197], [-0.707817, 39.824024], [-0.707031, 39.823884], [-0.70629, 39.823777], [-0.705596, 39.823702], [-0.705063, 39.823471], [-0.70469, 39.823084], [-0.704478, 39.82254], [-0.704426, 39.821841], [-0.704464, 39.821238], [-0.704591, 39.820733], [-0.704807, 39.820325], [-0.705112, 39.820014], [-0.70542, 39.819816], [-0.70573, 39.819732], [-0.706043, 39.81976], [-0.706359, 39.819902], [-0.70669, 39.820086], [-0.707036, 39.820312], [-0.707397, 39.820581], [-0.707774, 39.820892], [-0.708022, 39.820921], [-0.708142, 39.820669], [-0.708134, 39.820134], [-0.707998, 39.819318], [-0.707996, 39.818669], [-0.708127, 39.818189], [-0.708391, 39.817876], [-0.708789, 39.817731], [-0.709143, 39.817566], [-0.709453, 39.817381], [-0.709719, 39.817175], [-0.709941, 39.816949], [-0.710142, 39.8166], [-0.710323, 39.816126], [-0.710483, 39.815529], [-0.710623, 39.814808], [-0.710831, 39.814206], [-0.711107, 39.813722], [-0.711452, 39.813356], [-0.711865, 39.813109], [-0.71217, 39.812697], [-0.712366, 39.812121], [-0.712454, 39.811381], [-0.712433, 39.810476], [-0.712444, 39.809713], [-0.712486, 39.809091], [-0.71256, 39.80861], [-0.712666, 39.808271], [-0.713142, 39.807916], [-0.713989, 39.807546], [-0.715207, 39.807159], [-0.716795, 39.806757], [-0.718144, 39.806772], [-0.719255, 39.807204], [-0.720126, 39.808052], [-0.720759, 39.809318], [-0.721348, 39.810368], [-0.721893, 39.811202], [-0.722394, 39.811821], [-0.72285, 39.812224], [-0.723217, 39.812624], [-0.723495, 39.813022], [-0.723682, 39.813417], [-0.72378, 39.813809], [-0.723979, 39.814222], [-0.724278, 39.814655], [-0.724679, 39.815108], [-0.72518, 39.815582], [-0.725661, 39.816083], [-0.726122, 39.816612], [-0.726564, 39.817168], [-0.726986, 39.817751], [-0.727314, 39.818357], [-0.727549, 39.818986], [-0.72769, 39.819638], [-0.727738, 39.820313], [-0.727877, 39.820953], [-0.728108, 39.821557], [-0.72843, 39.822127], [-0.728844, 39.82266], [-0.729225, 39.823191], [-0.729573, 39.82372], [-0.729888, 39.824246], [-0.73017, 39.824769], [-0.730448, 39.825412], [-0.730721, 39.826176], [-0.73099, 39.827059], [-0.731255, 39.828063], [-0.731566, 39.829049], [-0.731923, 39.830017], [-0.732325, 39.830968], [-0.732773, 39.831901], [-0.733236, 39.832776], [-0.733713, 39.833593], [-0.734205, 39.834351], [-0.734712, 39.835051], [-0.735379, 39.83555], [-0.736209, 39.835849], [-0.737199, 39.835947], [-0.738351, 39.835845], [-0.739253, 39.835896], [-0.739904, 39.836102], [-0.740305, 39.83646], [-0.740455, 39.836973], [-0.740658, 39.83741], [-0.740914, 39.837773], [-0.741221, 39.83806], [-0.741582, 39.838272], [-0.741888, 39.838503], [-0.742141, 39.838752], [-0.74234, 39.839019], [-0.742485, 39.839306], [-0.742459, 39.839586], [-0.742261, 39.83986], [-0.741892, 39.840127], [-0.741351, 39.840389], [-0.740813, 39.840713], [-0.740277, 39.8411], [-0.739743, 39.841549], [-0.739212, 39.842061], [-0.738614, 39.842373], [-0.737951, 39.842484], [-0.737221, 39.842395], [-0.736426, 39.842105], [-0.735415, 39.842028], [-0.734187, 39.842163], [-0.732744, 39.842512], [-0.731084, 39.843073], [-0.729562, 39.843588], [-0.728179, 39.844056], [-0.726934, 39.844476], [-0.725828, 39.844851], [-0.724843, 39.845274], [-0.72398, 39.845748], [-0.723239, 39.84627], [-0.722621, 39.846842], [-0.722271, 39.847372], [-0.72219, 39.84786], [-0.722378, 39.848305], [-0.722835, 39.848708], [-0.723388, 39.849006], [-0.724037, 39.849199], [-0.724782, 39.849287], [-0.725624, 39.84927], [-0.726229, 39.849102], [-0.726598, 39.848784], [-0.726731, 39.848316], [-0.726628, 39.847698], [-0.726664, 39.847183], [-0.726839, 39.846773], [-0.727153, 39.846468], [-0.727607, 39.846267], [-0.728063, 39.846178], [-0.728522, 39.846203], [-0.728983, 39.846341], [-0.729447, 39.846592], [-0.72988, 39.846948], [-0.730282, 39.847407], [-0.730652, 39.847971], [-0.730991, 39.848639], [-0.731507, 39.849155], [-0.732201, 39.849519], [-0.733073, 39.849732], [-0.734122, 39.849792], [-0.735042, 39.849659], [-0.735832, 39.849332], [-0.736492, 39.848812], [-0.737022, 39.848098], [-0.737461, 39.847666], [-0.737809, 39.847514], [-0.738066, 39.847643], [-0.738232, 39.848053], [-0.738305, 39.848486], [-0.738283, 39.848942], [-0.738169, 39.84942], [-0.73796, 39.849922], [-0.737978, 39.850367], [-0.738221, 39.850756], [-0.738691, 39.851089], [-0.739387, 39.851364], [-0.739923, 39.851463], [-0.740299, 39.851383], [-0.740516, 39.851126], [-0.740573, 39.850691], [-0.740689, 39.850269], [-0.740865, 39.849859], [-0.741098, 39.849462], [-0.741391, 39.849077], [-0.741673, 39.848869], [-0.741944, 39.848839], [-0.742204, 39.848987], [-0.742454, 39.849312], [-0.742613, 39.849779], [-0.742682, 39.850389], [-0.742662, 39.851141], [-0.742552, 39.852035], [-0.742667, 39.852772], [-0.743008, 39.853351], [-0.743574, 39.853774], [-0.744365, 39.854039], [-0.744964, 39.854319], [-0.745371, 39.854614], [-0.745585, 39.854924], [-0.745607, 39.855249], [-0.745335, 39.855613], [-0.744769, 39.856016], [-0.743909, 39.856458], [-0.742755, 39.856938], [-0.741714, 39.857217], [-0.740785, 39.857295], [-0.739968, 39.857171], [-0.739264, 39.856845], [-0.73852, 39.856575], [-0.737737, 39.856359], [-0.736915, 39.856198], [-0.736052, 39.856092], [-0.735301, 39.856068], [-0.734661, 39.856126], [-0.734133, 39.856266], [-0.733715, 39.856489], [-0.733392, 39.856739], [-0.733162, 39.857016], [-0.733026, 39.857321], [-0.732984, 39.857653], [-0.732881, 39.85796], [-0.732717, 39.858243], [-0.732493, 39.858501], [-0.732207, 39.858734], [-0.731753, 39.858935], [-0.731132, 39.859105], [-0.730343, 39.859242], [-0.729386, 39.859348], [-0.728716, 39.859466], [-0.728331, 39.859597], [-0.728233, 39.85974], [-0.728422, 39.859895], [-0.728805, 39.860048], [-0.729382, 39.860199], [-0.730154, 39.860347], [-0.73112, 39.860492], [-0.732026, 39.860618], [-0.732873, 39.860726], [-0.733659, 39.860816], [-0.734386, 39.860887], [-0.734913, 39.860835], [-0.735241, 39.86066], [-0.73537, 39.860362], [-0.735299, 39.859942], [-0.735378, 39.859637], [-0.735607, 39.859448], [-0.735984, 39.859375], [-0.736511, 39.859417], [-0.737062, 39.859558], [-0.737638, 39.859797], [-0.738239, 39.860133], [-0.738864, 39.860568], [-0.739517, 39.860981], [-0.7402, 39.861372], [-0.740911, 39.86174], [-0.741651, 39.862087], [-0.742373, 39.862423], [-0.743077, 39.862748], [-0.743764, 39.863062], [-0.744432, 39.863366], [-0.745032, 39.863653], [-0.745564, 39.863921], [-0.746028, 39.864172], [-0.746425, 39.864406], [-0.746747, 39.864679], [-0.746994, 39.864992], [-0.747166, 39.865344], [-0.747265, 39.865736], [-0.7474, 39.865961], [-0.747572, 39.866017], [-0.74778, 39.865906], [-0.748026, 39.865627], [-0.748213, 39.865291], [-0.748343, 39.864899], [-0.748414, 39.86445], [-0.748427, 39.863945], [-0.748302, 39.863493], [-0.74804, 39.863093], [-0.747641, 39.862747], [-0.747105, 39.862453], [-0.746876, 39.862057], [-0.746955, 39.861557], [-0.747341, 39.860953], [-0.748035, 39.860247], [-0.748624, 39.85969], [-0.749108, 39.859284], [-0.749487, 39.859028], [-0.749762, 39.858922], [-0.750099, 39.858847], [-0.750497, 39.858803], [-0.750958, 39.858789], [-0.751481, 39.858807], [-0.75187, 39.858707], [-0.752126, 39.85849], [-0.752248, 39.858155], [-0.752238, 39.857703], [-0.752099, 39.857214], [-0.751832, 39.85669], [-0.751438, 39.856129], [-0.750916, 39.855531], [-0.750804, 39.855059], [-0.751103, 39.854711], [-0.751813, 39.854487], [-0.752933, 39.854388], [-0.753999, 39.854302], [-0.755009, 39.854228], [-0.755965, 39.854166], [-0.756866, 39.854117], [-0.757768, 39.854117], [-0.75867, 39.854169], [-0.759572, 39.85427], [-0.760474, 39.854422], [-0.761256, 39.854632], [-0.761918, 39.854899], [-0.76246, 39.855223], [-0.762881, 39.855604], [-0.763352, 39.855892], [-0.763871, 39.856087], [-0.764441, 39.856188], [-0.765059, 39.856195], [-0.765662, 39.856399], [-0.766248, 39.8568], [-0.76682, 39.857398], [-0.767375, 39.858193], [-0.767892, 39.858608], [-0.768369, 39.858643], [-0.768806, 39.858299], [-0.769204, 39.857574], [-0.769609, 39.856988], [-0.770021, 39.856539], [-0.77044, 39.856228], [-0.770866, 39.856055], [-0.771303, 39.85595], [-0.771752, 39.855912], [-0.772212, 39.855943], [-0.772683, 39.856042], [-0.773008, 39.855994], [-0.773186, 39.855797], [-0.773218, 39.855454], [-0.773103, 39.854963], [-0.773108, 39.854464], [-0.773235, 39.853959], [-0.773482, 39.853447], [-0.773849, 39.852927], [-0.774208, 39.852402], [-0.774557, 39.851872], [-0.774898, 39.851337], [-0.775229, 39.850796], [-0.775529, 39.850309], [-0.775798, 39.849876], [-0.776035, 39.849497], [-0.77624, 39.849172], [-0.776545, 39.848811], [-0.776949, 39.848413], [-0.777453, 39.847979], [-0.778056, 39.847509], [-0.778697, 39.847022], [-0.779375, 39.846519], [-0.780092, 39.845998], [-0.780846, 39.845461], [-0.781426, 39.845239], [-0.781831, 39.845333], [-0.782062, 39.845742], [-0.782119, 39.846466], [-0.782167, 39.847141], [-0.782207, 39.847766], [-0.782239, 39.848342], [-0.782263, 39.848869], [-0.782316, 39.84943], [-0.7824, 39.850025], [-0.782514, 39.850655], [-0.782658, 39.85132], [-0.782889, 39.851924], [-0.783208, 39.852468], [-0.783614, 39.852952], [-0.784108, 39.853376], [-0.78469, 39.853796], [-0.785361, 39.854213], [-0.78612, 39.854626], [-0.786969, 39.855036], [-0.787764, 39.85542], [-0.788507, 39.855779], [-0.789196, 39.856112], [-0.789832, 39.856419], [-0.790474, 39.856757], [-0.791121, 39.857126], [-0.791772, 39.857526], [-0.79243, 39.857957], [-0.792989, 39.858386], [-0.793451, 39.858814], [-0.793815, 39.859239], [-0.794081, 39.859663], [-0.794253, 39.860155], [-0.79433, 39.860713], [-0.794314, 39.861338], [-0.794203, 39.862031], [-0.794354, 39.862543], [-0.794767, 39.862875], [-0.795442, 39.863027], [-0.79638, 39.862999], [-0.79714, 39.863122], [-0.797722, 39.863397], [-0.798127, 39.863825], [-0.798354, 39.864404], [-0.798432, 39.864912], [-0.798359, 39.865349], [-0.798136, 39.865714], [-0.797763, 39.866007], [-0.797562, 39.866357], [-0.797533, 39.866763], [-0.797676, 39.867226], [-0.79799, 39.867746], [-0.798576, 39.868134], [-0.799431, 39.868392], [-0.800557, 39.868518], [-0.801954, 39.868514], [-0.803199, 39.868672], [-0.804292, 39.868991], [-0.805234, 39.869472], [-0.806025, 39.870115], [-0.8067, 39.870752], [-0.807261, 39.871382], [-0.807708, 39.872007], [-0.808039, 39.872625], [-0.808353, 39.873233], [-0.808648, 39.87383], [-0.808926, 39.874416], [-0.809185, 39.874992], [-0.809302, 39.875489], [-0.809275, 39.875908], [-0.809105, 39.876248], [-0.808791, 39.87651], [-0.808439, 39.876732], [-0.808047, 39.876914], [-0.807616, 39.877056], [-0.807146, 39.877159], [-0.806675, 39.877306], [-0.806203, 39.877497], [-0.805731, 39.877732], [-0.805258, 39.878012], [-0.804954, 39.878373], [-0.804817, 39.878817], [-0.804849, 39.879342], [-0.805049, 39.87995], [-0.805133, 39.880596], [-0.805102, 39.881279], [-0.804955, 39.882001], [-0.804693, 39.882761], [-0.804426, 39.88344], [-0.804153, 39.884037], [-0.803874, 39.884553], [-0.80359, 39.884988], [-0.803183, 39.885373], [-0.802655, 39.885709], [-0.802004, 39.885995], [-0.801232, 39.886233], [-0.800721, 39.886529], [-0.800472, 39.886884], [-0.800485, 39.887298], [-0.80076, 39.887772], [-0.801117, 39.8884], [-0.801558, 39.889182], [-0.802081, 39.890119], [-0.802688, 39.891211], [-0.803423, 39.8922], [-0.804287, 39.893086], [-0.805281, 39.893871], [-0.806403, 39.894552], [-0.807119, 39.895184], [-0.807429, 39.895767], [-0.807332, 39.896301], [-0.806828, 39.896785], [-0.806374, 39.897226], [-0.80597, 39.897624], [-0.805615, 39.897978], [-0.80531, 39.898289], [-0.804935, 39.89857], [-0.80449, 39.898821], [-0.803974, 39.899043], [-0.803389, 39.899234], [-0.803131, 39.899489], [-0.803201, 39.899809], [-0.803599, 39.900193], [-0.804325, 39.900641], [-0.804628, 39.901042], [-0.804509, 39.901396], [-0.803967, 39.901702], [-0.803003, 39.90196], [-0.8022, 39.902257], [-0.801557, 39.902593], [-0.801076, 39.902968], [-0.800756, 39.903381], [-0.80062, 39.903831], [-0.800669, 39.904317], [-0.800904, 39.904839], [-0.801323, 39.905397], [-0.801636, 39.905954], [-0.801844, 39.906511], [-0.801945, 39.907066], [-0.801941, 39.907621], [-0.80181, 39.908096], [-0.801551, 39.90849], [-0.801165, 39.908803], [-0.800652, 39.909037], [-0.799986, 39.909186], [-0.799168, 39.909252], [-0.798198, 39.909234], [-0.797075, 39.909132], [-0.796061, 39.909144], [-0.795156, 39.90927], [-0.794359, 39.909509], [-0.793671, 39.909863], [-0.792933, 39.910209], [-0.792145, 39.910549], [-0.791307, 39.910881], [-0.790419, 39.911207], [-0.789633, 39.911659], [-0.78895, 39.912239], [-0.78837, 39.912946], [-0.787893, 39.91378], [-0.787458, 39.914578], [-0.787066, 39.915339], [-0.786717, 39.916064], [-0.78641, 39.916754], [-0.785965, 39.917395], [-0.785382, 39.917989], [-0.784662, 39.918535], [-0.783802, 39.919033], [-0.782997, 39.919513], [-0.782246, 39.919975], [-0.781548, 39.920417], [-0.780904, 39.920841], [-0.780076, 39.921141], [-0.779065, 39.921316], [-0.777871, 39.921367], [-0.776493, 39.921293], [-0.775486, 39.921448], [-0.774852, 39.921834], [-0.77459, 39.922449], [-0.774699, 39.923293], [-0.774799, 39.924082], [-0.77489, 39.924815], [-0.774971, 39.925493], [-0.775043, 39.926115], [-0.775006, 39.926711], [-0.774858, 39.927282], [-0.7746, 39.927827], [-0.774232, 39.928346], [-0.7741, 39.92882], [-0.774205, 39.92925], [-0.774546, 39.929634], [-0.775123, 39.929973], [-0.775663, 39.930184], [-0.776165, 39.930267], [-0.776628, 39.930222], [-0.777055, 39.930049], [-0.777431, 39.930064], [-0.777758, 39.930267], [-0.778035, 39.930658], [-0.778263, 39.931238], [-0.778659, 39.93166], [-0.779224, 39.931925], [-0.779957, 39.932032], [-0.78086, 39.931983], [-0.781614, 39.931924], [-0.782221, 39.931857], [-0.782679, 39.931781], [-0.78299, 39.931696], [-0.783279, 39.931525], [-0.783545, 39.931269], [-0.783788, 39.930927], [-0.784009, 39.9305], [-0.784103, 39.929948], [-0.78407, 39.929271], [-0.783911, 39.92847], [-0.783625, 39.927544], [-0.783493, 39.926809], [-0.783515, 39.926265], [-0.783692, 39.925911], [-0.784022, 39.925749], [-0.784327, 39.925532], [-0.784607, 39.925262], [-0.784861, 39.924938], [-0.78509, 39.92456], [-0.785474, 39.924328], [-0.786012, 39.924243], [-0.786706, 39.924305], [-0.787554, 39.924513], [-0.788502, 39.924786], [-0.78955, 39.925123], [-0.790699, 39.925524], [-0.791948, 39.92599], [-0.792942, 39.926529], [-0.793679, 39.92714], [-0.79416, 39.927824], [-0.794385, 39.92858], [-0.794487, 39.929286], [-0.794468, 39.929944], [-0.794326, 39.930551], [-0.794063, 39.93111], [-0.793845, 39.931701], [-0.793674, 39.932324], [-0.793549, 39.932981], [-0.79347, 39.93367], [-0.7932, 39.934336], [-0.792739, 39.934979], [-0.792087, 39.9356], [-0.791245, 39.936197], [-0.790422, 39.936817], [-0.78962, 39.937461], [-0.788838, 39.938127], [-0.788076, 39.938816], [-0.787437, 39.939082], [-0.786923, 39.938925], [-0.786533, 39.938345], [-0.786266, 39.937342], [-0.785734, 39.93679], [-0.784937, 39.936689], [-0.783874, 39.93704], [-0.782545, 39.937843], [-0.781326, 39.938425], [-0.780216, 39.938787], [-0.779215, 39.93893], [-0.778324, 39.938852], [-0.777482, 39.938725], [-0.776688, 39.938549], [-0.775942, 39.938323], [-0.775245, 39.938047], [-0.774383, 39.937897], [-0.773354, 39.937873], [-0.772159, 39.937973], [-0.770799, 39.9382], [-0.769637, 39.938303], [-0.768675, 39.938284], [-0.767911, 39.938142], [-0.767346, 39.937877], [-0.766678, 39.937629], [-0.765908, 39.9374], [-0.765035, 39.937188], [-0.764059, 39.936994], [-0.76308, 39.936875], [-0.762097, 39.936833], [-0.761111, 39.936866], [-0.760121, 39.936976], [-0.759135, 39.937205], [-0.758153, 39.937553], [-0.757174, 39.93802], [-0.756199, 39.938607], [-0.755419, 39.93909], [-0.754832, 39.93947], [-0.754439, 39.939746], [-0.754241, 39.939919], [-0.754211, 39.940225], [-0.754349, 39.940663], [-0.754656, 39.941234], [-0.755132, 39.941937], [-0.755352, 39.942568], [-0.755316, 39.943126], [-0.755023, 39.943612], [-0.754475, 39.944025], [-0.754011, 39.944461], [-0.753633, 39.944918], [-0.753339, 39.945398], [-0.75313, 39.9459], [-0.752876, 39.946224], [-0.752575, 39.94637], [-0.752229, 39.946339], [-0.751836, 39.946131], [-0.751537, 39.945855], [-0.751333, 39.945512], [-0.751224, 39.945103], [-0.751209, 39.944626], [-0.750956, 39.944137], [-0.750466, 39.943637], [-0.749738, 39.943125], [-0.748772, 39.942602], [-0.747985, 39.942129], [-0.747377, 39.941705], [-0.746948, 39.94133], [-0.746698, 39.941005], [-0.746517, 39.940698], [-0.746403, 39.940408], [-0.746358, 39.940136], [-0.74638, 39.939881], [-0.746085, 39.939769], [-0.745472, 39.939799], [-0.744541, 39.939971], [-0.743293, 39.940285], [-0.742235, 39.940667], [-0.741367, 39.941115], [-0.740689, 39.941631], [-0.740201, 39.942214], [-0.739643, 39.942666], [-0.739014, 39.942988], [-0.738314, 39.943178], [-0.737544, 39.943238], [-0.736857, 39.943169], [-0.736255, 39.942971], [-0.735736, 39.942644], [-0.735302, 39.942188], [-0.734899, 39.941723], [-0.734527, 39.941247], [-0.734185, 39.940762], [-0.733875, 39.940267], [-0.733434, 39.939869], [-0.732863, 39.939567], [-0.732162, 39.939361], [-0.73133, 39.939251], [-0.730693, 39.939283], [-0.730251, 39.939458], [-0.730003, 39.939775], [-0.72995, 39.940234], [-0.730098, 39.940779], [-0.730448, 39.941408], [-0.730998, 39.942122], [-0.73175, 39.94292], [-0.732364, 39.943672], [-0.732839, 39.944375], [-0.733177, 39.94503], [-0.733376, 39.945638], [-0.733731, 39.946204], [-0.734242, 39.946727], [-0.734908, 39.947207], [-0.735729, 39.947646], [-0.736557, 39.948027], [-0.737392, 39.94835], [-0.738234, 39.948616], [-0.739082, 39.948825], [-0.739851, 39.949049], [-0.740542, 39.949287], [-0.741154, 39.949541], [-0.741687, 39.94981], [-0.742092, 39.950143], [-0.74237, 39.95054], [-0.742521, 39.951002], [-0.742544, 39.951529], [-0.742794, 39.951999], [-0.74327, 39.952412], [-0.743972, 39.952769], [-0.744901, 39.95307], [-0.745811, 39.953454], [-0.746703, 39.953922], [-0.747576, 39.954475], [-0.748431, 39.955111], [-0.749242, 39.955727], [-0.750009, 39.956322], [-0.750732, 39.956897], [-0.751411, 39.957452], [-0.751888, 39.958017], [-0.752163, 39.958591], [-0.752237, 39.959175], [-0.752109, 39.959768], [-0.752076, 39.960446], [-0.752139, 39.961207], [-0.752297, 39.962053], [-0.752551, 39.962982], [-0.752923, 39.963747], [-0.753415, 39.964348], [-0.754025, 39.964784], [-0.754754, 39.965056], [-0.755433, 39.965516], [-0.756063, 39.966165], [-0.756642, 39.967001], [-0.757173, 39.968026], [-0.757604, 39.969043], [-0.757936, 39.970052], [-0.758169, 39.971052], [-0.758304, 39.972045], [-0.758304, 39.97287], [-0.758171, 39.973528], [-0.757903, 39.974017], [-0.757501, 39.974338], [-0.757032, 39.974548], [-0.756495, 39.974645], [-0.755891, 39.97463], [-0.755219, 39.974503], [-0.754523, 39.974284], [-0.753804, 39.973973], [-0.753061, 39.97357], [-0.752294, 39.973075], [-0.751377, 39.972698], [-0.750308, 39.972438], [-0.749088, 39.972296], [-0.747717, 39.972271], [-0.746305, 39.972238], [-0.74485, 39.972197], [-0.743353, 39.972148], [-0.741814, 39.972092], [-0.740322, 39.971878], [-0.738877, 39.971509], [-0.737479, 39.970983], [-0.736128, 39.970301], [-0.735148, 39.969647], [-0.734539, 39.969021], [-0.734301, 39.968424], [-0.734433, 39.967855], [-0.734337, 39.967381], [-0.734013, 39.967001], [-0.733461, 39.966715], [-0.732681, 39.966524], [-0.731992, 39.966443], [-0.731395, 39.966471], [-0.730889, 39.966609], [-0.730475, 39.966856], [-0.729939, 39.966959], [-0.729282, 39.966918], [-0.728502, 39.966733], [-0.727601, 39.966404], [-0.726784, 39.966136], [-0.726049, 39.965927], [-0.725398, 39.965778], [-0.72483, 39.96569], [-0.724274, 39.96548], [-0.723731, 39.96515], [-0.7232, 39.964698], [-0.722681, 39.964125], [-0.722116, 39.963766], [-0.721506, 39.963619], [-0.72085, 39.963685], [-0.720149, 39.963964], [-0.71922, 39.964053], [-0.718065, 39.963954], [-0.716683, 39.963665], [-0.715074, 39.963188], [-0.713611, 39.962757], [-0.712294, 39.962373], [-0.711124, 39.962036], [-0.710099, 39.961745], [-0.709159, 39.961471], [-0.708302, 39.961213], [-0.70753, 39.96097], [-0.706841, 39.960744], [-0.706269, 39.960485], [-0.705814, 39.960195], [-0.705476, 39.959874], [-0.705254, 39.95952]]]}}]}