{"type": "FeatureCollection", "name": "BURON", "features": [{"type": "Feature", "properties": {"id": "278481", "FIREDATE": "2025-08-14T01:09:00", "FINALDATE": "2025-08-25T14:10:00", "LASTUPDATE": "2025-08-18 07:19:03.385613", "COUNTRY": "ES", "PROVINCE": "León", "COMMUNE": "Burón", "AREA_HA": 19112.0, "BROADLEA": 13.2298, "CONIFER": 1.0141, "MIXED": 0.5436, "SCLEROPH": 0.0, "TRANSIT": 0.8207, "OTHERNATLC": 84.3186, "AGRIAREAS": 0.068, "ARTIFSURF": 0.0052, "OTHERLC": 0.0, "PERCNA2K": 100.0, "CLASS": "FireSeason", "AÑO": 2025, "LATITUD": 43.03945080457102, "LONGITUD": -4.8681051990927235}, "geometry": {"type": "Polygon", "coordinates": [[[-4.915547, 43.112056], [-4.915718, 43.111832], [-4.915765, 43.111484], [-4.915688, 43.111014], [-4.91551, 43.110494], [-4.915232, 43.109925], [-4.914578, 43.109861], [-4.91355, 43.110302], [-4.912824, 43.110554], [-4.912401, 43.110617], [-4.912004, 43.110611], [-4.911633, 43.110537], [-4.911074, 43.110668], [-4.910326, 43.111003], [-4.909703, 43.111464], [-4.909206, 43.112051], [-4.908596, 43.112366], [-4.907871, 43.112409], [-4.907249, 43.112534], [-4.906731, 43.112739], [-4.906233, 43.113278], [-4.905755, 43.114151], [-4.904967, 43.114589], [-4.903869, 43.11459], [-4.903039, 43.114697], [-4.902479, 43.114908], [-4.901929, 43.115246], [-4.901389, 43.115711], [-4.901099, 43.116204], [-4.901057, 43.116724], [-4.901152, 43.117095], [-4.901385, 43.117318], [-4.901505, 43.117525], [-4.90151, 43.117717], [-4.901195, 43.117859], [-4.90056, 43.117953], [-4.900188, 43.117703], [-4.90008, 43.117109], [-4.899905, 43.117199], [-4.899665, 43.117973], [-4.899386, 43.118512], [-4.899069, 43.118816], [-4.898734, 43.118367], [-4.898381, 43.117167], [-4.898292, 43.116393], [-4.898466, 43.116046], [-4.898415, 43.115845], [-4.898137, 43.11579], [-4.89785, 43.115784], [-4.897553, 43.115828], [-4.897405, 43.115593], [-4.897405, 43.115079], [-4.8975, 43.11468], [-4.89769, 43.114395], [-4.897199, 43.114194], [-4.896027, 43.114078], [-4.895269, 43.114206], [-4.894926, 43.114578], [-4.894516, 43.114863], [-4.89404, 43.115062], [-4.893681, 43.115291], [-4.893441, 43.115552], [-4.89325, 43.115837], [-4.89311, 43.116146], [-4.892936, 43.116493], [-4.892727, 43.116877], [-4.892481, 43.117202], [-4.892199, 43.117469], [-4.89177, 43.117596], [-4.891196, 43.117585], [-4.890914, 43.117771], [-4.890925, 43.118155], [-4.891166, 43.118408], [-4.891637, 43.118531], [-4.891833, 43.118695], [-4.891754, 43.118899], [-4.891455, 43.119104], [-4.890936, 43.119309], [-4.890243, 43.119347], [-4.889375, 43.119218], [-4.888832, 43.119154], [-4.888612, 43.119154], [-4.888604, 43.11938], [-4.888808, 43.119832], [-4.888695, 43.12033], [-4.888264, 43.120875], [-4.887756, 43.121207], [-4.887171, 43.121326], [-4.886956, 43.121592], [-4.887111, 43.122007], [-4.887174, 43.122214], [-4.887144, 43.122214], [-4.887084, 43.122245], [-4.886994, 43.122307], [-4.886896, 43.122474], [-4.88679, 43.122747], [-4.886819, 43.123031], [-4.886983, 43.123328], [-4.887289, 43.123492], [-4.887736, 43.123522], [-4.888063, 43.123683], [-4.88827, 43.123973], [-4.888008, 43.124237], [-4.887278, 43.124473], [-4.886514, 43.124409], [-4.885718, 43.124045], [-4.885225, 43.123668], [-4.885037, 43.123278], [-4.884513, 43.123034], [-4.883653, 43.122936], [-4.883149, 43.123026], [-4.883001, 43.123305], [-4.883191, 43.123614], [-4.883717, 43.123954], [-4.884194, 43.124269], [-4.88462, 43.12456], [-4.885147, 43.1249], [-4.885774, 43.125289], [-4.885766, 43.125515], [-4.885123, 43.125577], [-4.884714, 43.125782], [-4.88454, 43.126129], [-4.884113, 43.126176], [-4.883433, 43.125923], [-4.88307, 43.125623], [-4.883025, 43.125277], [-4.882837, 43.125144], [-4.882506, 43.125225], [-4.882062, 43.12529], [-4.881503, 43.12534], [-4.881351, 43.12509], [-4.881605, 43.124539], [-4.881811, 43.124059], [-4.88197, 43.12365], [-4.882017, 43.123322], [-4.881953, 43.123074], [-4.882021, 43.122824], [-4.882219, 43.12257], [-4.882408, 43.122372], [-4.882588, 43.122232], [-4.882627, 43.122161], [-4.882525, 43.12216], [-4.882522, 43.122057], [-4.882619, 43.121851], [-4.882733, 43.121579], [-4.882865, 43.121238], [-4.883095, 43.120594], [-4.883423, 43.119646], [-4.883891, 43.11916], [-4.884499, 43.119134], [-4.885005, 43.119221], [-4.885407, 43.119418], [-4.885855, 43.119368], [-4.88635, 43.11907], [-4.886708, 43.118584], [-4.88693, 43.117909], [-4.886805, 43.11751], [-4.886334, 43.117387], [-4.886267, 43.117124], [-4.886603, 43.116721], [-4.886932, 43.116464], [-4.887255, 43.116352], [-4.887448, 43.116163], [-4.887511, 43.115897], [-4.887495, 43.115578], [-4.887399, 43.115206], [-4.8876, 43.115048], [-4.888098, 43.115103], [-4.888332, 43.114989], [-4.888303, 43.114704], [-4.888425, 43.114413], [-4.8887, 43.114115], [-4.888642, 43.113803], [-4.88825, 43.113475], [-4.887668, 43.113433], [-4.886896, 43.113675], [-4.886482, 43.113688], [-4.886426, 43.113471], [-4.886289, 43.113363], [-4.886069, 43.113363], [-4.885818, 43.113497], [-4.885535, 43.113763], [-4.885163, 43.114027], [-4.884703, 43.114287], [-4.884334, 43.11439], [-4.884056, 43.114335], [-4.883727, 43.114335], [-4.883346, 43.114391], [-4.883136, 43.114342], [-4.883096, 43.114187], [-4.883155, 43.113906], [-4.883314, 43.113497], [-4.883386, 43.112924], [-4.883373, 43.112188], [-4.883232, 43.11147], [-4.882965, 43.110771], [-4.882696, 43.110409], [-4.882426, 43.110384], [-4.882278, 43.110149], [-4.882251, 43.109704], [-4.882619, 43.109168], [-4.88338, 43.108542], [-4.884274, 43.108346], [-4.885301, 43.10858], [-4.886138, 43.108504], [-4.886786, 43.10812], [-4.886856, 43.107708], [-4.886348, 43.107269], [-4.885594, 43.106899], [-4.884594, 43.106596], [-4.884113, 43.106266], [-4.884153, 43.105907], [-4.883277, 43.105747], [-4.881487, 43.105786], [-4.880571, 43.105985], [-4.880532, 43.106344], [-4.879947, 43.106463], [-4.878818, 43.10634], [-4.87812, 43.106443], [-4.877853, 43.106772], [-4.877313, 43.10698], [-4.876501, 43.107067], [-4.875473, 43.106913], [-4.87423, 43.106519], [-4.873462, 43.10652], [-4.873168, 43.106916], [-4.873056, 43.107334], [-4.873125, 43.107773], [-4.873048, 43.108074], [-4.872826, 43.108235], [-4.87255, 43.108613], [-4.872219, 43.109207], [-4.871711, 43.110053], [-4.871027, 43.111149], [-4.870383, 43.111806], [-4.86978, 43.112023], [-4.869081, 43.112383], [-4.868288, 43.112885], [-4.867351, 43.113344], [-4.866272, 43.11376], [-4.865536, 43.114142], [-4.865141, 43.114489], [-4.864853, 43.11482], [-4.864671, 43.115136], [-4.864787, 43.115504], [-4.865203, 43.115925], [-4.864888, 43.116067], [-4.863843, 43.115932], [-4.863233, 43.116295], [-4.863058, 43.117156], [-4.862752, 43.117586], [-4.862313, 43.117587], [-4.861818, 43.117114], [-4.861267, 43.116167], [-4.86105, 43.116263], [-4.861167, 43.117402], [-4.861186, 43.118587], [-4.861106, 43.119819], [-4.860923, 43.120473], [-4.860634, 43.120547], [-4.860223, 43.120142], [-4.859688, 43.119257], [-4.859254, 43.119193], [-4.858921, 43.119948], [-4.858573, 43.120305], [-4.858211, 43.120262], [-4.857983, 43.120231], [-4.857891, 43.120212], [-4.857865, 43.119943], [-4.857908, 43.119423], [-4.857275, 43.119099], [-4.855968, 43.11897], [-4.854996, 43.119033], [-4.854359, 43.119287], [-4.85362, 43.119235], [-4.852782, 43.118877], [-4.851767, 43.118689], [-4.850577, 43.118672], [-4.849667, 43.118549], [-4.849037, 43.11832], [-4.848545, 43.117943], [-4.84819, 43.117417], [-4.847749, 43.116808], [-4.84722, 43.116115], [-4.846714, 43.115515], [-4.846233, 43.115008], [-4.846047, 43.114537], [-4.846155, 43.114104], [-4.84641, 43.114243], [-4.846812, 43.114955], [-4.847148, 43.115323], [-4.847418, 43.115347], [-4.847648, 43.115474], [-4.847839, 43.115703], [-4.848036, 43.116043], [-4.848239, 43.116495], [-4.848552, 43.117027], [-4.848972, 43.117639], [-4.849563, 43.117889], [-4.850325, 43.117777], [-4.851094, 43.117777], [-4.851869, 43.117887], [-4.852573, 43.117977], [-4.853205, 43.118044], [-4.853771, 43.118025], [-4.854271, 43.117919], [-4.855114, 43.117779], [-4.856299, 43.117605], [-4.856851, 43.117443], [-4.856769, 43.117295], [-4.856628, 43.117091], [-4.85643, 43.116831], [-4.856675, 43.116586], [-4.857363, 43.116357], [-4.857706, 43.115985], [-4.857706, 43.115471], [-4.857381, 43.11523], [-4.85673, 43.115261], [-4.856236, 43.115559], [-4.855897, 43.116123], [-4.85552, 43.116451], [-4.855105, 43.116544], [-4.854316, 43.116468], [-4.853155, 43.116221], [-4.852501, 43.1159], [-4.852356, 43.115504], [-4.852077, 43.115272], [-4.851664, 43.115204], [-4.851385, 43.114972], [-4.85124, 43.114576], [-4.851098, 43.114196], [-4.850961, 43.113831], [-4.850387, 43.113819], [-4.849376, 43.11416], [-4.848609, 43.114337], [-4.848085, 43.11435], [-4.847565, 43.114121], [-4.847049, 43.113651], [-4.84659, 43.113317], [-4.846188, 43.11312], [-4.846073, 43.112671], [-4.846245, 43.111971], [-4.846249, 43.111473], [-4.846086, 43.111176], [-4.845658, 43.111223], [-4.844968, 43.111613], [-4.844534, 43.112063], [-4.844357, 43.11257], [-4.844027, 43.112827], [-4.843546, 43.112834], [-4.843236, 43.112655], [-4.843099, 43.11229], [-4.842566, 43.112095], [-4.841637, 43.112071], [-4.841046, 43.111993], [-4.840793, 43.11186], [-4.840362, 43.111634], [-4.839753, 43.111316], [-4.839716, 43.111172], [-4.840251, 43.111204], [-4.840505, 43.111166], [-4.840478, 43.11106], [-4.840849, 43.110967], [-4.841619, 43.110886], [-4.842083, 43.110641], [-4.842242, 43.110232], [-4.84223, 43.109929], [-4.842048, 43.109731], [-4.841613, 43.109747], [-4.840925, 43.109976], [-4.840447, 43.109998], [-4.84018, 43.109813], [-4.839696, 43.109723], [-4.838995, 43.10973], [-4.838846, 43.109319], [-4.839248, 43.108489], [-4.839598, 43.108052], [-4.839894, 43.108009], [-4.840284, 43.107646], [-4.840768, 43.106965], [-4.841172, 43.106825], [-4.841494, 43.107227], [-4.842399, 43.107415], [-4.843885, 43.107389], [-4.844857, 43.107584], [-4.845315, 43.107998], [-4.845993, 43.108075], [-4.846893, 43.107814], [-4.847393, 43.107452], [-4.847493, 43.106987], [-4.84773, 43.106455], [-4.848103, 43.105854], [-4.84814, 43.105399], [-4.847842, 43.10509], [-4.847667, 43.104666], [-4.847617, 43.104127], [-4.847774, 43.103542], [-4.848139, 43.10291], [-4.848159, 43.102217], [-4.847834, 43.101462], [-4.847677, 43.100763], [-4.847688, 43.100119], [-4.847786, 43.099559], [-4.847971, 43.099082], [-4.848208, 43.098549], [-4.848496, 43.097961], [-4.848825, 43.097447], [-4.849196, 43.097007], [-4.849668, 43.096536], [-4.850242, 43.096034], [-4.850879, 43.095523], [-4.85158, 43.095003], [-4.852324, 43.094652], [-4.853112, 43.094472], [-4.853873, 43.094184], [-4.854605, 43.093787], [-4.854755, 43.093428], [-4.854321, 43.093106], [-4.85389, 43.09288], [-4.853462, 43.092751], [-4.852822, 43.092652], [-4.85197, 43.092585], [-4.851266, 43.092319], [-4.850708, 43.091856], [-4.849905, 43.091637], [-4.848858, 43.091662], [-4.84856, 43.092043], [-4.849012, 43.092779], [-4.849122, 43.093293], [-4.848889, 43.093584], [-4.848282, 43.093786], [-4.847301, 43.093898], [-4.846156, 43.093713], [-4.844847, 43.093232], [-4.843931, 43.092997], [-4.843407, 43.09301], [-4.842741, 43.09298], [-4.841932, 43.092906], [-4.841272, 43.092987], [-4.840762, 43.093223], [-4.840214, 43.093399], [-4.83963, 43.093517], [-4.83916, 43.09357], [-4.838806, 43.093558], [-4.838106, 43.093485], [-4.837062, 43.093349], [-4.836291, 43.093254], [-4.835794, 43.093198], [-4.835333, 43.093025], [-4.834907, 43.092735], [-4.834426, 43.092741], [-4.833889, 43.093045], [-4.833752, 43.09337], [-4.834017, 43.093717], [-4.834375, 43.094001], [-4.834827, 43.094224], [-4.83532, 43.09452], [-4.835854, 43.094891], [-4.836043, 43.095201], [-4.835887, 43.095448], [-4.835723, 43.095665], [-4.835551, 43.095851], [-4.835581, 43.096055], [-4.835814, 43.096278], [-4.835962, 43.096513], [-4.836025, 43.096761], [-4.836079, 43.097058], [-4.836124, 43.097404], [-4.836242, 43.097692], [-4.836432, 43.097921], [-4.836845, 43.098246], [-4.837479, 43.098666], [-4.837737, 43.099158], [-4.837618, 43.099722], [-4.837501, 43.100124], [-4.837387, 43.100366], [-4.837279, 43.100285], [-4.837176, 43.099883], [-4.836949, 43.099595], [-4.836597, 43.099422], [-4.836168, 43.099549], [-4.835663, 43.099977], [-4.835218, 43.100121], [-4.834832, 43.099983], [-4.834671, 43.099525], [-4.834734, 43.098747], [-4.834442, 43.098294], [-4.833794, 43.098164], [-4.832909, 43.09831], [-4.831788, 43.098732], [-4.830792, 43.098959], [-4.829922, 43.09899], [-4.829098, 43.099031], [-4.82832, 43.099081], [-4.82742, 43.098908], [-4.826397, 43.098513], [-4.825316, 43.098495], [-4.824179, 43.098855], [-4.823499, 43.098858], [-4.823277, 43.098505], [-4.82282, 43.098348], [-4.822127, 43.098385], [-4.821531, 43.0982], [-4.821031, 43.097792], [-4.820543, 43.097687], [-4.820067, 43.097885], [-4.819705, 43.097842], [-4.819456, 43.097557], [-4.818701, 43.097524], [-4.81744, 43.097741], [-4.816598, 43.097624], [-4.816175, 43.097172], [-4.816249, 43.096776], [-4.816821, 43.096435], [-4.817272, 43.095968], [-4.817603, 43.095373], [-4.81753, 43.094918], [-4.817055, 43.094603], [-4.816711, 43.094204], [-4.8165, 43.093721], [-4.815812, 43.093694], [-4.814648, 43.094121], [-4.813758, 43.094332], [-4.813142, 43.094326], [-4.81281, 43.094487], [-4.812762, 43.094816], [-4.812422, 43.095203], [-4.81179, 43.095649], [-4.811307, 43.095992], [-4.810974, 43.096234], [-4.810562, 43.096343], [-4.810073, 43.096318], [-4.809745, 43.096495], [-4.809578, 43.096872], [-4.809303, 43.097169], [-4.808919, 43.097386], [-4.808546, 43.097216], [-4.808184, 43.096659], [-4.807644, 43.096434], [-4.806924, 43.096539], [-4.806654, 43.096081], [-4.806832, 43.09506], [-4.80693, 43.094243], [-4.806949, 43.09363], [-4.806947, 43.09302], [-4.806924, 43.092413], [-4.80668, 43.091887], [-4.806215, 43.091442], [-4.805766, 43.091058], [-4.805332, 43.090736], [-4.804959, 43.09039], [-4.804644, 43.090019], [-4.804104, 43.089536], [-4.803338, 43.088942], [-4.802886, 43.088719], [-4.802748, 43.088868], [-4.802614, 43.089546], [-4.802483, 43.090753], [-4.802184, 43.090957], [-4.801717, 43.090159], [-4.801506, 43.089419], [-4.801552, 43.088738], [-4.801384, 43.088426], [-4.801003, 43.088482], [-4.800773, 43.088507], [-4.800692, 43.088501], [-4.800401, 43.088479], [-4.7999, 43.088442], [-4.799554, 43.088309], [-4.799364, 43.08808], [-4.79944, 43.08786], [-4.799781, 43.087649], [-4.800326, 43.087377], [-4.801075, 43.087042], [-4.801553, 43.086941], [-4.801761, 43.087073], [-4.802118, 43.087028], [-4.802624, 43.086808], [-4.803061, 43.086711], [-4.803428, 43.086737], [-4.804482, 43.086719], [-4.806222, 43.086657], [-4.807625, 43.086563], [-4.80869, 43.086439], [-4.809486, 43.08629], [-4.810013, 43.086116], [-4.810511, 43.086091], [-4.810982, 43.086215], [-4.811653, 43.086181], [-4.812526, 43.085988], [-4.813216, 43.085855], [-4.813724, 43.08578], [-4.814524, 43.085647], [-4.815616, 43.085454], [-4.816885, 43.085525], [-4.818331, 43.085858], [-4.819514, 43.086022], [-4.820435, 43.086015], [-4.821689, 43.085943], [-4.823278, 43.085806], [-4.824463, 43.085632], [-4.825243, 43.085421], [-4.826089, 43.085297], [-4.827002, 43.085259], [-4.827915, 43.085141], [-4.82883, 43.084942], [-4.829532, 43.084855], [-4.830021, 43.084879], [-4.830561, 43.084929], [-4.83115, 43.085003], [-4.831486, 43.085114], [-4.831568, 43.085262], [-4.832048, 43.085593], [-4.832925, 43.086106], [-4.833693, 43.086106], [-4.834352, 43.085592], [-4.8346, 43.084929], [-4.834436, 43.084118], [-4.834956, 43.083576], [-4.836159, 43.083303], [-4.837243, 43.083336], [-4.838208, 43.083676], [-4.839103, 43.083914], [-4.839928, 43.084049], [-4.840898, 43.084067], [-4.842014, 43.083967], [-4.843042, 43.083784], [-4.843984, 43.083517], [-4.84522, 43.083287], [-4.846751, 43.083094], [-4.847975, 43.083074], [-4.848892, 43.083228], [-4.850135, 43.083366], [-4.851703, 43.083489], [-4.852747, 43.083624], [-4.853268, 43.083772], [-4.85404, 43.083787], [-4.855064, 43.083668], [-4.855936, 43.083476], [-4.856658, 43.083209], [-4.857014, 43.082883], [-4.857003, 43.0825], [-4.856522, 43.082249], [-4.85557, 43.082133], [-4.854399, 43.082016], [-4.853008, 43.0819], [-4.851952, 43.081718], [-4.85123, 43.081471], [-4.850458, 43.081199], [-4.849636, 43.080903], [-4.848845, 43.08073], [-4.848087, 43.080681], [-4.84712, 43.080679], [-4.845946, 43.080723], [-4.845042, 43.080792], [-4.844408, 43.080886], [-4.843618, 43.081146], [-4.842674, 43.081574], [-4.842017, 43.081751], [-4.841647, 43.081677], [-4.841529, 43.081389], [-4.841664, 43.080888], [-4.84155, 43.080439], [-4.841185, 43.080043], [-4.840929, 43.079728], [-4.840781, 43.079492], [-4.840578, 43.079217], [-4.840322, 43.078902], [-4.839834, 43.078797], [-4.839115, 43.078903], [-4.839044, 43.079395], [-4.83962, 43.080273], [-4.839452, 43.080732], [-4.838539, 43.080769], [-4.837896, 43.080655], [-4.83752, 43.080389], [-4.837074, 43.080102], [-4.836556, 43.079793], [-4.83624, 43.079502], [-4.836126, 43.07923], [-4.836038, 43.078718], [-4.835976, 43.077967], [-4.835955, 43.077584], [-4.835975, 43.077571], [-4.836042, 43.077484], [-4.836154, 43.077323], [-4.836134, 43.077205], [-4.83598, 43.077129], [-4.835892, 43.077086], [-4.83587, 43.077075], [-4.835809, 43.077045], [-4.835708, 43.076995], [-4.835449, 43.076969], [-4.835031, 43.076966], [-4.834472, 43.077009], [-4.83377, 43.077096], [-4.833317, 43.077258], [-4.833115, 43.077497], [-4.832867, 43.077686], [-4.832574, 43.077825], [-4.832334, 43.077968], [-4.832149, 43.078114], [-4.831696, 43.078229], [-4.830974, 43.078313], [-4.830552, 43.078203], [-4.830431, 43.0779], [-4.830822, 43.077457], [-4.831727, 43.076874], [-4.832207, 43.076434], [-4.832262, 43.076137], [-4.831907, 43.075949], [-4.83114, 43.075869], [-4.830929, 43.075643], [-4.831273, 43.075271], [-4.831607, 43.074949], [-4.831933, 43.074676], [-4.831861, 43.074398], [-4.831394, 43.074114], [-4.830884, 43.073835], [-4.830331, 43.073563], [-4.82976, 43.07339], [-4.829171, 43.073316], [-4.828599, 43.073224], [-4.828044, 43.073113], [-4.827791, 43.072939], [-4.82784, 43.072704], [-4.828222, 43.072567], [-4.828937, 43.07253], [-4.829639, 43.072485], [-4.830327, 43.072432], [-4.830964, 43.072346], [-4.831548, 43.072228], [-4.831906, 43.072039], [-4.832037, 43.071779], [-4.832343, 43.071606], [-4.832826, 43.071519], [-4.833088, 43.071344], [-4.833131, 43.071081], [-4.832812, 43.071079], [-4.832133, 43.07134], [-4.831578, 43.071445], [-4.831149, 43.071396], [-4.830699, 43.071438], [-4.830228, 43.071572], [-4.829743, 43.071563], [-4.829243, 43.071411], [-4.828821, 43.071433], [-4.828476, 43.071628], [-4.82823, 43.071714], [-4.828083, 43.07169], [-4.82798, 43.071673], [-4.827921, 43.071663], [-4.827882, 43.071597], [-4.827864, 43.071474], [-4.827834, 43.07127], [-4.827791, 43.070984], [-4.827655, 43.070778], [-4.827425, 43.070651], [-4.827134, 43.070413], [-4.826781, 43.070063], [-4.826911, 43.070012], [-4.827522, 43.070259], [-4.827885, 43.070302], [-4.827997, 43.070141], [-4.828142, 43.069936], [-4.828319, 43.069685], [-4.828577, 43.069278], [-4.828916, 43.068714], [-4.829093, 43.06832], [-4.829108, 43.068097], [-4.829209, 43.067978], [-4.829396, 43.067963], [-4.829509, 43.067816], [-4.829548, 43.067537], [-4.829627, 43.067333], [-4.829747, 43.067203], [-4.829706, 43.067], [-4.829504, 43.066725], [-4.829396, 43.066428], [-4.82938, 43.066109], [-4.829422, 43.065886], [-4.829521, 43.065759], [-4.829816, 43.065539], [-4.830306, 43.065226], [-4.830555, 43.064957], [-4.830563, 43.064731], [-4.830735, 43.064585], [-4.831069, 43.06452], [-4.831096, 43.064283], [-4.830816, 43.063875], [-4.830523, 43.063886], [-4.830216, 43.064316], [-4.829828, 43.064558], [-4.829359, 43.064611], [-4.828874, 43.064602], [-4.828373, 43.064531], [-4.828024, 43.064366], [-4.827826, 43.064106], [-4.827724, 43.06388], [-4.827719, 43.063688], [-4.82795, 43.063606], [-4.828418, 43.063633], [-4.82883, 43.063485], [-4.829185, 43.063159], [-4.829163, 43.062986], [-4.828763, 43.062965], [-4.828462, 43.063033], [-4.828261, 43.063191], [-4.828067, 43.063203], [-4.827879, 43.063071], [-4.827605, 43.063071], [-4.827244, 43.063204], [-4.826956, 43.063238], [-4.826742, 43.063173], [-4.826677, 43.06283], [-4.826759, 43.062208], [-4.826543, 43.062007], [-4.826029, 43.062227], [-4.825584, 43.062332], [-4.825209, 43.062323], [-4.824757, 43.062357], [-4.824228, 43.062435], [-4.823756, 43.062264], [-4.823342, 43.061843], [-4.822963, 43.06165], [-4.822621, 43.061684], [-4.822408, 43.061579], [-4.822323, 43.061334], [-4.822433, 43.061077], [-4.822737, 43.060808], [-4.822902, 43.060551], [-4.822927, 43.060306], [-4.822811, 43.060066], [-4.822553, 43.059831], [-4.822468, 43.059667], [-4.822554, 43.059574], [-4.822776, 43.059502], [-4.823136, 43.059449], [-4.823651, 43.059445], [-4.824321, 43.059491], [-4.824831, 43.059473], [-4.825183, 43.059389], [-4.825341, 43.059149], [-4.825306, 43.058753], [-4.825348, 43.05849], [-4.825468, 43.058359], [-4.82582, 43.058147], [-4.826403, 43.057853], [-4.826868, 43.057528], [-4.827216, 43.057171], [-4.827059, 43.056986], [-4.826397, 43.056971], [-4.825996, 43.057118], [-4.825855, 43.057428], [-4.82567, 43.057519], [-4.825441, 43.057392], [-4.825109, 43.057425], [-4.824675, 43.057617], [-4.824304, 43.057752], [-4.823995, 43.057829], [-4.823787, 43.057748], [-4.823682, 43.057506], [-4.82388, 43.057252], [-4.824382, 43.056986], [-4.8245, 43.056672], [-4.824232, 43.05631], [-4.824191, 43.056107], [-4.824377, 43.056063], [-4.824526, 43.055961], [-4.824639, 43.0558], [-4.824587, 43.055639], [-4.82437, 43.055478], [-4.824015, 43.055378], [-4.823523, 43.055338], [-4.823173, 43.055173], [-4.822967, 43.054882], [-4.822903, 43.054675], [-4.822981, 43.054551], [-4.822837, 43.054459], [-4.822471, 43.054401], [-4.822115, 43.054421], [-4.821767, 43.05452], [-4.821587, 43.054715], [-4.821573, 43.055006], [-4.821337, 43.055113], [-4.820879, 43.055036], [-4.820716, 43.054916], [-4.82085, 43.054751], [-4.820889, 43.054561], [-4.820834, 43.054344], [-4.820657, 43.054298], [-4.82036, 43.054422], [-4.820142, 43.054727], [-4.820003, 43.055213], [-4.819791, 43.055244], [-4.819507, 43.05482], [-4.819358, 43.054449], [-4.819342, 43.05413], [-4.819494, 43.053867], [-4.819814, 43.053659], [-4.819634, 43.053598], [-4.818953, 43.053682], [-4.818131, 43.05377], [-4.817168, 43.053864], [-4.816488, 43.054036], [-4.816091, 43.054287], [-4.815678, 43.054387], [-4.815249, 43.054338], [-4.814834, 43.054214], [-4.814432, 43.054017], [-4.814066, 43.05387], [-4.813734, 43.053774], [-4.813177, 43.053655], [-4.812395, 43.053513], [-4.811493, 43.053461], [-4.810472, 43.053498], [-4.80961, 43.053561], [-4.808909, 43.053648], [-4.808099, 43.053486], [-4.807183, 43.053074], [-4.806453, 43.052836], [-4.80591, 43.052771], [-4.805279, 43.052704], [-4.804559, 43.052633], [-4.803917, 43.052655], [-4.803354, 43.052769], [-4.802901, 43.053012], [-4.802557, 43.053384], [-4.802126, 43.053544], [-4.801608, 43.053491], [-4.801162, 43.053528], [-4.800788, 43.053655], [-4.8003, 43.053687], [-4.799695, 43.053623], [-4.79938, 43.053569], [-4.799354, 43.053525], [-4.799078, 43.053421], [-4.798554, 43.053257], [-4.798094, 43.053003], [-4.7977, 43.05266], [-4.797186, 43.052278], [-4.796552, 43.051857], [-4.795949, 43.0516], [-4.795377, 43.051508], [-4.794648, 43.051446], [-4.793763, 43.051415], [-4.793153, 43.051216], [-4.792818, 43.050847], [-4.792639, 43.050448], [-4.792617, 43.050018], [-4.792029, 43.049904], [-4.790874, 43.050105], [-4.790103, 43.050049], [-4.789716, 43.049737], [-4.78931, 43.049435], [-4.788885, 43.049144], [-4.788958, 43.048829], [-4.78953, 43.048488], [-4.789802, 43.04848], [-4.789775, 43.048805], [-4.789824, 43.048999], [-4.78995, 43.049061], [-4.790116, 43.04898], [-4.790322, 43.048757], [-4.790389, 43.048547], [-4.790317, 43.048349], [-4.790171, 43.048121], [-4.789952, 43.047864], [-4.789517, 43.04792], [-4.788865, 43.048289], [-4.788353, 43.048476], [-4.787982, 43.048482], [-4.787751, 43.048307], [-4.78766, 43.047951], [-4.787373, 43.0476], [-4.78689, 43.047254], [-4.786326, 43.047063], [-4.785682, 43.047029], [-4.78537, 43.046794], [-4.78539, 43.046358], [-4.785246, 43.04605], [-4.784937, 43.04587], [-4.785003, 43.0457], [-4.785445, 43.045539], [-4.785449, 43.045426], [-4.785016, 43.045361], [-4.784603, 43.045293], [-4.784212, 43.045222], [-4.783912, 43.045378], [-4.783703, 43.045762], [-4.783644, 43.04622], [-4.783736, 43.046753], [-4.783428, 43.047095], [-4.782721, 43.047247], [-4.781898, 43.047327], [-4.780957, 43.047337], [-4.780232, 43.047331], [-4.779722, 43.047309], [-4.77945, 43.047148], [-4.779418, 43.046848], [-4.779591, 43.046582], [-4.779971, 43.046349], [-4.77974, 43.046303], [-4.778898, 43.046442], [-4.778367, 43.046641], [-4.778147, 43.046898], [-4.777928, 43.047026], [-4.777709, 43.047026], [-4.77762, 43.047151], [-4.777662, 43.047402], [-4.777578, 43.047631], [-4.777367, 43.047839], [-4.776577, 43.04801], [-4.775209, 43.048147], [-4.774381, 43.048083], [-4.774095, 43.04782], [-4.773769, 43.047619], [-4.773405, 43.04748], [-4.773254, 43.047534], [-4.773317, 43.047782], [-4.773264, 43.048175], [-4.773094, 43.048713], [-4.77289, 43.049032], [-4.772652, 43.049131], [-4.772259, 43.04929], [-4.771711, 43.049508], [-4.771437, 43.049597], [-4.771438, 43.049555], [-4.770992, 43.049503], [-4.770099, 43.049441], [-4.769502, 43.049296], [-4.769203, 43.049067], [-4.768861, 43.048972], [-4.768476, 43.049012], [-4.768167, 43.048961], [-4.767934, 43.048819], [-4.76752, 43.048743], [-4.766925, 43.048734], [-4.76636, 43.048752], [-4.765823, 43.048799], [-4.765494, 43.048711], [-4.765371, 43.048488], [-4.765153, 43.048447], [-4.764838, 43.04859], [-4.764538, 43.048618], [-4.764253, 43.048531], [-4.764038, 43.048378], [-4.763895, 43.048158], [-4.763639, 43.047971], [-4.76327, 43.047816], [-4.7628, 43.047347], [-4.762228, 43.046564], [-4.761842, 43.045866], [-4.761643, 43.045253], [-4.761459, 43.044919], [-4.761291, 43.044863], [-4.761082, 43.044645], [-4.760832, 43.044264], [-4.760845, 43.044013], [-4.761121, 43.043893], [-4.761248, 43.043745], [-4.761226, 43.043572], [-4.761063, 43.043275], [-4.760759, 43.042854], [-4.760705, 43.042557], [-4.760902, 43.042383], [-4.761171, 43.042192], [-4.761512, 43.041981], [-4.761486, 43.041921], [-4.761092, 43.042011], [-4.760734, 43.042111], [-4.760412, 43.042223], [-4.760079, 43.042512], [-4.759738, 43.042979], [-4.759467, 43.043468], [-4.759268, 43.043979], [-4.759016, 43.044193], [-4.758709, 43.044109], [-4.758503, 43.043947], [-4.758398, 43.043705], [-4.758152, 43.043556], [-4.757765, 43.043501], [-4.757481, 43.04359], [-4.7573, 43.043826], [-4.757454, 43.044044], [-4.757943, 43.044245], [-4.758368, 43.044448], [-4.758727, 43.044652], [-4.758791, 43.044819], [-4.758561, 43.044949], [-4.758332, 43.045127], [-4.758105, 43.045353], [-4.758167, 43.045601], [-4.758521, 43.04587], [-4.758632, 43.046135], [-4.758501, 43.046395], [-4.758604, 43.046629], [-4.758942, 43.046836], [-4.759273, 43.047317], [-4.759596, 43.048073], [-4.759693, 43.04854], [-4.759564, 43.04872], [-4.759592, 43.048916], [-4.759777, 43.04913], [-4.759804, 43.049535], [-4.759671, 43.050133], [-4.759424, 43.050458], [-4.759065, 43.05051], [-4.758899, 43.050591], [-4.758926, 43.050699], [-4.758744, 43.050846], [-4.758353, 43.051032], [-4.757682, 43.051194], [-4.75673, 43.051334], [-4.756063, 43.051343], [-4.755682, 43.051222], [-4.755355, 43.05123], [-4.755082, 43.051366], [-4.754553, 43.051483], [-4.753767, 43.051582], [-4.753084, 43.051658], [-4.752505, 43.051711], [-4.752234, 43.051807], [-4.752269, 43.051946], [-4.752193, 43.052077], [-4.752005, 43.052201], [-4.751534, 43.052375], [-4.750779, 43.052597], [-4.749865, 43.052538], [-4.748791, 43.052198], [-4.748058, 43.051903], [-4.747666, 43.051656], [-4.747291, 43.051518], [-4.746933, 43.05149], [-4.746623, 43.051303], [-4.746359, 43.050956], [-4.746162, 43.050567], [-4.746031, 43.050137], [-4.745681, 43.050012], [-4.745112, 43.050191], [-4.744652, 43.050234], [-4.744299, 43.050141], [-4.744094, 43.050155], [-4.744037, 43.050276], [-4.744313, 43.050412], [-4.744922, 43.050564], [-4.745301, 43.050806], [-4.745451, 43.051137], [-4.745648, 43.051349], [-4.74589, 43.051442], [-4.746109, 43.051699], [-4.746304, 43.05212], [-4.746231, 43.052395], [-4.745892, 43.052525], [-4.745361, 43.052595], [-4.74464, 43.052604], [-4.744012, 43.052551], [-4.743478, 43.052437], [-4.74297, 43.052334], [-4.742487, 43.052244], [-4.742204, 43.052254], [-4.742122, 43.052362], [-4.742017, 43.052554], [-4.74189, 43.052829], [-4.741502, 43.05303], [-4.740854, 43.053157], [-4.740633, 43.053149], [-4.740838, 43.053007], [-4.741061, 43.052806], [-4.741302, 43.052546], [-4.74139, 43.052373], [-4.741324, 43.052286], [-4.741269, 43.052157], [-4.741226, 43.051987], [-4.741066, 43.051874], [-4.740788, 43.051818], [-4.740456, 43.051763], [-4.740069, 43.051707], [-4.739571, 43.051603], [-4.738963, 43.051451], [-4.738502, 43.051278], [-4.738189, 43.051083], [-4.738296, 43.050898], [-4.738822, 43.050725], [-4.739438, 43.05082], [-4.740144, 43.051182], [-4.740702, 43.051349], [-4.741112, 43.051322], [-4.741374, 43.051147], [-4.74149, 43.050825], [-4.741345, 43.050686], [-4.740939, 43.050729], [-4.740519, 43.05063], [-4.740085, 43.050388], [-4.739808, 43.050204], [-4.739688, 43.050077], [-4.739213, 43.049978], [-4.738384, 43.049906], [-4.737848, 43.049784], [-4.737607, 43.049611], [-4.737648, 43.049468], [-4.73797, 43.049357], [-4.738021, 43.049213], [-4.737801, 43.049036], [-4.737689, 43.048812], [-4.737686, 43.04854], [-4.737504, 43.048558], [-4.737144, 43.048867], [-4.736895, 43.04888], [-4.736757, 43.048595], [-4.736642, 43.048425], [-4.736551, 43.048371], [-4.736609, 43.048298], [-4.736817, 43.048207], [-4.736841, 43.048061], [-4.73668, 43.04786], [-4.73636, 43.047802], [-4.735881, 43.047886], [-4.735618, 43.047933], [-4.735573, 43.047941], [-4.735504, 43.047847], [-4.73541, 43.047652], [-4.735438, 43.047523], [-4.735587, 43.047459], [-4.735815, 43.047361], [-4.736121, 43.04723], [-4.736124, 43.047158], [-4.735824, 43.047144], [-4.735447, 43.047127], [-4.734992, 43.047107], [-4.734545, 43.047136], [-4.734105, 43.047217], [-4.733799, 43.047221], [-4.733627, 43.04715], [-4.733729, 43.047031], [-4.734103, 43.046864], [-4.734046, 43.046768], [-4.733557, 43.046743], [-4.7335, 43.046607], [-4.733876, 43.046359], [-4.733928, 43.046175], [-4.733656, 43.046054], [-4.733595, 43.045855], [-4.733743, 43.045576], [-4.734096, 43.045412], [-4.734654, 43.045363], [-4.734981, 43.045227], [-4.735078, 43.045004], [-4.735379, 43.044948], [-4.735885, 43.045059], [-4.73628, 43.045146], [-4.736564, 43.045208], [-4.736936, 43.04511], [-4.737396, 43.04485], [-4.737874, 43.044659], [-4.73837, 43.044539], [-4.738779, 43.044511], [-4.739103, 43.044576], [-4.739615, 43.044477], [-4.740316, 43.044214], [-4.741043, 43.04414], [-4.741795, 43.044255], [-4.742441, 43.044249], [-4.742979, 43.044122], [-4.743602, 43.044031], [-4.744312, 43.043975], [-4.7447, 43.043734], [-4.744767, 43.043307], [-4.744521, 43.043158], [-4.743962, 43.043288], [-4.743433, 43.043365], [-4.742935, 43.04339], [-4.742429, 43.043039], [-4.741916, 43.042311], [-4.741417, 43.042159], [-4.740932, 43.042583], [-4.74014, 43.042787], [-4.739039, 43.042772], [-4.73827, 43.042675], [-4.73783, 43.042499], [-4.737308, 43.042342], [-4.736703, 43.042206], [-4.736259, 43.042095], [-4.735975, 43.042008], [-4.735619, 43.0419], [-4.73519, 43.041769], [-4.735141, 43.041495], [-4.735474, 43.041077], [-4.735595, 43.04069], [-4.735505, 43.040334], [-4.735508, 43.040116], [-4.735605, 43.040034], [-4.735813, 43.039859], [-4.736131, 43.039591], [-4.736546, 43.03934], [-4.737056, 43.039104], [-4.737466, 43.03882], [-4.737776, 43.038486], [-4.738159, 43.038113], [-4.738616, 43.037702], [-4.738852, 43.037507], [-4.738866, 43.037528], [-4.739251, 43.037516], [-4.740007, 43.037469], [-4.740802, 43.037449], [-4.741637, 43.037456], [-4.741857, 43.037287], [-4.741463, 43.036943], [-4.741288, 43.036688], [-4.741334, 43.036521], [-4.741478, 43.036484], [-4.741721, 43.036577], [-4.742101, 43.036738], [-4.74262, 43.036967], [-4.743238, 43.037069], [-4.743955, 43.037045], [-4.743879, 43.036831], [-4.743009, 43.036428], [-4.742884, 43.036238], [-4.743504, 43.03626], [-4.74408, 43.036328], [-4.744614, 43.036443], [-4.745251, 43.036622], [-4.745993, 43.036867], [-4.746466, 43.036959], [-4.746669, 43.036897], [-4.747066, 43.036903], [-4.747655, 43.036977], [-4.748289, 43.037318], [-4.74897, 43.037925], [-4.749553, 43.037976], [-4.750038, 43.037471], [-4.750176, 43.036978], [-4.749966, 43.036495], [-4.74986, 43.036077], [-4.749858, 43.035724], [-4.75, 43.035679], [-4.750286, 43.035942], [-4.750739, 43.036085], [-4.751358, 43.036107], [-4.751698, 43.035977], [-4.751758, 43.035695], [-4.751456, 43.035498], [-4.750792, 43.035387], [-4.750577, 43.035234], [-4.750813, 43.035039], [-4.750821, 43.034813], [-4.750602, 43.034556], [-4.750306, 43.034382], [-4.749933, 43.034292], [-4.749632, 43.03436], [-4.749404, 43.034586], [-4.749012, 43.034467], [-4.748456, 43.034003], [-4.747955, 43.033586], [-4.747511, 43.033218], [-4.747531, 43.032822], [-4.748015, 43.032398], [-4.748028, 43.03193], [-4.74757, 43.031419], [-4.74734, 43.031071], [-4.747339, 43.030884], [-4.747586, 43.030864], [-4.748081, 43.031011], [-4.748564, 43.031234], [-4.749035, 43.031534], [-4.749744, 43.031736], [-4.75069, 43.031838], [-4.751507, 43.032031], [-4.752193, 43.032316], [-4.752585, 43.032307], [-4.752684, 43.032004], [-4.752742, 43.031803], [-4.752761, 43.031704], [-4.752702, 43.03156], [-4.752567, 43.031371], [-4.752333, 43.031228], [-4.752002, 43.031132], [-4.751878, 43.03099], [-4.751962, 43.030801], [-4.75215, 43.030637], [-4.752444, 43.030498], [-4.752552, 43.030362], [-4.752474, 43.030229], [-4.752403, 43.02995], [-4.752339, 43.029526], [-4.752543, 43.029335], [-4.753014, 43.029379], [-4.753594, 43.029374], [-4.754283, 43.029322], [-4.754996, 43.02937], [-4.755736, 43.029519], [-4.756183, 43.029726], [-4.756338, 43.029992], [-4.756529, 43.030181], [-4.756754, 43.030292], [-4.756977, 43.030477], [-4.757195, 43.030734], [-4.75737, 43.030772], [-4.757499, 43.030593], [-4.758526, 43.031181], [-4.760449, 43.032537], [-4.761433, 43.033388], [-4.761477, 43.033735], [-4.761721, 43.033876], [-4.762165, 43.033811], [-4.76267, 43.033898], [-4.763234, 43.034136], [-4.764094, 43.034283], [-4.765248, 43.034339], [-4.766307, 43.034449], [-4.767269, 43.034613], [-4.768512, 43.034583], [-4.770034, 43.03436], [-4.771894, 43.034], [-4.774091, 43.033501], [-4.775172, 43.033054], [-4.775137, 43.032658], [-4.775268, 43.032269], [-4.775566, 43.031888], [-4.776012, 43.031574], [-4.776607, 43.031326], [-4.777043, 43.030885], [-4.77732, 43.030251], [-4.777582, 43.029731], [-4.77783, 43.029325], [-4.778128, 43.029161], [-4.778477, 43.029238], [-4.778807, 43.029029], [-4.77912, 43.028534], [-4.779447, 43.028012], [-4.77979, 43.027464], [-4.780168, 43.027096], [-4.78058, 43.026907], [-4.780686, 43.026675], [-4.780484, 43.0264], [-4.78011, 43.026438], [-4.779564, 43.026791], [-4.779139, 43.027014], [-4.778833, 43.027107], [-4.778739, 43.027338], [-4.778854, 43.027706], [-4.778831, 43.027958], [-4.778668, 43.028095], [-4.77833, 43.028273], [-4.777816, 43.028492], [-4.777386, 43.0287], [-4.777041, 43.028895], [-4.77649, 43.028927], [-4.775734, 43.028798], [-4.775273, 43.028841], [-4.775109, 43.029058], [-4.775104, 43.029251], [-4.775256, 43.029421], [-4.775309, 43.029516], [-4.775262, 43.029535], [-4.775398, 43.029596], [-4.775717, 43.029697], [-4.775923, 43.029886], [-4.776015, 43.030161], [-4.775793, 43.030322], [-4.775256, 43.030368], [-4.774705, 43.030658], [-4.774139, 43.03119], [-4.773718, 43.031477], [-4.773444, 43.031517], [-4.773175, 43.031669], [-4.772913, 43.031932], [-4.772143, 43.032221], [-4.770864, 43.032537], [-4.770068, 43.032686], [-4.769757, 43.032667], [-4.769717, 43.032512], [-4.76995, 43.032221], [-4.769722, 43.032014], [-4.769033, 43.03189], [-4.76842, 43.031763], [-4.767882, 43.031633], [-4.767526, 43.031485], [-4.767352, 43.031318], [-4.767256, 43.031117], [-4.767238, 43.030884], [-4.767113, 43.030694], [-4.766881, 43.030546], [-4.766729, 43.030245], [-4.766657, 43.02979], [-4.766473, 43.029367], [-4.766176, 43.028977], [-4.765894, 43.028601], [-4.765627, 43.028239], [-4.765252, 43.027885], [-4.764769, 43.027538], [-4.764451, 43.027151], [-4.764299, 43.026724], [-4.764277, 43.026294], [-4.764386, 43.02586], [-4.764638, 43.025382], [-4.765031, 43.024859], [-4.765526, 43.02465], [-4.766122, 43.024755], [-4.766585, 43.024936], [-4.766913, 43.025193], [-4.767233, 43.025459], [-4.767544, 43.025735], [-4.768045, 43.025935], [-4.768734, 43.026058], [-4.769029, 43.025839], [-4.768929, 43.025275], [-4.768871, 43.024874], [-4.768854, 43.024636], [-4.768593, 43.024426], [-4.768086, 43.024243], [-4.767893, 43.024046], [-4.768015, 43.023836], [-4.768303, 43.023633], [-4.768758, 43.023438], [-4.768973, 43.023276], [-4.768949, 43.023148], [-4.768955, 43.023083], [-4.76899, 43.023081], [-4.769096, 43.022955], [-4.769273, 43.022705], [-4.769421, 43.022426], [-4.769541, 43.022119], [-4.769318, 43.022064], [-4.768754, 43.022259], [-4.768423, 43.022251], [-4.768326, 43.022041], [-4.76814, 43.021699], [-4.767867, 43.021225], [-4.767677, 43.020867], [-4.767572, 43.020626], [-4.767786, 43.020346], [-4.768318, 43.020027], [-4.768265, 43.019818], [-4.767626, 43.019719], [-4.767018, 43.019656], [-4.766441, 43.019628], [-4.765699, 43.019512], [-4.764792, 43.019307], [-4.764628, 43.01905], [-4.765207, 43.018741], [-4.765448, 43.018481], [-4.765351, 43.01827], [-4.765065, 43.018136], [-4.764589, 43.018077], [-4.764053, 43.018123], [-4.763456, 43.018275], [-4.762884, 43.018527], [-4.762338, 43.01888], [-4.762044, 43.018971], [-4.762, 43.018801], [-4.762257, 43.018474], [-4.762814, 43.017992], [-4.763115, 43.017538], [-4.763161, 43.017114], [-4.763385, 43.016873], [-4.763786, 43.016814], [-4.764345, 43.016684], [-4.765061, 43.016483], [-4.765638, 43.016254], [-4.766077, 43.015997], [-4.766117, 43.015806], [-4.765756, 43.015682], [-4.765564, 43.015574], [-4.765541, 43.015481], [-4.765516, 43.01534], [-4.76549, 43.015152], [-4.765265, 43.015], [-4.764841, 43.014885], [-4.764686, 43.014748], [-4.764798, 43.014587], [-4.76504, 43.014415], [-4.76541, 43.014232], [-4.765868, 43.013964], [-4.766414, 43.013612], [-4.76626, 43.013393], [-4.765405, 43.01331], [-4.76487, 43.013188], [-4.764654, 43.013027], [-4.764637, 43.012664], [-4.764819, 43.012101], [-4.765067, 43.011824], [-4.765379, 43.011833], [-4.765697, 43.011654], [-4.76602, 43.011285], [-4.766424, 43.011194], [-4.766909, 43.01138], [-4.766992, 43.011143], [-4.766671, 43.010484], [-4.766189, 43.010097], [-4.765546, 43.009982], [-4.765268, 43.010095], [-4.765354, 43.010436], [-4.765449, 43.010807], [-4.765551, 43.01121], [-4.765183, 43.011183], [-4.764344, 43.010728], [-4.763834, 43.010402], [-4.763652, 43.010203], [-4.763383, 43.010138], [-4.763028, 43.010206], [-4.762687, 43.01016], [-4.762361, 43.009999], [-4.762566, 43.009768], [-4.763301, 43.009468], [-4.764046, 43.009255], [-4.764803, 43.009128], [-4.765424, 43.008724], [-4.765908, 43.008043], [-4.766558, 43.007538], [-4.767373, 43.00721], [-4.767722, 43.006814], [-4.767604, 43.00635], [-4.767552, 43.005972], [-4.767565, 43.005681], [-4.767644, 43.005388], [-4.767789, 43.005094], [-4.767659, 43.004841], [-4.767254, 43.004627], [-4.767145, 43.00437], [-4.767331, 43.00407], [-4.767923, 43.004071], [-4.768921, 43.004375], [-4.769582, 43.004607], [-4.769908, 43.004768], [-4.770355, 43.004887], [-4.770923, 43.004964], [-4.771174, 43.004831], [-4.771108, 43.004488], [-4.77133, 43.004455], [-4.771839, 43.004734], [-4.772216, 43.004751], [-4.772461, 43.004506], [-4.772439, 43.004333], [-4.77215, 43.004231], [-4.772035, 43.004039], [-4.772095, 43.003757], [-4.771977, 43.003509], [-4.771682, 43.003296], [-4.771534, 43.003101], [-4.771533, 43.002924], [-4.771611, 43.002801], [-4.771768, 43.002729], [-4.771989, 43.002737], [-4.772274, 43.002824], [-4.77265, 43.002881], [-4.773118, 43.002909], [-4.773654, 43.002862], [-4.774258, 43.002742], [-4.774648, 43.002765], [-4.774822, 43.002932], [-4.774882, 43.003124], [-4.774827, 43.003341], [-4.774581, 43.003537], [-4.774144, 43.003714], [-4.773905, 43.003893], [-4.773863, 43.004076], [-4.773771, 43.004186], [-4.773627, 43.004223], [-4.773722, 43.004466], [-4.774055, 43.004915], [-4.774229, 43.005644], [-4.774245, 43.006653], [-4.77442, 43.007301], [-4.774757, 43.007589], [-4.775023, 43.007903], [-4.775219, 43.008244], [-4.775277, 43.008516], [-4.775198, 43.008721], [-4.775326, 43.008878], [-4.775661, 43.00899], [-4.775934, 43.009158], [-4.776145, 43.009384], [-4.776378, 43.009655], [-4.776633, 43.009971], [-4.77688, 43.010208], [-4.777117, 43.010366], [-4.777517, 43.010644], [-4.778079, 43.011043], [-4.778357, 43.011404], [-4.778351, 43.011726], [-4.778446, 43.012057], [-4.778642, 43.012398], [-4.778907, 43.012704], [-4.779239, 43.012976], [-4.779516, 43.013249], [-4.779739, 43.013521], [-4.780175, 43.013642], [-4.780825, 43.013611], [-4.781201, 43.013668], [-4.781304, 43.013813], [-4.781595, 43.013835], [-4.782073, 43.013733], [-4.782573, 43.013804], [-4.783096, 43.014048], [-4.783597, 43.014168], [-4.784078, 43.014161], [-4.7843, 43.014088], [-4.784265, 43.013949], [-4.784052, 43.013716], [-4.783662, 43.013387], [-4.783386, 43.013035], [-4.783224, 43.012657], [-4.783275, 43.012256], [-4.78354, 43.011832], [-4.784237, 43.011128], [-4.785368, 43.010143], [-4.786146, 43.009411], [-4.786572, 43.008931], [-4.786909, 43.008665], [-4.787159, 43.008612], [-4.787295, 43.008327], [-4.787317, 43.00781], [-4.787528, 43.007563], [-4.787928, 43.007584], [-4.788366, 43.007239], [-4.788842, 43.006527], [-4.789139, 43.005713], [-4.789257, 43.004797], [-4.789235, 43.004238], [-4.789074, 43.004037], [-4.788885, 43.003767], [-4.788668, 43.00343], [-4.788608, 43.00311], [-4.788706, 43.002806], [-4.78856, 43.002362], [-4.78817, 43.001777], [-4.787984, 43.001387], [-4.788, 43.001192], [-4.78805, 43.00096], [-4.788135, 43.000691], [-4.788333, 43.000349], [-4.788644, 42.999934], [-4.78854, 42.999829], [-4.788022, 43.000033], [-4.787597, 42.999654], [-4.787265, 42.998691], [-4.787282, 42.997942], [-4.78765, 42.997406], [-4.788036, 42.996941], [-4.788439, 42.996544], [-4.788873, 42.9964], [-4.789339, 42.996508], [-4.789438, 42.996638], [-4.78917, 42.99679], [-4.788995, 42.997008], [-4.788914, 42.997293], [-4.788935, 42.997635], [-4.789059, 42.998035], [-4.789375, 42.998373], [-4.789884, 42.998652], [-4.79049, 42.998708], [-4.791193, 42.99854], [-4.791549, 42.998303], [-4.791559, 42.997997], [-4.791832, 42.99778], [-4.79237, 42.997653], [-4.792574, 42.997768], [-4.792445, 42.998124], [-4.792586, 42.998376], [-4.792997, 42.998524], [-4.793311, 42.998382], [-4.793529, 42.997948], [-4.793773, 42.997656], [-4.794041, 42.997504], [-4.794021, 42.997339], [-4.793712, 42.997159], [-4.793429, 42.996952], [-4.793172, 42.996717], [-4.79306, 42.996492], [-4.793094, 42.996279], [-4.793063, 42.996114], [-4.792968, 42.996], [-4.792734, 42.996026], [-4.79236, 42.996194], [-4.792064, 42.996237], [-4.791846, 42.996157], [-4.791581, 42.995802], [-4.791268, 42.995174], [-4.791114, 42.994699], [-4.79112, 42.994377], [-4.790928, 42.99414], [-4.790539, 42.993988], [-4.790192, 42.99379], [-4.789889, 42.993546], [-4.789483, 42.993284], [-4.788974, 42.993006], [-4.788704, 42.99282], [-4.788674, 42.992728], [-4.788624, 42.992574], [-4.788554, 42.992361], [-4.788702, 42.992323], [-4.789066, 42.992463], [-4.789344, 42.992619], [-4.789536, 42.992792], [-4.78967, 42.992885], [-4.789744, 42.992898], [-4.789782, 42.992886], [-4.789785, 42.992852], [-4.790007, 42.993036], [-4.790448, 42.993439], [-4.790631, 42.993405], [-4.790555, 42.992934], [-4.790307, 42.992345], [-4.789885, 42.991636], [-4.789576, 42.991327], [-4.789378, 42.991417], [-4.78914, 42.9913], [-4.788862, 42.990974], [-4.78905, 42.990635], [-4.789705, 42.990282], [-4.790379, 42.98983], [-4.791071, 42.989279], [-4.792163, 42.988573], [-4.793653, 42.987712], [-4.794547, 42.986922], [-4.794847, 42.986204], [-4.795123, 42.985569], [-4.795377, 42.985018], [-4.795977, 42.984705], [-4.796922, 42.984631], [-4.797681, 42.984857], [-4.798253, 42.985383], [-4.798791, 42.985689], [-4.799295, 42.985775], [-4.799855, 42.985998], [-4.800473, 42.986357], [-4.801382, 42.986657], [-4.802582, 42.986898], [-4.803389, 42.986796], [-4.803801, 42.98635], [-4.803857, 42.986053], [-4.803556, 42.985904], [-4.802916, 42.985886], [-4.801937, 42.985997], [-4.801588, 42.98592], [-4.801871, 42.985654], [-4.802415, 42.985381], [-4.803221, 42.985102], [-4.803473, 42.984889], [-4.803172, 42.98474], [-4.802672, 42.984669], [-4.801973, 42.984676], [-4.801157, 42.984571], [-4.800226, 42.984354], [-4.800259, 42.984141], [-4.801257, 42.98393], [-4.801884, 42.983725], [-4.80214, 42.983527], [-4.802208, 42.983276], [-4.802087, 42.982973], [-4.801891, 42.982633], [-4.80162, 42.982255], [-4.801195, 42.981964], [-4.800617, 42.98176], [-4.799922, 42.981525], [-4.799109, 42.981259], [-4.798852, 42.981024], [-4.799151, 42.98082], [-4.799023, 42.980405], [-4.79847, 42.97978], [-4.797922, 42.97909], [-4.797379, 42.978334], [-4.796885, 42.977941], [-4.796439, 42.977911], [-4.795876, 42.978037], [-4.795197, 42.97832], [-4.794869, 42.97838], [-4.794893, 42.978218], [-4.794957, 42.978012], [-4.79506, 42.977763], [-4.795131, 42.977467], [-4.795169, 42.977125], [-4.795236, 42.976626], [-4.795332, 42.97597], [-4.79545, 42.97523], [-4.795591, 42.974407], [-4.795698, 42.973877], [-4.795769, 42.973642], [-4.796335, 42.973307], [-4.797394, 42.972873], [-4.798187, 42.972548], [-4.798715, 42.972332], [-4.799171, 42.972115], [-4.799553, 42.971898], [-4.799358, 42.971734], [-4.798585, 42.971623], [-4.798134, 42.971556], [-4.798005, 42.971534], [-4.797455, 42.971438], [-4.796484, 42.971269], [-4.796414, 42.971011], [-4.797246, 42.970664], [-4.797735, 42.970494], [-4.797882, 42.970502], [-4.798282, 42.970524], [-4.798935, 42.970559], [-4.799567, 42.970403], [-4.80018, 42.970056], [-4.801001, 42.969839], [-4.80203, 42.969752], [-4.803116, 42.969544], [-4.80426, 42.969216], [-4.804559, 42.968931], [-4.804016, 42.96869], [-4.803379, 42.96851], [-4.802648, 42.968393], [-4.801923, 42.968211], [-4.801203, 42.967963], [-4.800436, 42.967963], [-4.799623, 42.968211], [-4.799087, 42.968258], [-4.798829, 42.968103], [-4.799081, 42.96789], [-4.799844, 42.967617], [-4.800394, 42.967279], [-4.800729, 42.966877], [-4.800414, 42.966586], [-4.799449, 42.966407], [-4.799243, 42.966116], [-4.799798, 42.965713], [-4.799901, 42.965345], [-4.799554, 42.965011], [-4.799497, 42.964617], [-4.799733, 42.964165], [-4.80002, 42.963658], [-4.800358, 42.963094], [-4.79983, 42.962738], [-4.798434, 42.96259], [-4.797434, 42.962331], [-4.796829, 42.961962], [-4.796534, 42.961677], [-4.796551, 42.961474], [-4.797018, 42.960912], [-4.797936, 42.959989], [-4.798493, 42.959475], [-4.79869, 42.95937], [-4.798814, 42.959184], [-4.798864, 42.958916], [-4.799049, 42.958679], [-4.799369, 42.958471], [-4.799682, 42.958241], [-4.79999, 42.957987], [-4.800013, 42.957734], [-4.799753, 42.957484], [-4.799811, 42.957282], [-4.800188, 42.957131], [-4.800112, 42.957045], [-4.799582, 42.957027], [-4.798954, 42.957055], [-4.798228, 42.95713], [-4.798102, 42.95702], [-4.798574, 42.956726], [-4.799234, 42.956348], [-4.80008, 42.955886], [-4.800707, 42.955553], [-4.801115, 42.955349], [-4.801515, 42.95533], [-4.801908, 42.955497], [-4.802227, 42.955458], [-4.802471, 42.955214], [-4.802838, 42.955063], [-4.803328, 42.955008], [-4.803668, 42.955027], [-4.803858, 42.955121], [-4.804134, 42.955257], [-4.804494, 42.955435], [-4.804795, 42.955482], [-4.805037, 42.955399], [-4.805158, 42.955188], [-4.80516, 42.954851], [-4.805177, 42.954575], [-4.805211, 42.954362], [-4.805058, 42.954088], [-4.804719, 42.953753], [-4.804485, 42.953523], [-4.804356, 42.953396], [-4.804124, 42.952844], [-4.803787, 42.951865], [-4.803991, 42.951161], [-4.804736, 42.950731], [-4.805204, 42.950476], [-4.805395, 42.950399], [-4.805643, 42.950298], [-4.805948, 42.950174], [-4.806193, 42.950003], [-4.806378, 42.949783], [-4.807251, 42.949815], [-4.808813, 42.950099], [-4.809695, 42.950082], [-4.809898, 42.949763], [-4.809752, 42.949487], [-4.809255, 42.949255], [-4.809169, 42.949003], [-4.809494, 42.948731], [-4.809521, 42.948494], [-4.809251, 42.948293], [-4.809232, 42.94779], [-4.809465, 42.946985], [-4.810119, 42.946543], [-4.811194, 42.946466], [-4.811859, 42.946496], [-4.812114, 42.946635], [-4.81251, 42.94673], [-4.813048, 42.946779], [-4.81353, 42.946869], [-4.813958, 42.946998], [-4.814595, 42.947137], [-4.815443, 42.947286], [-4.816191, 42.947473], [-4.81684, 42.947698], [-4.817311, 42.947741], [-4.817604, 42.947602], [-4.818133, 42.947572], [-4.818898, 42.947652], [-4.81939, 42.947781], [-4.81961, 42.947957], [-4.819919, 42.948008], [-4.820316, 42.947934], [-4.82102, 42.947902], [-4.82203, 42.947914], [-4.822669, 42.947844], [-4.822937, 42.947692], [-4.823187, 42.947599], [-4.823419, 42.947565], [-4.823523, 42.947413], [-4.823498, 42.947144], [-4.82374, 42.947149], [-4.824249, 42.947427], [-4.824415, 42.947435], [-4.824239, 42.947172], [-4.824113, 42.946893], [-4.824038, 42.946599], [-4.823856, 42.946441], [-4.823565, 42.94642], [-4.823304, 42.946338], [-4.82307, 42.946196], [-4.822644, 42.946154], [-4.822024, 42.946213], [-4.821118, 42.946266], [-4.819925, 42.946313], [-4.819154, 42.94625], [-4.818803, 42.946077], [-4.818478, 42.946004], [-4.818179, 42.946032], [-4.817962, 42.946], [-4.817829, 42.945907], [-4.81789, 42.945802], [-4.818145, 42.945684], [-4.818335, 42.945399], [-4.818461, 42.944947], [-4.818445, 42.944669], [-4.818286, 42.944563], [-4.818112, 42.944525], [-4.817922, 42.944553], [-4.817725, 42.944509], [-4.817521, 42.944395], [-4.817337, 42.944189], [-4.817174, 42.943892], [-4.816877, 42.943799], [-4.816445, 42.943911], [-4.816124, 42.943854], [-4.815914, 42.943628], [-4.815631, 42.943549], [-4.815276, 42.943618], [-4.814982, 42.943709], [-4.814748, 42.943824], [-4.814478, 42.943839], [-4.814172, 42.943756], [-4.813394, 42.94375], [-4.812142, 42.943822], [-4.811285, 42.943811], [-4.810824, 42.943718], [-4.810485, 42.943592], [-4.810269, 42.943431], [-4.810038, 42.943384], [-4.809793, 42.943453], [-4.809209, 42.943394], [-4.808286, 42.943209], [-4.807662, 42.943047], [-4.807339, 42.942909], [-4.807205, 42.942797], [-4.807261, 42.942709], [-4.807118, 42.942655], [-4.806775, 42.942632], [-4.806529, 42.942544], [-4.80638, 42.942389], [-4.806142, 42.942312], [-4.805813, 42.942312], [-4.805471, 42.942169], [-4.805114, 42.941885], [-4.80494, 42.941373], [-4.804949, 42.940633], [-4.805112, 42.940111], [-4.805428, 42.939808], [-4.805966, 42.939552], [-4.806723, 42.939344], [-4.807282, 42.939262], [-4.807643, 42.939305], [-4.807955, 42.939324], [-4.808216, 42.939317], [-4.808513, 42.939282], [-4.808847, 42.939217], [-4.809149, 42.939229], [-4.809418, 42.939319], [-4.809586, 42.939374], [-4.809651, 42.939396], [-4.809963, 42.939558], [-4.810521, 42.939861], [-4.811011, 42.940151], [-4.811431, 42.940426], [-4.81176, 42.940554], [-4.811996, 42.940536], [-4.812331, 42.940735], [-4.812766, 42.941153], [-4.813256, 42.941273], [-4.813802, 42.941097], [-4.81439, 42.941083], [-4.815019, 42.941231], [-4.815488, 42.941226], [-4.815798, 42.941068], [-4.81637, 42.940904], [-4.817202, 42.940733], [-4.817614, 42.940761], [-4.817606, 42.940987], [-4.817824, 42.941027], [-4.818269, 42.940881], [-4.818507, 42.940742], [-4.818539, 42.940609], [-4.818666, 42.940462], [-4.818887, 42.9403], [-4.819021, 42.940136], [-4.819066, 42.939969], [-4.819196, 42.939838], [-4.819413, 42.939741], [-4.81972, 42.939528], [-4.820117, 42.939196], [-4.820207, 42.938862], [-4.81999, 42.938525], [-4.819667, 42.93846], [-4.819238, 42.938667], [-4.819027, 42.938698], [-4.819034, 42.938553], [-4.819224, 42.938356], [-4.819599, 42.938108], [-4.820103, 42.93785], [-4.820735, 42.93758], [-4.821466, 42.937529], [-4.822296, 42.937695], [-4.823062, 42.937864], [-4.823762, 42.938034], [-4.824487, 42.937999], [-4.825236, 42.93776], [-4.826007, 42.937607], [-4.826799, 42.937538], [-4.827241, 42.937554], [-4.827332, 42.937653], [-4.827511, 42.937755], [-4.827779, 42.93786], [-4.828092, 42.937798], [-4.828449, 42.937568], [-4.828576, 42.937678], [-4.828471, 42.938127], [-4.82832, 42.938438], [-4.828124, 42.938612], [-4.827933, 42.93868], [-4.827749, 42.938643], [-4.827365, 42.938772], [-4.826783, 42.939066], [-4.826484, 42.939439], [-4.826468, 42.939891], [-4.825979, 42.940204], [-4.825016, 42.940378], [-4.824668, 42.940517], [-4.824936, 42.940622], [-4.825065, 42.940788], [-4.825057, 42.941014], [-4.824944, 42.941256], [-4.824724, 42.941513], [-4.824538, 42.941813], [-4.824385, 42.942157], [-4.824407, 42.942458], [-4.824604, 42.942718], [-4.824799, 42.943011], [-4.824992, 42.943336], [-4.825241, 42.943411], [-4.825547, 42.943238], [-4.825838, 42.943219], [-4.826113, 42.943355], [-4.826494, 42.943388], [-4.826979, 42.943316], [-4.827488, 42.943337], [-4.828021, 42.943452], [-4.828328, 42.943366], [-4.828408, 42.943082], [-4.828656, 42.942893], [-4.82907, 42.942799], [-4.829321, 42.942883], [-4.829409, 42.943143], [-4.829685, 42.943264], [-4.830149, 42.943247], [-4.830505, 42.943443], [-4.830755, 42.943853], [-4.830829, 42.944162], [-4.830729, 42.94437], [-4.830675, 42.944674], [-4.830668, 42.945077], [-4.830603, 42.945335], [-4.830479, 42.94545], [-4.830529, 42.945603], [-4.830753, 42.945795], [-4.830863, 42.94614], [-4.830858, 42.946639], [-4.830501, 42.946956], [-4.829791, 42.947093], [-4.829399, 42.947271], [-4.829324, 42.947491], [-4.828856, 42.94776], [-4.827995, 42.94808], [-4.827491, 42.948379], [-4.827343, 42.948657], [-4.827457, 42.948801], [-4.827831, 42.94881], [-4.828237, 42.948855], [-4.828673, 42.948935], [-4.829128, 42.948957], [-4.8296, 42.948919], [-4.830013, 42.948906], [-4.830366, 42.948919], [-4.830709, 42.948804], [-4.831042, 42.948562], [-4.831154, 42.948273], [-4.831046, 42.947935], [-4.831217, 42.947702], [-4.831665, 42.947571], [-4.832009, 42.947288], [-4.832248, 42.946851], [-4.832481, 42.94652], [-4.832708, 42.946294], [-4.83283, 42.946083], [-4.832846, 42.945888], [-4.832898, 42.945664], [-4.832987, 42.94541], [-4.832842, 42.944885], [-4.832464, 42.94409], [-4.832211, 42.943525], [-4.832082, 42.943191], [-4.832022, 42.942871], [-4.832032, 42.942564], [-4.832093, 42.94233], [-4.832205, 42.942169], [-4.832383, 42.942029], [-4.832628, 42.94191], [-4.832835, 42.941992], [-4.833004, 42.942275], [-4.833329, 42.94267], [-4.833808, 42.943177], [-4.834279, 42.943734], [-4.83474, 42.944341], [-4.835326, 42.945009], [-4.836038, 42.945739], [-4.836694, 42.946253], [-4.837295, 42.946549], [-4.837618, 42.946871], [-4.837663, 42.947218], [-4.837908, 42.947406], [-4.838354, 42.947437], [-4.838732, 42.94769], [-4.839042, 42.948164], [-4.839048, 42.948612], [-4.83875, 42.949034], [-4.838547, 42.94934], [-4.838439, 42.949528], [-4.83858, 42.949829], [-4.83897, 42.950242], [-4.839102, 42.950715], [-4.838975, 42.951247], [-4.838696, 42.951588], [-4.838265, 42.951738], [-4.837943, 42.951849], [-4.83773, 42.951923], [-4.83732, 42.951973], [-4.836713, 42.951998], [-4.836691, 42.952338], [-4.837252, 42.952994], [-4.837494, 42.953601], [-4.837417, 42.954158], [-4.837936, 42.954387], [-4.839049, 42.954287], [-4.840214, 42.954388], [-4.84143, 42.954691], [-4.842089, 42.9553], [-4.842191, 42.956216], [-4.842047, 42.956768], [-4.841657, 42.956954], [-4.841238, 42.957288], [-4.840792, 42.957771], [-4.840235, 42.958335], [-4.839567, 42.958979], [-4.839079, 42.959212], [-4.83877, 42.959033], [-4.839032, 42.958512], [-4.839863, 42.957651], [-4.839981, 42.957168], [-4.839385, 42.957063], [-4.838697, 42.957373], [-4.837918, 42.958098], [-4.837266, 42.958805], [-4.836741, 42.959492], [-4.836186, 42.959638], [-4.835604, 42.959242], [-4.834897, 42.959218], [-4.834065, 42.959565], [-4.833519, 42.959999], [-4.833257, 42.960519], [-4.833303, 42.961042], [-4.833656, 42.961568], [-4.834157, 42.962072], [-4.834806, 42.962555], [-4.835687, 42.963003], [-4.8368, 42.963417], [-4.837562, 42.963658], [-4.837974, 42.963726], [-4.838397, 42.96384], [-4.838832, 42.964001], [-4.839141, 42.96418], [-4.839323, 42.964378], [-4.839651, 42.964635], [-4.840126, 42.96495], [-4.839894, 42.965241], [-4.838954, 42.965508], [-4.83872, 42.96588], [-4.839192, 42.966356], [-4.839693, 42.966861], [-4.840223, 42.967393], [-4.840527, 42.96738], [-4.840604, 42.966823], [-4.840998, 42.966395], [-4.841711, 42.966098], [-4.8425, 42.966013], [-4.843366, 42.966143], [-4.844289, 42.966328], [-4.845271, 42.966569], [-4.845747, 42.966804], [-4.845718, 42.967033], [-4.845535, 42.967348], [-4.8452, 42.967751], [-4.845495, 42.967965], [-4.846422, 42.967989], [-4.847253, 42.967806], [-4.84799, 42.967416], [-4.848454, 42.967171], [-4.848643, 42.967071], [-4.84894, 42.966783], [-4.849344, 42.966305], [-4.849836, 42.966088], [-4.850416, 42.966131], [-4.850478, 42.966459], [-4.850021, 42.967073], [-4.84968, 42.967532], [-4.849455, 42.967836], [-4.849309, 42.968034], [-4.849241, 42.968126], [-4.84922, 42.968395], [-4.849246, 42.968841], [-4.849646, 42.969342], [-4.850419, 42.969899], [-4.850639, 42.970332], [-4.850306, 42.970641], [-4.850023, 42.970942], [-4.849791, 42.971233], [-4.849621, 42.971595], [-4.849512, 42.972029], [-4.849441, 42.972521], [-4.849406, 42.973072], [-4.849335, 42.973821], [-4.849226, 42.974769], [-4.849165, 42.975388], [-4.849152, 42.975679], [-4.848909, 42.975843], [-4.848436, 42.97588], [-4.848121, 42.97559], [-4.847963, 42.974971], [-4.847703, 42.974383], [-4.847342, 42.973826], [-4.847049, 42.973709], [-4.846825, 42.974031], [-4.846634, 42.974829], [-4.846478, 42.976105], [-4.846124, 42.976863], [-4.845572, 42.977105], [-4.845237, 42.977508], [-4.845117, 42.978071], [-4.84505, 42.978579], [-4.845034, 42.979031], [-4.845497, 42.979557], [-4.846439, 42.980157], [-4.84735, 42.980552], [-4.848232, 42.980744], [-4.848779, 42.981257], [-4.848993, 42.982093], [-4.849353, 42.98273], [-4.849859, 42.983169], [-4.850111, 42.983983], [-4.850108, 42.985172], [-4.850019, 42.986196], [-4.849844, 42.987057], [-4.849824, 42.98775], [-4.849959, 42.988276], [-4.849997, 42.988769], [-4.849938, 42.989227], [-4.850139, 42.989839], [-4.850598, 42.990607], [-4.850534, 42.99113], [-4.849948, 42.991409], [-4.849694, 42.991703], [-4.849773, 42.992013], [-4.850151, 42.992118], [-4.850827, 42.992018], [-4.851479, 42.991826], [-4.852107, 42.99154], [-4.852808, 42.991453], [-4.853582, 42.991564], [-4.853707, 42.991883], [-4.853184, 42.992409], [-4.852494, 42.99288], [-4.851635, 42.993296], [-4.851427, 42.99368], [-4.851867, 42.994032], [-4.852576, 42.99449], [-4.853553, 42.995052], [-4.85445, 42.995562], [-4.855268, 42.99602], [-4.856162, 42.996257], [-4.857131, 42.996275], [-4.858042, 42.996237], [-4.858895, 42.996144], [-4.859961, 42.995858], [-4.861242, 42.99538], [-4.862413, 42.995159], [-4.863474, 42.995195], [-4.864211, 42.99499], [-4.864623, 42.994544], [-4.86498, 42.994258], [-4.865283, 42.994131], [-4.865435, 42.994125], [-4.865435, 42.994239], [-4.865724, 42.994478], [-4.866299, 42.994843], [-4.867142, 42.995055], [-4.868254, 42.995116], [-4.869092, 42.995137], [-4.869657, 42.995118], [-4.870357, 42.995111], [-4.871191, 42.995116], [-4.87206, 42.995085], [-4.872963, 42.995016], [-4.873712, 42.995033], [-4.874309, 42.995138], [-4.875068, 42.995363], [-4.875989, 42.995709], [-4.876618, 42.99568], [-4.876953, 42.995278], [-4.877439, 42.994949], [-4.878075, 42.994694], [-4.878754, 42.994434], [-4.879474, 42.994167], [-4.88014, 42.99394], [-4.880749, 42.993754], [-4.881068, 42.993541], [-4.881096, 42.993302], [-4.881283, 42.993231], [-4.881629, 42.993329], [-4.881871, 42.99325], [-4.882009, 42.992995], [-4.882372, 42.992727], [-4.882958, 42.992448], [-4.883776, 42.992391], [-4.884827, 42.992557], [-4.88575, 42.992822], [-4.886544, 42.993187], [-4.886779, 42.993762], [-4.886455, 42.994549], [-4.886291, 42.994949], [-4.886288, 42.994964], [-4.886229, 42.995245], [-4.886113, 42.995795], [-4.886268, 42.996471], [-4.886693, 42.997276], [-4.886997, 42.997777], [-4.887179, 42.997974], [-4.887388, 42.998361], [-4.887623, 42.998937], [-4.887627, 42.999723], [-4.8874, 43.00072], [-4.887288, 43.001395], [-4.887291, 43.001748], [-4.887526, 43.002066], [-4.887993, 43.00235], [-4.888683, 43.001622], [-4.889597, 42.999881], [-4.890009, 42.998841], [-4.889922, 42.998501], [-4.889925, 42.998194], [-4.890018, 42.997922], [-4.890094, 42.997702], [-4.890151, 42.997535], [-4.890446, 42.997379], [-4.890979, 42.997236], [-4.89074, 42.996902], [-4.889729, 42.996377], [-4.889239, 42.99592], [-4.889271, 42.99553], [-4.889572, 42.995164], [-4.890142, 42.994823], [-4.891047, 42.994593], [-4.892288, 42.994474], [-4.893013, 42.994222], [-4.893221, 42.993838], [-4.893655, 42.993565], [-4.894315, 42.993403], [-4.895089, 42.993257], [-4.895976, 42.993126], [-4.896863, 42.992995], [-4.89775, 42.992863], [-4.898679, 42.992726], [-4.899651, 42.992582], [-4.900337, 42.992353], [-4.900738, 42.992036], [-4.901064, 42.991683], [-4.901315, 42.991293], [-4.90152, 42.991326], [-4.901682, 42.991784], [-4.90167, 42.992252], [-4.901485, 42.992729], [-4.901755, 42.99301], [-4.902478, 42.993096], [-4.902784, 42.992922], [-4.902673, 42.992489], [-4.902875, 42.99225], [-4.90339, 42.992206], [-4.903952, 42.992348], [-4.904562, 42.992675], [-4.904889, 42.993001], [-4.904933, 42.993324], [-4.905073, 42.993453], [-4.905308, 42.993386], [-4.905464, 42.993406], [-4.905542, 42.993514], [-4.905591, 42.993695], [-4.905612, 42.993949], [-4.905661, 42.994311], [-4.905738, 42.994781], [-4.905923, 42.995075], [-4.906216, 42.995192], [-4.906565, 42.995269], [-4.906969, 42.995306], [-4.907507, 42.995355], [-4.908181, 42.995416], [-4.90851, 42.995672], [-4.908494, 42.996124], [-4.908474, 42.99656], [-4.908451, 42.996981], [-4.90857, 42.997446], [-4.908832, 42.997953], [-4.909229, 42.998135], [-4.909762, 42.997992], [-4.910154, 42.997982], [-4.910405, 42.998105], [-4.910819, 42.998092], [-4.911394, 42.997943], [-4.912147, 42.998056], [-4.913076, 42.998433], [-4.913631, 42.9988], [-4.913811, 42.999159], [-4.914179, 42.999313], [-4.914736, 42.999263], [-4.914947, 42.998975], [-4.914812, 42.998449], [-4.914457, 42.998004], [-4.913881, 42.997639], [-4.913454, 42.997172], [-4.913177, 42.996603], [-4.913046, 42.996093], [-4.913061, 42.995641], [-4.912768, 42.995267], [-4.912166, 42.99497], [-4.911338, 42.99482], [-4.910285, 42.994815], [-4.909733, 42.994544], [-4.909682, 42.994005], [-4.910046, 42.993887], [-4.910825, 42.994189], [-4.911306, 42.994182], [-4.911488, 42.993866], [-4.910895, 42.993521], [-4.909527, 42.993145], [-4.908868, 42.992712], [-4.908918, 42.992223], [-4.909483, 42.992204], [-4.910563, 42.992654], [-4.911289, 42.992579], [-4.911661, 42.991978], [-4.91163, 42.991517], [-4.911197, 42.991196], [-4.911132, 42.990772], [-4.911436, 42.990245], [-4.911648, 42.989619], [-4.911769, 42.988895], [-4.911549, 42.988381], [-4.910989, 42.988079], [-4.91083, 42.987797], [-4.91107, 42.987537], [-4.911056, 42.987291], [-4.910789, 42.98706], [-4.910535, 42.986841], [-4.910295, 42.986633], [-4.909863, 42.986335], [-4.909237, 42.985946], [-4.908727, 42.985925], [-4.908334, 42.986272], [-4.908519, 42.986566], [-4.909282, 42.986806], [-4.90946, 42.986988], [-4.909054, 42.987113], [-4.908362, 42.987151], [-4.907386, 42.987103], [-4.906777, 42.987209], [-4.906537, 42.987469], [-4.906301, 42.987745], [-4.906069, 42.988036], [-4.905928, 42.988426], [-4.905878, 42.988916], [-4.905528, 42.989176], [-4.904879, 42.989208], [-4.904165, 42.989073], [-4.903386, 42.98877], [-4.903396, 42.988383], [-4.904196, 42.987912], [-4.9048, 42.987276], [-4.905209, 42.986477], [-4.90544, 42.986267], [-4.905493, 42.986644], [-4.90566, 42.986956], [-4.905943, 42.987204], [-4.906187, 42.986959], [-4.906393, 42.986222], [-4.906532, 42.985655], [-4.906606, 42.985259], [-4.907136, 42.984763], [-4.908123, 42.984167], [-4.909001, 42.983572], [-4.909768, 42.982976], [-4.910471, 42.982214], [-4.91111, 42.981284], [-4.911617, 42.980872], [-4.911995, 42.980977], [-4.912228, 42.980605], [-4.912318, 42.979757], [-4.912782, 42.978917], [-4.91362, 42.978087], [-4.914296, 42.977473], [-4.914808, 42.977076], [-4.91516, 42.977168], [-4.915353, 42.97775], [-4.915604, 42.977873], [-4.915912, 42.977538], [-4.9162, 42.977464], [-4.916467, 42.977649], [-4.916621, 42.977996], [-4.916664, 42.978503], [-4.916934, 42.979096], [-4.917431, 42.979776], [-4.917802, 42.980283], [-4.918047, 42.980618], [-4.918644, 42.980667], [-4.919591, 42.98043], [-4.920321, 42.98037], [-4.920833, 42.980487], [-4.921299, 42.980338], [-4.921718, 42.979923], [-4.922105, 42.979464], [-4.922458, 42.978962], [-4.922173, 42.978619], [-4.921249, 42.978434], [-4.920754, 42.978271], [-4.920688, 42.978129], [-4.92059, 42.977919], [-4.92046, 42.97764], [-4.920681, 42.977488], [-4.921251, 42.977462], [-4.921563, 42.977431], [-4.921614, 42.977395], [-4.923438, 42.976964], [-4.927034, 42.976137], [-4.929476, 42.975852], [-4.930763, 42.976109], [-4.931252, 42.976602], [-4.930944, 42.977331], [-4.930755, 42.977989], [-4.930687, 42.978578], [-4.930557, 42.979352], [-4.930366, 42.980311], [-4.930017, 42.981086], [-4.92951, 42.981675], [-4.929337, 42.982279], [-4.929495, 42.982897], [-4.929557, 42.983563], [-4.92952, 42.984275], [-4.929716, 42.984695], [-4.930144, 42.984825], [-4.929803, 42.985373], [-4.928692, 42.986341], [-4.927766, 42.986574], [-4.927024, 42.986074], [-4.926279, 42.985992], [-4.925532, 42.986327], [-4.925038, 42.986962], [-4.924796, 42.987898], [-4.92442, 42.98874], [-4.923911, 42.98949], [-4.923821, 42.990419], [-4.924149, 42.991526], [-4.924609, 42.992293], [-4.925201, 42.992719], [-4.925809, 42.993207], [-4.926432, 42.993757], [-4.927011, 42.994732], [-4.927546, 42.99613], [-4.92792, 42.997247], [-4.928135, 42.998082], [-4.92853, 42.998682], [-4.929106, 42.999046], [-4.929626, 42.999194], [-4.930091, 42.999125], [-4.930598, 42.999307], [-4.931148, 42.999739], [-4.931669, 42.999943], [-4.932163, 42.999917], [-4.932882, 43.000189], [-4.933827, 43.000758], [-4.934349, 43.001068], [-4.93445, 43.001118], [-4.934637, 43.001129], [-4.93491, 43.001102], [-4.935192, 43.000971], [-4.935482, 43.000735], [-4.935913, 43.000623], [-4.936486, 43.000634], [-4.937305, 43.000834], [-4.93837, 43.001222], [-4.939104, 43.001692], [-4.939509, 43.002242], [-4.940015, 43.002504], [-4.940622, 43.002478], [-4.941191, 43.002731], [-4.941723, 43.003263], [-4.942107, 43.003735], [-4.942346, 43.00415], [-4.942712, 43.004465], [-4.943206, 43.004681], [-4.943461, 43.00481], [-4.943476, 43.004852], [-4.943549, 43.00505], [-4.943679, 43.005404], [-4.943488, 43.005779], [-4.942976, 43.006176], [-4.942638, 43.006564], [-4.942472, 43.006942], [-4.941947, 43.007373], [-4.941063, 43.007857], [-4.940197, 43.008242], [-4.939349, 43.008529], [-4.939315, 43.00916], [-4.940092, 43.010137], [-4.940741, 43.010956], [-4.941262, 43.011617], [-4.942023, 43.012018], [-4.943025, 43.012159], [-4.943824, 43.012281], [-4.944421, 43.012386], [-4.944835, 43.012292], [-4.945067, 43.012001], [-4.945241, 43.011654], [-4.945357, 43.011251], [-4.945843, 43.010842], [-4.946701, 43.010425], [-4.947427, 43.01035], [-4.948022, 43.010615], [-4.948646, 43.010571], [-4.949301, 43.010217], [-4.949978, 43.010036], [-4.950678, 43.010028], [-4.951438, 43.010075], [-4.952258, 43.010175], [-4.952743, 43.01044], [-4.952893, 43.010871], [-4.953187, 43.011342], [-4.953626, 43.011855], [-4.953482, 43.01223], [-4.952753, 43.012467], [-4.952159, 43.012715], [-4.9517, 43.012976], [-4.951416, 43.013323], [-4.951309, 43.013757], [-4.951255, 43.014231], [-4.951256, 43.014744], [-4.951604, 43.015158], [-4.952299, 43.015473], [-4.953149, 43.015539], [-4.954155, 43.015358], [-4.954797, 43.015295], [-4.955074, 43.01535], [-4.955383, 43.01561], [-4.955721, 43.016073], [-4.956068, 43.016311], [-4.956422, 43.016323], [-4.957078, 43.016145], [-4.958036, 43.015778], [-4.958861, 43.015575], [-4.959553, 43.015537], [-4.960116, 43.015678], [-4.960549, 43.015999], [-4.960485, 43.016346], [-4.959923, 43.016718], [-4.959548, 43.016967], [-4.959361, 43.017091], [-4.959449, 43.017431], [-4.959811, 43.017988], [-4.960501, 43.01811], [-4.961517, 43.017799], [-4.96257, 43.017626], [-4.963658, 43.017593], [-4.964596, 43.017743], [-4.965383, 43.018076], [-4.965871, 43.018437], [-4.966059, 43.018827], [-4.96587, 43.019369], [-4.965303, 43.020063], [-4.964622, 43.020485], [-4.963828, 43.020636], [-4.963314, 43.020856], [-4.963082, 43.021148], [-4.963163, 43.021377], [-4.963557, 43.021543], [-4.964175, 43.021644], [-4.965018, 43.021679], [-4.965233, 43.02192], [-4.964822, 43.022367], [-4.964881, 43.022679], [-4.965409, 43.022858], [-4.965867, 43.023015], [-4.966252, 43.02315], [-4.966748, 43.023285], [-4.967353, 43.02342], [-4.967798, 43.023274], [-4.968082, 43.022846], [-4.968905, 43.022804], [-4.970266, 43.023148], [-4.971121, 43.023824], [-4.971468, 43.024833], [-4.971981, 43.025206], [-4.97266, 43.024945], [-4.973255, 43.024872], [-4.973768, 43.024989], [-4.974166, 43.024577], [-4.97445, 43.023635], [-4.975134, 43.023566], [-4.976218, 43.024368], [-4.97694, 43.025208], [-4.977298, 43.026087], [-4.977727, 43.02673], [-4.978227, 43.027137], [-4.978433, 43.027765], [-4.978345, 43.028613], [-4.978154, 43.029573], [-4.97786, 43.030645], [-4.977378, 43.031327], [-4.976707, 43.031619], [-4.975885, 43.031918], [-4.97491, 43.032223], [-4.974118, 43.032212], [-4.973507, 43.031885], [-4.972709, 43.031683], [-4.971723, 43.031604], [-4.970624, 43.031768], [-4.969412, 43.032172], [-4.968849, 43.032625], [-4.968935, 43.033127], [-4.969198, 43.033553], [-4.96964, 43.033905], [-4.970255, 43.034247], [-4.971043, 43.03458], [-4.971642, 43.035117], [-4.972053, 43.035859], [-4.972077, 43.036547], [-4.971713, 43.037179], [-4.971775, 43.037844], [-4.972262, 43.038542], [-4.972979, 43.039111], [-4.973926, 43.039548], [-4.974618, 43.039847], [-4.975054, 43.040007], [-4.975448, 43.040173], [-4.9758, 43.040346], [-4.976004, 43.040797], [-4.976061, 43.041528], [-4.97626, 43.04196], [-4.976602, 43.042094], [-4.976477, 43.042463], [-4.975885, 43.043065], [-4.97425, 43.043841], [-4.971573, 43.044791], [-4.969755, 43.045584], [-4.968797, 43.046222], [-4.968341, 43.046611], [-4.968386, 43.046753], [-4.968641, 43.047046], [-4.969107, 43.047491], [-4.969607, 43.047898], [-4.970142, 43.048268], [-4.970589, 43.048812], [-4.97095, 43.04953], [-4.97116, 43.05043], [-4.971221, 43.051513], [-4.971076, 43.052739], [-4.970727, 43.054108], [-4.970008, 43.054809], [-4.968919, 43.054842], [-4.967697, 43.055039], [-4.966342, 43.055401], [-4.965416, 43.055554], [-4.964919, 43.0555], [-4.963966, 43.055207], [-4.962556, 43.054678], [-4.961719, 43.054262], [-4.961455, 43.05396], [-4.961206, 43.053676], [-4.960973, 43.053409], [-4.960847, 43.052988], [-4.960831, 43.052413], [-4.961193, 43.051861], [-4.961935, 43.051333], [-4.962888, 43.050774], [-4.964052, 43.050184], [-4.964469, 43.049673], [-4.964138, 43.04924], [-4.964067, 43.048624], [-4.964256, 43.047825], [-4.96411, 43.047172], [-4.963628, 43.046666], [-4.963189, 43.046072], [-4.962795, 43.045392], [-4.962341, 43.045251], [-4.961829, 43.045648], [-4.961447, 43.046379], [-4.961195, 43.047444], [-4.960593, 43.048256], [-4.95964, 43.048815], [-4.958936, 43.049064], [-4.958481, 43.049003], [-4.958002, 43.049187], [-4.957498, 43.049615], [-4.957342, 43.050457], [-4.957534, 43.051713], [-4.957715, 43.052586], [-4.957885, 43.053074], [-4.958128, 43.053761], [-4.958444, 43.054646], [-4.958359, 43.055252], [-4.957873, 43.055581], [-4.957402, 43.055458], [-4.956947, 43.054884], [-4.95644, 43.054622], [-4.955883, 43.054672], [-4.9553, 43.05471], [-4.954692, 43.054736], [-4.954382, 43.054895], [-4.954369, 43.055186], [-4.953817, 43.055171], [-4.952725, 43.054851], [-4.951649, 43.054336], [-4.950588, 43.053627], [-4.949795, 43.053616], [-4.94927, 43.054304], [-4.94861, 43.054723], [-4.947814, 43.054873], [-4.94727, 43.055146], [-4.946978, 43.055543], [-4.946866, 43.055961], [-4.946935, 43.0564], [-4.946819, 43.056803], [-4.946519, 43.057169], [-4.946117, 43.057228], [-4.945615, 43.056981], [-4.945477, 43.056616], [-4.945703, 43.056133], [-4.945633, 43.055774], [-4.945265, 43.05554], [-4.944863, 43.055342], [-4.944427, 43.055182], [-4.944009, 43.054923], [-4.943609, 43.054565], [-4.943347, 43.05438], [-4.943223, 43.054369], [-4.942838, 43.05449], [-4.94219, 43.054744], [-4.941452, 43.054965], [-4.940622, 43.055152], [-4.940221, 43.055468], [-4.940248, 43.055914], [-4.940256, 43.056362], [-4.940245, 43.056813], [-4.940581, 43.057181], [-4.941264, 43.057465], [-4.94167, 43.057855], [-4.941797, 43.05835], [-4.942575, 43.05907], [-4.944004, 43.060014], [-4.944943, 43.060678], [-4.945393, 43.061061], [-4.946099, 43.061245], [-4.947061, 43.061231], [-4.948043, 43.061038], [-4.949044, 43.060664], [-4.950023, 43.060632], [-4.95098, 43.060939], [-4.951391, 43.061425], [-4.951254, 43.062087], [-4.950998, 43.06288], [-4.950621, 43.063803], [-4.950439, 43.064278], [-4.950451, 43.064305], [-4.950557, 43.064547], [-4.950757, 43.065002], [-4.950924, 43.065573], [-4.951057, 43.06626], [-4.950993, 43.066863], [-4.950732, 43.067384], [-4.950094, 43.067719], [-4.949079, 43.06787], [-4.948363, 43.068072], [-4.947946, 43.068327], [-4.947446, 43.068434], [-4.946864, 43.068395], [-4.946417, 43.068365], [-4.946106, 43.068344], [-4.945503, 43.068303], [-4.94461, 43.068243], [-4.94399, 43.068479], [-4.943645, 43.069012], [-4.943426, 43.069526], [-4.943334, 43.070022], [-4.943082, 43.070493], [-4.94267, 43.070939], [-4.942995, 43.07126], [-4.944055, 43.071457], [-4.944841, 43.071525], [-4.945353, 43.071465], [-4.945684, 43.071515], [-4.945834, 43.071676], [-4.94603, 43.071825], [-4.946272, 43.071963], [-4.946318, 43.072098], [-4.946168, 43.072229], [-4.945962, 43.072564], [-4.9457, 43.073101], [-4.945634, 43.073569], [-4.945764, 43.073966], [-4.945982, 43.074246], [-4.946287, 43.07441], [-4.946524, 43.074391], [-4.946691, 43.074189], [-4.946803, 43.074197], [-4.946859, 43.074413], [-4.947106, 43.074521], [-4.947545, 43.074521], [-4.947846, 43.074412], [-4.94801, 43.074195], [-4.947935, 43.073989], [-4.947621, 43.073795], [-4.94727, 43.07371], [-4.946882, 43.073736], [-4.94669, 43.073587], [-4.946695, 43.073266], [-4.946874, 43.073022], [-4.947226, 43.072858], [-4.94754, 43.072498], [-4.947814, 43.071943], [-4.948044, 43.071644], [-4.94823, 43.071601], [-4.948414, 43.071461], [-4.948595, 43.071226], [-4.948777, 43.070998], [-4.948962, 43.070778], [-4.949275, 43.070587], [-4.949716, 43.070425], [-4.949894, 43.070559], [-4.949807, 43.07099], [-4.949542, 43.071326], [-4.9491, 43.071568], [-4.948913, 43.071909], [-4.948983, 43.072348], [-4.948782, 43.072635], [-4.948312, 43.072769], [-4.948106, 43.072992], [-4.948165, 43.073305], [-4.948383, 43.073513], [-4.948761, 43.073618], [-4.949044, 43.073777], [-4.94923, 43.07399], [-4.949519, 43.073915], [-4.949908, 43.073552], [-4.950204, 43.073508], [-4.950407, 43.073783], [-4.950581, 43.074119], [-4.950727, 43.074515], [-4.950965, 43.074672], [-4.951296, 43.074591], [-4.951417, 43.074677], [-4.951328, 43.074931], [-4.95121, 43.075238], [-4.951061, 43.075597], [-4.950793, 43.075918], [-4.950404, 43.076201], [-4.950191, 43.076184], [-4.950154, 43.075868], [-4.950233, 43.075535], [-4.950428, 43.075185], [-4.95033, 43.074975], [-4.949938, 43.074905], [-4.949746, 43.075094], [-4.949752, 43.075543], [-4.949555, 43.075885], [-4.949154, 43.076121], [-4.948823, 43.076154], [-4.948559, 43.075984], [-4.948183, 43.076016], [-4.947694, 43.076249], [-4.94727, 43.076264], [-4.94691, 43.07606], [-4.946889, 43.075766], [-4.947207, 43.075382], [-4.94718, 43.075233], [-4.946807, 43.07532], [-4.946363, 43.075258], [-4.945847, 43.075045], [-4.945501, 43.074767], [-4.945325, 43.074424], [-4.945079, 43.074107], [-4.944762, 43.073817], [-4.944519, 43.073584], [-4.94435, 43.073409], [-4.94374, 43.073258], [-4.942691, 43.073132], [-4.941556, 43.072662], [-4.940336, 43.071847], [-4.939982, 43.071241], [-4.940495, 43.070844], [-4.940613, 43.070537], [-4.940338, 43.070321], [-4.939624, 43.070106], [-4.938471, 43.069891], [-4.93753, 43.069645], [-4.9368, 43.069368], [-4.936614, 43.068748], [-4.936972, 43.067787], [-4.937237, 43.067282], [-4.937409, 43.067234], [-4.937585, 43.067091], [-4.937766, 43.066856], [-4.9378, 43.066645], [-4.937688, 43.066459], [-4.937885, 43.066245], [-4.938392, 43.066003], [-4.938611, 43.065663], [-4.938542, 43.065224], [-4.937862, 43.064971], [-4.936572, 43.064905], [-4.935638, 43.065027], [-4.935059, 43.065338], [-4.934535, 43.065945], [-4.934066, 43.06685], [-4.933623, 43.067429], [-4.933205, 43.067684], [-4.932944, 43.067947], [-4.932838, 43.06822], [-4.932807, 43.06861], [-4.93285, 43.069117], [-4.932922, 43.069653], [-4.933023, 43.070216], [-4.933074, 43.070754], [-4.933075, 43.071268], [-4.932721, 43.071513], [-4.932012, 43.07149], [-4.931609, 43.071116], [-4.93151, 43.070392], [-4.931444, 43.069711], [-4.931412, 43.069073], [-4.931407, 43.068544], [-4.931431, 43.068123], [-4.931188, 43.067693], [-4.93068, 43.067255], [-4.930146, 43.066884], [-4.929585, 43.066582], [-4.929341, 43.066232], [-4.929415, 43.065836], [-4.929045, 43.065506], [-4.92823, 43.065241], [-4.92758, 43.065016], [-4.927093, 43.064831], [-4.926281, 43.064662], [-4.925145, 43.064509], [-4.925075, 43.064921], [-4.926073, 43.065897], [-4.926656, 43.06663], [-4.926826, 43.067119], [-4.927597, 43.067727], [-4.92897, 43.068455], [-4.929399, 43.069098], [-4.928884, 43.069656], [-4.928242, 43.069976], [-4.927473, 43.070058], [-4.927275, 43.070312], [-4.927648, 43.070739], [-4.927904, 43.071134], [-4.928041, 43.071499], [-4.928349, 43.071502], [-4.928828, 43.071142], [-4.929219, 43.071213], [-4.929523, 43.071713], [-4.929375, 43.072073], [-4.928772, 43.07229], [-4.928388, 43.072588], [-4.928222, 43.072966], [-4.92838, 43.073071], [-4.928864, 43.072903], [-4.929371, 43.072828], [-4.929903, 43.072846], [-4.930257, 43.073114], [-4.930435, 43.073634], [-4.930347, 43.074145], [-4.929993, 43.074647], [-4.929821, 43.07517], [-4.929829, 43.075715], [-4.929886, 43.076188], [-4.929989, 43.076591], [-4.930405, 43.077011], [-4.931132, 43.077449], [-4.931636, 43.077872], [-4.931917, 43.07828], [-4.932032, 43.078809], [-4.931979, 43.079459], [-4.932033, 43.080094], [-4.932192, 43.080713], [-4.932607, 43.081213], [-4.933276, 43.081596], [-4.933787, 43.08213], [-4.93414, 43.082817], [-4.934139, 43.083411], [-4.933786, 43.083913], [-4.934042, 43.084228], [-4.93491, 43.084357], [-4.935571, 43.084452], [-4.936026, 43.084513], [-4.937112, 43.084722], [-4.938828, 43.085078], [-4.940062, 43.085007], [-4.940812, 43.084511], [-4.941441, 43.084225], [-4.941948, 43.08415], [-4.942711, 43.084214], [-4.94373, 43.084416], [-4.944523, 43.084684], [-4.945092, 43.085017], [-4.945878, 43.085511], [-4.946881, 43.086165], [-4.947475, 43.086254], [-4.94766, 43.085777], [-4.947771, 43.085359], [-4.947811, 43.085], [-4.947613, 43.08466], [-4.947179, 43.084339], [-4.946626, 43.084067], [-4.945954, 43.083846], [-4.945192, 43.083701], [-4.944341, 43.083635], [-4.943796, 43.083394], [-4.943557, 43.08298], [-4.94379, 43.082351], [-4.944495, 43.081508], [-4.945129, 43.080901], [-4.945691, 43.080528], [-4.946069, 43.080119], [-4.946261, 43.079673], [-4.946657, 43.079165], [-4.947256, 43.078594], [-4.947788, 43.078017], [-4.948253, 43.077435], [-4.94911, 43.077099], [-4.950361, 43.07701], [-4.9512, 43.07703], [-4.951629, 43.077159], [-4.95206, 43.077128], [-4.952493, 43.076935], [-4.95299, 43.07699], [-4.953551, 43.077292], [-4.954046, 43.077372], [-4.954477, 43.077229], [-4.954933, 43.07731], [-4.955416, 43.077613], [-4.955909, 43.077707], [-4.956414, 43.077594], [-4.956925, 43.077434], [-4.957443, 43.077229], [-4.958037, 43.07698], [-4.958708, 43.076688], [-4.959484, 43.07646], [-4.960364, 43.076298], [-4.961486, 43.076308], [-4.962851, 43.076491], [-4.963674, 43.076786], [-4.963955, 43.077194], [-4.963458, 43.077654], [-4.962185, 43.078164], [-4.961288, 43.078602], [-4.960768, 43.078968], [-4.960674, 43.079287], [-4.961008, 43.079559], [-4.96132, 43.079577], [-4.96161, 43.079341], [-4.962073, 43.079176], [-4.962707, 43.079082], [-4.963225, 43.078876], [-4.963626, 43.07856], [-4.96395, 43.078367], [-4.964196, 43.078299], [-4.964485, 43.0784], [-4.964819, 43.078672], [-4.964793, 43.078997], [-4.964408, 43.079376], [-4.963972, 43.079729], [-4.963486, 43.080058], [-4.962873, 43.080406], [-4.962134, 43.080773], [-4.961362, 43.081016], [-4.960558, 43.081135], [-4.959919, 43.081169], [-4.959444, 43.081118], [-4.959257, 43.081202], [-4.959359, 43.081419], [-4.959127, 43.081498], [-4.958562, 43.081438], [-4.95796, 43.081617], [-4.957321, 43.082032], [-4.956741, 43.082424], [-4.956221, 43.08279], [-4.95598, 43.083644], [-4.95602, 43.084988], [-4.956133, 43.085854], [-4.956322, 43.086244], [-4.956624, 43.086648], [-4.95704, 43.087069], [-4.957309, 43.08743], [-4.957431, 43.087733], [-4.957757, 43.087974], [-4.958286, 43.088152], [-4.958695, 43.088461], [-4.958984, 43.0889], [-4.959564, 43.08936], [-4.960435, 43.089841], [-4.960939, 43.090264], [-4.961077, 43.090629], [-4.961169, 43.090985], [-4.961215, 43.091331], [-4.961096, 43.091638], [-4.960814, 43.091905], [-4.960669, 43.09228], [-4.960662, 43.092762], [-4.960579, 43.093208], [-4.960421, 43.093617], [-4.960462, 43.094029], [-4.9607, 43.094443], [-4.960604, 43.094666], [-4.960173, 43.094698], [-4.959646, 43.094696], [-4.959021, 43.09466], [-4.958525, 43.094268], [-4.958156, 43.093519], [-4.957872, 43.093015], [-4.957673, 43.092756], [-4.957122, 43.092918], [-4.956219, 43.093501], [-4.956042, 43.094009], [-4.956593, 43.094442], [-4.956746, 43.094949], [-4.956501, 43.095531], [-4.956444, 43.095989], [-4.956574, 43.096323], [-4.956244, 43.096661], [-4.955454, 43.097003], [-4.955432, 43.097344], [-4.956178, 43.097683], [-4.956585, 43.098062], [-4.956653, 43.098482], [-4.956211, 43.098804], [-4.95526, 43.099027], [-4.954398, 43.099438], [-4.953625, 43.100037], [-4.953071, 43.100023], [-4.952734, 43.099398], [-4.952127, 43.099263], [-4.951253, 43.099617], [-4.950483, 43.099699], [-4.949819, 43.099508], [-4.949504, 43.099138], [-4.949537, 43.098587], [-4.949039, 43.098275], [-4.94801, 43.098203], [-4.946873, 43.09805], [-4.945627, 43.097817], [-4.94466, 43.097559], [-4.943972, 43.097275], [-4.94341, 43.09731], [-4.942974, 43.097664], [-4.942804, 43.098026], [-4.9429, 43.098397], [-4.942827, 43.098713], [-4.942587, 43.098974], [-4.94229, 43.099355], [-4.941936, 43.099857], [-4.941573, 43.100152], [-4.9412, 43.100239], [-4.941078, 43.10053], [-4.941205, 43.101025], [-4.941683, 43.101516], [-4.942512, 43.102004], [-4.942888, 43.102526], [-4.942812, 43.103083], [-4.942414, 43.103496], [-4.941692, 43.103763], [-4.941171, 43.104129], [-4.940852, 43.104594], [-4.940346, 43.104846], [-4.939653, 43.104884], [-4.939121, 43.105123], [-4.938752, 43.105563], [-4.938591, 43.105876], [-4.938639, 43.106062], [-4.938667, 43.106427], [-4.938676, 43.106972], [-4.938988, 43.107247], [-4.939605, 43.107252], [-4.940015, 43.10748], [-4.940219, 43.107932], [-4.940575, 43.10812], [-4.941083, 43.108045], [-4.941361, 43.108357], [-4.94141, 43.109056], [-4.94161, 43.109492], [-4.941962, 43.109665], [-4.942377, 43.109908], [-4.942853, 43.110223], [-4.943289, 43.110721], [-4.943684, 43.111401], [-4.943753, 43.111921], [-4.943494, 43.11228], [-4.943515, 43.112561], [-4.943815, 43.112764], [-4.943918, 43.11299], [-4.943821, 43.113239], [-4.943797, 43.113456], [-4.943845, 43.113641], [-4.944236, 43.113792], [-4.944969, 43.113909], [-4.945374, 43.113992], [-4.94545, 43.114042], [-4.945498, 43.114073], [-4.945516, 43.114085], [-4.945822, 43.113945], [-4.946414, 43.113652], [-4.947277, 43.113149], [-4.948411, 43.112435], [-4.949185, 43.111775], [-4.949599, 43.111167], [-4.950265, 43.110683], [-4.951182, 43.110323], [-4.952267, 43.110098], [-4.953518, 43.110009], [-4.954235, 43.110063], [-4.954418, 43.110261], [-4.954183, 43.110713], [-4.953531, 43.11142], [-4.952934, 43.112087], [-4.952393, 43.112713], [-4.951835, 43.113277], [-4.951262, 43.113779], [-4.950656, 43.114239], [-4.950016, 43.114655], [-4.94933, 43.114804], [-4.948597, 43.114688], [-4.947879, 43.114708], [-4.947177, 43.114864], [-4.947114, 43.11513], [-4.94769, 43.115507], [-4.948265, 43.115701], [-4.948839, 43.115712], [-4.949227, 43.116024], [-4.949429, 43.116636], [-4.949272, 43.117302], [-4.948754, 43.118021], [-4.948543, 43.118903], [-4.948637, 43.119949], [-4.948163, 43.120582], [-4.947121, 43.1208], [-4.946265, 43.120718], [-4.945595, 43.120336], [-4.945067, 43.120077], [-4.94468, 43.119941], [-4.944168, 43.120001], [-4.943531, 43.120256], [-4.942939, 43.120006], [-4.942393, 43.119252], [-4.941799, 43.118906], [-4.941156, 43.118969], [-4.940659, 43.118956], [-4.940307, 43.118867], [-4.939908, 43.118766], [-4.93946, 43.118652], [-4.938892, 43.118453], [-4.938203, 43.11817], [-4.937524, 43.117837], [-4.936854, 43.117454], [-4.936338, 43.117242], [-4.935976, 43.117199], [-4.935462, 43.117082], [-4.934798, 43.116891], [-4.934591, 43.116601], [-4.934842, 43.11621], [-4.935084, 43.11587], [-4.935316, 43.115578], [-4.935081, 43.115517], [-4.934377, 43.115685], [-4.933802, 43.116011], [-4.933356, 43.116495], [-4.932639, 43.116697], [-4.931652, 43.116618], [-4.931251, 43.116854], [-4.931437, 43.117405], [-4.931896, 43.117819], [-4.932626, 43.118096], [-4.93341, 43.118237], [-4.934246, 43.118242], [-4.934698, 43.118464], [-4.934768, 43.118903], [-4.934755, 43.119451], [-4.934661, 43.120107], [-4.934169, 43.120244], [-4.933279, 43.119862], [-4.932639, 43.119764], [-4.932248, 43.11995], [-4.932231, 43.120226], [-4.932589, 43.120591], [-4.932955, 43.120906], [-4.933331, 43.121171], [-4.933549, 43.121345], [-4.933607, 43.121426], [-4.93371, 43.121571], [-4.933859, 43.121781], [-4.933714, 43.122142], [-4.933275, 43.122657], [-4.932953, 43.123026], [-4.932747, 43.123249], [-4.93233, 43.123423], [-4.931703, 43.123548], [-4.931222, 43.123555], [-4.930886, 43.123444], [-4.930909, 43.12328], [-4.931293, 43.123062], [-4.93157, 43.122861], [-4.931742, 43.122675], [-4.931566, 43.122588], [-4.931042, 43.122602], [-4.930674, 43.122584], [-4.930462, 43.122535], [-4.929872, 43.12264], [-4.928906, 43.122899], [-4.928345, 43.122894], [-4.92819, 43.122624], [-4.928015, 43.122279], [-4.927818, 43.121858], [-4.92792, 43.12157], [-4.928319, 43.121415], [-4.928893, 43.121426], [-4.929642, 43.121604], [-4.929646, 43.121363], [-4.928904, 43.120702], [-4.928195, 43.120421], [-4.927518, 43.120522], [-4.926786, 43.120582], [-4.926, 43.120601], [-4.925635, 43.120463], [-4.92569, 43.120166], [-4.925021, 43.12004], [-4.923627, 43.120085], [-4.923817, 43.1198], [-4.925591, 43.119185], [-4.926284, 43.118633], [-4.925894, 43.118144], [-4.925331, 43.118003], [-4.924593, 43.118208], [-4.923516, 43.118464], [-4.922101, 43.118769], [-4.920691, 43.11901], [-4.919286, 43.119185], [-4.917964, 43.119509], [-4.916724, 43.119982], [-4.915663, 43.120042], [-4.914781, 43.119691], [-4.913881, 43.119775], [-4.91296, 43.120297], [-4.912677, 43.12005], [-4.913031, 43.119034], [-4.913478, 43.11847], [-4.914021, 43.118358], [-4.914543, 43.118168], [-4.915045, 43.117901], [-4.915198, 43.117558], [-4.915002, 43.117137], [-4.914648, 43.117125], [-4.914135, 43.117522], [-4.913646, 43.117755], [-4.91318, 43.117824], [-4.912869, 43.117725], [-4.912713, 43.117459], [-4.912957, 43.117214], [-4.913603, 43.11699], [-4.914302, 43.11655], [-4.915055, 43.115893], [-4.915781, 43.115384], [-4.916479, 43.115024], [-4.91709, 43.114837], [-4.917614, 43.114824], [-4.917947, 43.114582], [-4.918089, 43.114112], [-4.917912, 43.113849], [-4.917414, 43.113794], [-4.91693, 43.113705], [-4.916459, 43.113582], [-4.916316, 43.113282], [-4.9165, 43.112805], [-4.916489, 43.112421], [-4.916283, 43.11213], [-4.916, 43.112031], [-4.915641, 43.112122], [-4.915547, 43.112056]]]}}]}