{"type": "FeatureCollection", "name": "CORDUENTE", "features": [{"type": "Feature", "properties": {"id": "562292", "FIREDATE": "2026-07-21T12:14:00", "FINALDATE": "2026-07-22T03:08:00", "LASTUPDATE": "2026-07-22 06:28:30.147598", "COUNTRY": "ES", "PROVINCE": "Guadalajara", "COMMUNE": "Corduente", "AREA_HA": 2958.0, "BROADLEA": 12.3986, "CONIFER": 8.9189, "MIXED": 1.6892, "SCLEROPH": 51.5878, "TRANSIT": 9.6959, "OTHERNATLC": 7.4324, "AGRIAREAS": 8.277, "ARTIFSURF": 0.0, "OTHERLC": 0.0, "PERCNA2K": 95.2115, "CLASS": "30DAYS", "AÑO": 2026, "LATITUD": 40.9605581558975, "LONGITUD": -2.022113196196293}, "geometry": {"type": "Polygon", "coordinates": [[[-2.060726, 40.967463], [-2.060662, 40.96753], [-2.060648, 40.967617], [-2.060684, 40.967723], [-2.060678, 40.967811], [-2.06063, 40.967879], [-2.06054, 40.967927], [-2.060408, 40.967957], [-2.060288, 40.967951], [-2.060179, 40.967911], [-2.060081, 40.967837], [-2.059994, 40.967728], [-2.059922, 40.967638], [-2.059865, 40.967566], [-2.059823, 40.967513], [-2.059796, 40.967479], [-2.059753, 40.967462], [-2.059693, 40.967461], [-2.059617, 40.967476], [-2.059524, 40.967508], [-2.059433, 40.967539], [-2.059345, 40.96757], [-2.059258, 40.9676], [-2.059174, 40.967629], [-2.059084, 40.96767], [-2.058989, 40.967724], [-2.058889, 40.96779], [-2.058784, 40.967868], [-2.058724, 40.96798], [-2.058709, 40.968126], [-2.05874, 40.968305], [-2.058816, 40.968518], [-2.058881, 40.968699], [-2.058936, 40.96885], [-2.058981, 40.968968], [-2.059015, 40.969056], [-2.059002, 40.969142], [-2.058941, 40.969228], [-2.058833, 40.969313], [-2.058677, 40.969398], [-2.058578, 40.969508], [-2.058536, 40.969644], [-2.05855, 40.969805], [-2.058621, 40.969993], [-2.05865, 40.970143], [-2.058638, 40.970256], [-2.058584, 40.970331], [-2.058488, 40.970369], [-2.058379, 40.970428], [-2.058257, 40.970508], [-2.058122, 40.97061], [-2.057974, 40.970732], [-2.057811, 40.970798], [-2.057632, 40.970807], [-2.057438, 40.970759], [-2.057228, 40.970654], [-2.05701, 40.970592], [-2.056783, 40.970574], [-2.056548, 40.9706], [-2.056303, 40.970669], [-2.056074, 40.97073], [-2.055861, 40.970782], [-2.055663, 40.970826], [-2.055481, 40.970861], [-2.055323, 40.970933], [-2.055189, 40.971041], [-2.05508, 40.971185], [-2.054995, 40.971366], [-2.054928, 40.971531], [-2.05488, 40.97168], [-2.05485, 40.971815], [-2.054839, 40.971934], [-2.054738, 40.972038], [-2.054549, 40.972126], [-2.054271, 40.972199], [-2.053904, 40.972257], [-2.053578, 40.972324], [-2.053291, 40.972398], [-2.053045, 40.97248], [-2.052839, 40.972571], [-2.052607, 40.972678], [-2.052347, 40.972801], [-2.05206, 40.972941], [-2.051747, 40.973097], [-2.051468, 40.973144], [-2.051224, 40.973083], [-2.051015, 40.972912], [-2.05084, 40.972633], [-2.050735, 40.972355], [-2.050698, 40.972078], [-2.050731, 40.971803], [-2.050832, 40.971529], [-2.050923, 40.971201], [-2.051003, 40.970818], [-2.051073, 40.970381], [-2.051133, 40.96989], [-2.051229, 40.969503], [-2.051363, 40.969218], [-2.051534, 40.969037], [-2.051742, 40.968959], [-2.051926, 40.968885], [-2.052084, 40.968813], [-2.052216, 40.968744], [-2.052324, 40.968679], [-2.052438, 40.9686], [-2.052557, 40.968507], [-2.052682, 40.9684], [-2.052814, 40.968279], [-2.052876, 40.968157], [-2.052869, 40.968034], [-2.052793, 40.967909], [-2.052648, 40.967783], [-2.052516, 40.967678], [-2.052396, 40.967594], [-2.052288, 40.967531], [-2.052192, 40.96749], [-2.052098, 40.967449], [-2.052004, 40.967408], [-2.051911, 40.967368], [-2.051819, 40.967327], [-2.051762, 40.96725], [-2.05174, 40.967136], [-2.051754, 40.966984], [-2.051803, 40.966795], [-2.051882, 40.966648], [-2.051991, 40.966543], [-2.052129, 40.96648], [-2.052297, 40.96646], [-2.052416, 40.966389], [-2.052488, 40.96627], [-2.052511, 40.9661], [-2.052485, 40.965881], [-2.052404, 40.965731], [-2.052268, 40.965649], [-2.052077, 40.965637], [-2.05183, 40.965693], [-2.051623, 40.965712], [-2.051456, 40.965693], [-2.051329, 40.965637], [-2.051242, 40.965543], [-2.051157, 40.965458], [-2.051074, 40.965384], [-2.050992, 40.965318], [-2.050913, 40.965263], [-2.050771, 40.965221], [-2.050568, 40.965194], [-2.050304, 40.965181], [-2.049977, 40.965181], [-2.049789, 40.965296], [-2.049739, 40.965524], [-2.049827, 40.965867], [-2.050053, 40.966323], [-2.050227, 40.966689], [-2.05035, 40.966966], [-2.050421, 40.967154], [-2.05044, 40.967252], [-2.050457, 40.96734], [-2.050472, 40.967417], [-2.050484, 40.967482], [-2.050495, 40.967537], [-2.050491, 40.967626], [-2.050472, 40.967748], [-2.050437, 40.967903], [-2.050388, 40.968092], [-2.05033, 40.96826], [-2.050264, 40.968405], [-2.050189, 40.968529], [-2.050106, 40.96863], [-2.050003, 40.968676], [-2.04988, 40.968664], [-2.049738, 40.968597], [-2.049577, 40.968473], [-2.049408, 40.968376], [-2.049231, 40.968306], [-2.049046, 40.968263], [-2.048854, 40.968248], [-2.048776, 40.968309], [-2.048812, 40.968449], [-2.048961, 40.968666], [-2.049225, 40.96896], [-2.049401, 40.969207], [-2.049491, 40.969405], [-2.049495, 40.969555], [-2.049411, 40.969657], [-2.049336, 40.9698], [-2.049269, 40.969985], [-2.04921, 40.970211], [-2.049158, 40.970479], [-2.049056, 40.970681], [-2.048902, 40.970817], [-2.048697, 40.970888], [-2.04844, 40.970894], [-2.04822, 40.970911], [-2.048036, 40.97094], [-2.047889, 40.970981], [-2.047779, 40.971033], [-2.047669, 40.971063], [-2.047559, 40.97107], [-2.047448, 40.971054], [-2.047338, 40.971015], [-2.04719, 40.970965], [-2.047006, 40.970902], [-2.046785, 40.970828], [-2.046528, 40.970742], [-2.046332, 40.970681], [-2.046196, 40.970645], [-2.046121, 40.970635], [-2.046106, 40.97065], [-2.046069, 40.97068], [-2.04601, 40.970727], [-2.045927, 40.970789], [-2.045822, 40.970868], [-2.045676, 40.970934], [-2.045489, 40.97099], [-2.045261, 40.971034], [-2.044993, 40.971067], [-2.044816, 40.971131], [-2.044731, 40.971227], [-2.044739, 40.971353], [-2.044838, 40.971511], [-2.044895, 40.971651], [-2.044911, 40.971773], [-2.044884, 40.971878], [-2.044815, 40.971965], [-2.044728, 40.971982], [-2.044623, 40.97193], [-2.0445, 40.971807], [-2.04436, 40.971615], [-2.044188, 40.97144], [-2.043986, 40.971282], [-2.043752, 40.97114], [-2.043487, 40.971016], [-2.043297, 40.970944], [-2.043182, 40.970926], [-2.043141, 40.97096], [-2.043175, 40.971048], [-2.043207, 40.971145], [-2.043237, 40.971253], [-2.043264, 40.97137], [-2.043289, 40.971498], [-2.043333, 40.971617], [-2.043398, 40.971726], [-2.043482, 40.971827], [-2.043585, 40.971919], [-2.043703, 40.971996], [-2.043836, 40.972059], [-2.043983, 40.972106], [-2.044144, 40.972139], [-2.044176, 40.972171], [-2.044079, 40.972202], [-2.043853, 40.972233], [-2.043497, 40.972263], [-2.043139, 40.972255], [-2.042776, 40.972207], [-2.04241, 40.97212], [-2.04204, 40.971994], [-2.041738, 40.971922], [-2.041503, 40.971905], [-2.041334, 40.971943], [-2.041234, 40.972035], [-2.041143, 40.972119], [-2.041064, 40.972195], [-2.040996, 40.972262], [-2.040939, 40.972322], [-2.040963, 40.972377], [-2.041067, 40.97243], [-2.041253, 40.972479], [-2.04152, 40.972525], [-2.04173, 40.972565], [-2.041882, 40.972598], [-2.041978, 40.972626], [-2.042016, 40.972647], [-2.042086, 40.97272], [-2.042188, 40.972845], [-2.042321, 40.973022], [-2.042486, 40.97325], [-2.042597, 40.973449], [-2.042656, 40.973618], [-2.042662, 40.973758], [-2.042614, 40.973868], [-2.04251, 40.97395], [-2.042348, 40.974002], [-2.042129, 40.974026], [-2.041853, 40.97402], [-2.041593, 40.97401], [-2.04135, 40.973994], [-2.041122, 40.973973], [-2.040911, 40.973946], [-2.040688, 40.973908], [-2.040455, 40.973858], [-2.040211, 40.973796], [-2.039956, 40.973723], [-2.03973, 40.973662], [-2.039531, 40.973615], [-2.039361, 40.97358], [-2.039219, 40.973558], [-2.039108, 40.973559], [-2.039026, 40.973582], [-2.038975, 40.973627], [-2.038954, 40.973695], [-2.038969, 40.973798], [-2.039022, 40.973935], [-2.039111, 40.974108], [-2.039237, 40.974314], [-2.039277, 40.974476], [-2.039231, 40.974593], [-2.039099, 40.974665], [-2.038881, 40.974691], [-2.038694, 40.974727], [-2.03854, 40.974772], [-2.038417, 40.974827], [-2.038326, 40.97489], [-2.038336, 40.974987], [-2.038448, 40.975117], [-2.03866, 40.975281], [-2.038973, 40.975478], [-2.039154, 40.975655], [-2.039201, 40.975812], [-2.039116, 40.97595], [-2.038899, 40.976068], [-2.038731, 40.97618], [-2.038614, 40.976286], [-2.038548, 40.976386], [-2.038532, 40.976479], [-2.038503, 40.976597], [-2.038462, 40.97674], [-2.038408, 40.976906], [-2.038342, 40.977098], [-2.038283, 40.977304], [-2.038232, 40.977526], [-2.038188, 40.977764], [-2.038151, 40.978017], [-2.038053, 40.978244], [-2.037895, 40.978447], [-2.037676, 40.978624], [-2.037396, 40.978776], [-2.037174, 40.978852], [-2.037011, 40.978852], [-2.036906, 40.978777], [-2.036859, 40.978626], [-2.036822, 40.97848], [-2.036795, 40.978339], [-2.036778, 40.978204], [-2.03677, 40.978074], [-2.036722, 40.977985], [-2.036636, 40.977937], [-2.036509, 40.97793], [-2.036344, 40.977963], [-2.036224, 40.977942], [-2.036149, 40.977866], [-2.036119, 40.977735], [-2.036135, 40.97755], [-2.036117, 40.977412], [-2.036065, 40.977321], [-2.035979, 40.977275], [-2.035859, 40.977277], [-2.03572, 40.977248], [-2.035562, 40.977189], [-2.035386, 40.9771], [-2.035191, 40.97698], [-2.035089, 40.976878], [-2.035081, 40.976794], [-2.035167, 40.976727], [-2.035347, 40.976679], [-2.035494, 40.976616], [-2.035607, 40.976536], [-2.035688, 40.976442], [-2.035735, 40.976331], [-2.03569, 40.976229], [-2.035551, 40.976135], [-2.035319, 40.976049], [-2.034995, 40.975971], [-2.034825, 40.975893], [-2.03481, 40.975817], [-2.03495, 40.975741], [-2.035245, 40.975666], [-2.035423, 40.975588], [-2.035485, 40.975509], [-2.035431, 40.975427], [-2.03526, 40.975343], [-2.035078, 40.975336], [-2.034885, 40.975406], [-2.034681, 40.975551], [-2.034467, 40.975774], [-2.034258, 40.975937], [-2.034054, 40.97604], [-2.033856, 40.976084], [-2.033664, 40.976068], [-2.033419, 40.976111], [-2.033121, 40.976213], [-2.032769, 40.976374], [-2.032365, 40.976593], [-2.032046, 40.976763], [-2.031811, 40.976883], [-2.031662, 40.976954], [-2.031597, 40.976974], [-2.031502, 40.976996], [-2.031377, 40.977018], [-2.031223, 40.97704], [-2.031038, 40.977062], [-2.030867, 40.977113], [-2.03071, 40.977191], [-2.030568, 40.977296], [-2.030439, 40.97743], [-2.030289, 40.977585], [-2.030117, 40.977763], [-2.029924, 40.977963], [-2.029709, 40.978186], [-2.029492, 40.978395], [-2.029272, 40.978592], [-2.02905, 40.978776], [-2.028825, 40.978948], [-2.028617, 40.979117], [-2.028426, 40.979284], [-2.028252, 40.979449], [-2.028094, 40.979612], [-2.027898, 40.979728], [-2.027662, 40.979796], [-2.027386, 40.979816], [-2.027072, 40.979789], [-2.026833, 40.979799], [-2.02667, 40.979845], [-2.026583, 40.979928], [-2.026571, 40.980047], [-2.02651, 40.980149], [-2.026397, 40.980235], [-2.026234, 40.980304], [-2.026021, 40.980356], [-2.025795, 40.980367], [-2.025558, 40.980337], [-2.025308, 40.980266], [-2.025045, 40.980155], [-2.024788, 40.980068], [-2.024535, 40.980008], [-2.024288, 40.979973], [-2.024045, 40.979963], [-2.023805, 40.979963], [-2.023566, 40.979973], [-2.023329, 40.979992], [-2.023094, 40.98002], [-2.02293, 40.980018], [-2.022837, 40.979983], [-2.022816, 40.979917], [-2.022866, 40.97982], [-2.022992, 40.979739], [-2.023194, 40.979675], [-2.023473, 40.979628], [-2.023828, 40.979597], [-2.024152, 40.979561], [-2.024445, 40.979519], [-2.024706, 40.97947], [-2.024936, 40.979416], [-2.025127, 40.979337], [-2.025279, 40.979234], [-2.025392, 40.979106], [-2.025465, 40.978953], [-2.025557, 40.978827], [-2.025667, 40.978729], [-2.025795, 40.978658], [-2.025941, 40.978614], [-2.026117, 40.978569], [-2.026323, 40.978524], [-2.02656, 40.978479], [-2.026826, 40.978434], [-2.027057, 40.978386], [-2.027254, 40.978336], [-2.027416, 40.978283], [-2.027542, 40.978228], [-2.027689, 40.978184], [-2.027854, 40.978151], [-2.028039, 40.978128], [-2.028243, 40.978117], [-2.028395, 40.978082], [-2.028496, 40.978024], [-2.028544, 40.977942], [-2.028541, 40.977838], [-2.028582, 40.977761], [-2.028667, 40.977712], [-2.028796, 40.977689], [-2.028969, 40.977694], [-2.0291, 40.977682], [-2.029188, 40.977651], [-2.029235, 40.977603], [-2.029239, 40.977537], [-2.029206, 40.977433], [-2.029136, 40.977292], [-2.029028, 40.977112], [-2.028882, 40.976894], [-2.028806, 40.976678], [-2.028799, 40.976463], [-2.028861, 40.97625], [-2.028991, 40.976038], [-2.028976, 40.97587], [-2.028814, 40.975746], [-2.028507, 40.975666], [-2.028053, 40.97563], [-2.02772, 40.975641], [-2.027508, 40.975699], [-2.027416, 40.975805], [-2.027446, 40.975959], [-2.027438, 40.976094], [-2.027392, 40.97621], [-2.027308, 40.976309], [-2.027186, 40.976389], [-2.027064, 40.976401], [-2.026941, 40.976344], [-2.026818, 40.976219], [-2.026694, 40.976024], [-2.026507, 40.975881], [-2.026257, 40.975787], [-2.025943, 40.975744], [-2.025567, 40.97575], [-2.025312, 40.975788], [-2.025179, 40.975857], [-2.025168, 40.975956], [-2.025279, 40.976086], [-2.025374, 40.976264], [-2.025452, 40.97649], [-2.025514, 40.976764], [-2.025559, 40.977085], [-2.025515, 40.977322], [-2.025381, 40.977476], [-2.025158, 40.977546], [-2.024846, 40.977532], [-2.024641, 40.977472], [-2.024543, 40.977366], [-2.024553, 40.977214], [-2.024669, 40.977017], [-2.024669, 40.976841], [-2.024553, 40.976685], [-2.024321, 40.97655], [-2.023972, 40.976436], [-2.023689, 40.976372], [-2.023471, 40.976359], [-2.02332, 40.976398], [-2.023234, 40.976486], [-2.023134, 40.976593], [-2.023021, 40.976718], [-2.022894, 40.976861], [-2.022753, 40.977022], [-2.022631, 40.977211], [-2.022526, 40.977426], [-2.02244, 40.977669], [-2.022372, 40.977938], [-2.022254, 40.978149], [-2.022086, 40.9783], [-2.021867, 40.978392], [-2.021598, 40.978425], [-2.021381, 40.978435], [-2.021216, 40.978423], [-2.021101, 40.978388], [-2.021039, 40.97833], [-2.020979, 40.978246], [-2.020923, 40.978135], [-2.020871, 40.977997], [-2.020822, 40.977834], [-2.020751, 40.977734], [-2.020659, 40.9777], [-2.020544, 40.97773], [-2.020408, 40.977825], [-2.020287, 40.977977], [-2.020181, 40.978186], [-2.020091, 40.978452], [-2.020016, 40.978775], [-2.019936, 40.979004], [-2.01985, 40.979139], [-2.019759, 40.979179], [-2.019663, 40.979126], [-2.019564, 40.979125], [-2.019462, 40.979176], [-2.019358, 40.979281], [-2.019251, 40.979437], [-2.019131, 40.979573], [-2.018998, 40.979687], [-2.018853, 40.97978], [-2.018695, 40.979852], [-2.018583, 40.979941], [-2.018518, 40.980047], [-2.018499, 40.98017], [-2.018526, 40.98031], [-2.018515, 40.980521], [-2.018466, 40.980801], [-2.018379, 40.981152], [-2.018255, 40.981572], [-2.01809, 40.981854], [-2.017886, 40.981997], [-2.017641, 40.982], [-2.017357, 40.981865], [-2.017053, 40.981781], [-2.016729, 40.981749], [-2.016384, 40.981768], [-2.01602, 40.981839], [-2.015771, 40.981931], [-2.015639, 40.982045], [-2.015622, 40.982181], [-2.015721, 40.982339], [-2.015755, 40.982489], [-2.015722, 40.98263], [-2.015623, 40.982763], [-2.015458, 40.982888], [-2.015309, 40.983007], [-2.015177, 40.983122], [-2.01506, 40.983231], [-2.01496, 40.983334], [-2.014828, 40.983383], [-2.014663, 40.983377], [-2.014467, 40.983316], [-2.014238, 40.9832], [-2.014073, 40.983083], [-2.013973, 40.982964], [-2.013937, 40.982845], [-2.013965, 40.982724], [-2.013928, 40.982623], [-2.013827, 40.982544], [-2.013661, 40.982486], [-2.013431, 40.982449], [-2.013227, 40.982441], [-2.013051, 40.982463], [-2.012902, 40.982513], [-2.01278, 40.982594], [-2.01268, 40.982678], [-2.012602, 40.982766], [-2.012547, 40.982857], [-2.012514, 40.982953], [-2.012555, 40.98303], [-2.012669, 40.983088], [-2.012857, 40.983127], [-2.013119, 40.983147], [-2.013349, 40.983224], [-2.013546, 40.983357], [-2.013712, 40.983545], [-2.013845, 40.983791], [-2.013882, 40.984005], [-2.013823, 40.984189], [-2.013668, 40.984342], [-2.013417, 40.984464], [-2.01315, 40.984526], [-2.012866, 40.984528], [-2.012567, 40.98447], [-2.012252, 40.984351], [-2.011976, 40.98428], [-2.011739, 40.984257], [-2.011542, 40.984281], [-2.011384, 40.984353], [-2.011221, 40.984421], [-2.011053, 40.984488], [-2.010881, 40.984551], [-2.010704, 40.984612], [-2.010633, 40.984581], [-2.01067, 40.984459], [-2.010813, 40.984246], [-2.011063, 40.983941], [-2.011262, 40.983678], [-2.011408, 40.983457], [-2.011503, 40.983279], [-2.011545, 40.983143], [-2.011508, 40.983063], [-2.011391, 40.983038], [-2.011195, 40.983068], [-2.01092, 40.983154], [-2.010678, 40.983236], [-2.010469, 40.983314], [-2.010294, 40.983387], [-2.010153, 40.983457], [-2.010027, 40.983538], [-2.009916, 40.98363], [-2.00982, 40.983733], [-2.009739, 40.983847], [-2.009658, 40.983939], [-2.009576, 40.984008], [-2.009495, 40.984054], [-2.009414, 40.984077], [-2.009345, 40.984121], [-2.009289, 40.984187], [-2.009245, 40.984274], [-2.009215, 40.984382], [-2.009172, 40.984495], [-2.009118, 40.984613], [-2.009051, 40.984735], [-2.008973, 40.984862], [-2.008877, 40.984989], [-2.008763, 40.985113], [-2.008633, 40.985237], [-2.008485, 40.98536], [-2.008302, 40.98548], [-2.008084, 40.985598], [-2.007831, 40.985714], [-2.007544, 40.985828], [-2.007331, 40.985863], [-2.007194, 40.985821], [-2.007132, 40.985701], [-2.007146, 40.985504], [-2.007199, 40.985357], [-2.007292, 40.98526], [-2.007425, 40.985215], [-2.007598, 40.98522], [-2.007736, 40.9852], [-2.007839, 40.985154], [-2.007907, 40.985084], [-2.00794, 40.984988], [-2.007984, 40.984882], [-2.008038, 40.984764], [-2.008104, 40.984635], [-2.00818, 40.984495], [-2.008142, 40.984389], [-2.00799, 40.984316], [-2.007725, 40.984276], [-2.007345, 40.98427], [-2.006988, 40.984268], [-2.006653, 40.984269], [-2.00634, 40.984275], [-2.00605, 40.984284], [-2.005816, 40.984342], [-2.005639, 40.984449], [-2.005519, 40.984604], [-2.005455, 40.984808], [-2.005383, 40.984967], [-2.005302, 40.985081], [-2.005212, 40.985151], [-2.005114, 40.985176], [-2.005033, 40.98516], [-2.004971, 40.985102], [-2.004926, 40.985003], [-2.004898, 40.984863], [-2.004847, 40.98474], [-2.004772, 40.984636], [-2.004673, 40.984549], [-2.00455, 40.984481], [-2.004431, 40.98446], [-2.004316, 40.984487], [-2.004205, 40.984562], [-2.004098, 40.984685], [-2.003975, 40.984844], [-2.003835, 40.98504], [-2.00368, 40.985273], [-2.003509, 40.985542], [-2.003386, 40.985799], [-2.003313, 40.986043], [-2.003289, 40.986275], [-2.003315, 40.986494], [-2.003298, 40.986672], [-2.003238, 40.98681], [-2.003137, 40.986908], [-2.002993, 40.986965], [-2.002876, 40.986959], [-2.002786, 40.986892], [-2.002722, 40.986762], [-2.002685, 40.986571], [-2.002601, 40.986385], [-2.002472, 40.986204], [-2.002296, 40.98603], [-2.002075, 40.985861], [-2.001922, 40.985716], [-2.001838, 40.985595], [-2.001824, 40.985499], [-2.001879, 40.985427], [-2.001946, 40.98535], [-2.002024, 40.985269], [-2.002115, 40.985182], [-2.002218, 40.985091], [-2.002236, 40.985008], [-2.00217, 40.984931], [-2.002019, 40.984861], [-2.001783, 40.984798], [-2.001538, 40.98473], [-2.001283, 40.984656], [-2.001018, 40.984578], [-2.000744, 40.984493], [-2.000488, 40.984433], [-2.000248, 40.984397], [-2.000027, 40.984385], [-1.999823, 40.984396], [-1.999626, 40.984447], [-1.999437, 40.984535], [-1.999255, 40.984662], [-1.999081, 40.984827], [-1.998909, 40.984982], [-1.998739, 40.985127], [-1.998572, 40.985261], [-1.998407, 40.985386], [-1.998309, 40.985545], [-1.998277, 40.985739], [-1.998313, 40.985966], [-1.998415, 40.986228], [-1.998486, 40.986462], [-1.998526, 40.986666], [-1.998534, 40.986841], [-1.998511, 40.986988], [-1.998483, 40.987158], [-1.998452, 40.987351], [-1.998417, 40.987568], [-1.998377, 40.987808], [-1.998229, 40.988042], [-1.997972, 40.98827], [-1.997607, 40.988491], [-1.997132, 40.988705], [-1.996783, 40.98879], [-1.99656, 40.988746], [-1.996462, 40.988571], [-1.996489, 40.988267], [-1.996557, 40.98802], [-1.996667, 40.987831], [-1.996817, 40.987698], [-1.997009, 40.987622], [-1.997183, 40.987457], [-1.99734, 40.987203], [-1.99748, 40.986859], [-1.997602, 40.986425], [-1.997599, 40.986119], [-1.997469, 40.985938], [-1.997214, 40.985885], [-1.996833, 40.985957], [-1.996512, 40.986052], [-1.99625, 40.986169], [-1.99605, 40.986308], [-1.995909, 40.986468], [-1.995765, 40.986545], [-1.995617, 40.986537], [-1.995466, 40.986444], [-1.995311, 40.986267], [-1.994956, 40.986166], [-1.994402, 40.986142], [-1.993647, 40.986195], [-1.992692, 40.986324], [-1.992048, 40.986351], [-1.991715, 40.986273], [-1.991693, 40.986093], [-1.991982, 40.98581], [-1.992234, 40.985602], [-1.99245, 40.985472], [-1.992628, 40.985417], [-1.99277, 40.985439], [-1.992935, 40.985425], [-1.993123, 40.985376], [-1.993335, 40.985292], [-1.993569, 40.985172], [-1.993797, 40.985059], [-1.994017, 40.984954], [-1.99423, 40.984856], [-1.994436, 40.984765], [-1.994679, 40.98471], [-1.994959, 40.984689], [-1.995275, 40.984702], [-1.995628, 40.984751], [-1.995947, 40.984735], [-1.996233, 40.984654], [-1.996484, 40.984509], [-1.996701, 40.9843], [-1.996894, 40.984097], [-1.997062, 40.9839], [-1.997206, 40.983709], [-1.997325, 40.983524], [-1.997554, 40.983356], [-1.997894, 40.983203], [-1.998345, 40.983067], [-1.998906, 40.982946], [-1.999415, 40.982822], [-1.999872, 40.982694], [-2.000276, 40.982563], [-2.000628, 40.982429], [-2.000844, 40.982301], [-2.000924, 40.98218], [-2.000868, 40.982066], [-2.000675, 40.981959], [-2.000521, 40.981831], [-2.000406, 40.981681], [-2.00033, 40.981511], [-2.000293, 40.981319], [-2.000231, 40.98115], [-2.000142, 40.981004], [-2.000028, 40.980881], [-1.999888, 40.98078], [-1.99979, 40.980674], [-1.999735, 40.980564], [-1.999721, 40.980448], [-1.999749, 40.980327], [-1.99974, 40.980216], [-1.999695, 40.980117], [-1.999614, 40.980029], [-1.999496, 40.979952], [-1.999393, 40.979978], [-1.999307, 40.980106], [-1.999235, 40.980337], [-1.999179, 40.980671], [-1.999129, 40.980964], [-1.999083, 40.981218], [-1.999043, 40.981432], [-1.999008, 40.981607], [-1.998953, 40.981724], [-1.998879, 40.981786], [-1.998786, 40.981791], [-1.998673, 40.981739], [-1.998527, 40.981695], [-1.998348, 40.981658], [-1.998136, 40.981628], [-1.997891, 40.981606], [-1.997679, 40.981579], [-1.997501, 40.981548], [-1.997357, 40.981514], [-1.997246, 40.981475], [-1.997235, 40.981417], [-1.997324, 40.981341], [-1.997512, 40.981246], [-1.997799, 40.981133], [-1.998043, 40.981018], [-1.998244, 40.980902], [-1.998402, 40.980785], [-1.998517, 40.980666], [-1.998522, 40.980604], [-1.998417, 40.980597], [-1.998203, 40.980646], [-1.99788, 40.980751], [-1.997633, 40.98081], [-1.997464, 40.980824], [-1.997372, 40.980793], [-1.997358, 40.980716], [-1.997284, 40.980647], [-1.997152, 40.980584], [-1.99696, 40.980529], [-1.99671, 40.980481], [-1.996606, 40.980406], [-1.996646, 40.980303], [-1.996831, 40.980172], [-1.997162, 40.980014], [-1.997336, 40.979849], [-1.997354, 40.979677], [-1.997216, 40.979498], [-1.996923, 40.979311], [-1.996583, 40.979245], [-1.996198, 40.979298], [-1.995767, 40.979472], [-1.995291, 40.979765], [-1.994907, 40.979998], [-1.994614, 40.980171], [-1.994412, 40.980284], [-1.994302, 40.980337], [-1.994122, 40.980365], [-1.993874, 40.980369], [-1.993556, 40.980349], [-1.99317, 40.980305], [-1.992878, 40.980327], [-1.99268, 40.980417], [-1.992577, 40.980573], [-1.992569, 40.980796], [-1.992564, 40.980996], [-1.992564, 40.981173], [-1.992568, 40.981326], [-1.992576, 40.981456], [-1.992537, 40.981588], [-1.992451, 40.981723], [-1.992319, 40.98186], [-1.992139, 40.981999], [-1.991989, 40.982155], [-1.991867, 40.982326], [-1.991775, 40.982514], [-1.991711, 40.982718], [-1.991536, 40.982857], [-1.991249, 40.982931], [-1.990852, 40.98294], [-1.990342, 40.982885], [-1.990003, 40.982799], [-1.989835, 40.982682], [-1.989836, 40.982535], [-1.990008, 40.982357], [-1.989988, 40.982232], [-1.989777, 40.98216], [-1.989373, 40.98214], [-1.988778, 40.982173], [-1.988444, 40.982158], [-1.988372, 40.982095], [-1.988561, 40.981984], [-1.989011, 40.981825], [-1.989378, 40.981656], [-1.989662, 40.981477], [-1.989862, 40.98129], [-1.989979, 40.981092], [-1.989943, 40.980973], [-1.989754, 40.98093], [-1.989413, 40.980965], [-1.988919, 40.981078], [-1.988513, 40.981091], [-1.988196, 40.981006], [-1.987967, 40.980821], [-1.987826, 40.980537], [-1.987655, 40.9803], [-1.987455, 40.980109], [-1.987225, 40.979964], [-1.986965, 40.979864], [-1.986777, 40.979734], [-1.986659, 40.979572], [-1.986613, 40.979378], [-1.986639, 40.979153], [-1.986747, 40.978959], [-1.98694, 40.978799], [-1.987216, 40.97867], [-1.987575, 40.978574], [-1.98789, 40.978513], [-1.98816, 40.978487], [-1.988385, 40.978495], [-1.988565, 40.978539], [-1.988629, 40.978603], [-1.988577, 40.978688], [-1.988408, 40.978793], [-1.988123, 40.978919], [-1.987939, 40.979079], [-1.987856, 40.979272], [-1.987874, 40.979499], [-1.987993, 40.979759], [-1.988099, 40.979926], [-1.98819, 40.98], [-1.988268, 40.97998], [-1.988332, 40.979868], [-1.988424, 40.979765], [-1.988544, 40.979672], [-1.988691, 40.979589], [-1.988866, 40.979515], [-1.98903, 40.979433], [-1.989185, 40.979342], [-1.989329, 40.979243], [-1.989463, 40.979135], [-1.989593, 40.979077], [-1.989721, 40.979068], [-1.989844, 40.979108], [-1.989965, 40.979198], [-1.9901, 40.979254], [-1.99025, 40.979275], [-1.990415, 40.979261], [-1.990595, 40.979213], [-1.990695, 40.979129], [-1.990715, 40.979009], [-1.990654, 40.978853], [-1.990514, 40.978661], [-1.990449, 40.97846], [-1.99046, 40.978249], [-1.990547, 40.978029], [-1.990709, 40.9778], [-1.990776, 40.977613], [-1.990747, 40.977466], [-1.990624, 40.97736], [-1.990405, 40.977295], [-1.990216, 40.977295], [-1.990056, 40.97736], [-1.989927, 40.97749], [-1.989827, 40.977686], [-1.989746, 40.977777], [-1.989684, 40.977765], [-1.98964, 40.97765], [-1.989615, 40.97743], [-1.989542, 40.977253], [-1.989421, 40.977117], [-1.989252, 40.977024], [-1.989036, 40.976971], [-1.988846, 40.976882], [-1.988684, 40.976756], [-1.988548, 40.976592], [-1.988439, 40.976391], [-1.988327, 40.976239], [-1.988212, 40.976135], [-1.988095, 40.97608], [-1.987975, 40.976074], [-1.987845, 40.976106], [-1.987705, 40.976178], [-1.987555, 40.976289], [-1.987395, 40.976439], [-1.987215, 40.976553], [-1.987015, 40.976629], [-1.986795, 40.976669], [-1.986555, 40.976672], [-1.986329, 40.976641], [-1.986119, 40.976575], [-1.985923, 40.976475], [-1.985743, 40.97634], [-1.98558, 40.976232], [-1.985436, 40.976152], [-1.985309, 40.976098], [-1.985201, 40.976072], [-1.9851, 40.976059], [-1.985005, 40.976057], [-1.984917, 40.976068], [-1.984835, 40.976091], [-1.984782, 40.976081], [-1.984756, 40.976038], [-1.984759, 40.975963], [-1.98479, 40.975854], [-1.98484, 40.975737], [-1.98491, 40.975611], [-1.985, 40.975476], [-1.98511, 40.975332], [-1.985177, 40.975193], [-1.985203, 40.975059], [-1.985187, 40.97493], [-1.985129, 40.974807], [-1.985037, 40.974713], [-1.984913, 40.97465], [-1.984757, 40.974616], [-1.984567, 40.974613], [-1.984379, 40.974617], [-1.984191, 40.974626], [-1.984005, 40.974643], [-1.983821, 40.974665], [-1.983627, 40.974705], [-1.983423, 40.974763], [-1.98321, 40.974838], [-1.982987, 40.97493], [-1.982796, 40.975035], [-1.982639, 40.975152], [-1.982513, 40.975282], [-1.98242, 40.975424], [-1.982297, 40.975563], [-1.982143, 40.9757], [-1.981958, 40.975833], [-1.981743, 40.975964], [-1.981533, 40.976058], [-1.981329, 40.976116], [-1.981131, 40.976136], [-1.980939, 40.976121], [-1.980739, 40.976083], [-1.98053, 40.976023], [-1.980312, 40.975942], [-1.980086, 40.975839], [-1.979833, 40.975798], [-1.979553, 40.975819], [-1.979247, 40.975902], [-1.978914, 40.976047], [-1.978706, 40.976105], [-1.978623, 40.976076], [-1.978665, 40.975959], [-1.978832, 40.975756], [-1.978991, 40.975557], [-1.979143, 40.975362], [-1.979287, 40.975171], [-1.979422, 40.974985], [-1.979517, 40.974787], [-1.979571, 40.974578], [-1.979585, 40.974357], [-1.979557, 40.974125], [-1.979502, 40.973972], [-1.979419, 40.973897], [-1.979308, 40.973901], [-1.979169, 40.973983], [-1.97898, 40.974071], [-1.97874, 40.974166], [-1.97845, 40.974267], [-1.97811, 40.974373], [-1.977833, 40.974495], [-1.977618, 40.974632], [-1.977467, 40.974785], [-1.977379, 40.974952], [-1.977286, 40.975091], [-1.977187, 40.975201], [-1.977082, 40.975283], [-1.976972, 40.975335], [-1.976896, 40.975322], [-1.976855, 40.975242], [-1.976848, 40.975095], [-1.976876, 40.974883], [-1.976878, 40.97469], [-1.976853, 40.974516], [-1.976801, 40.974363], [-1.976724, 40.974228], [-1.9766, 40.974073], [-1.976428, 40.973898], [-1.97621, 40.973702], [-1.975945, 40.973486], [-1.975758, 40.973274], [-1.975649, 40.973065], [-1.975618, 40.972859], [-1.975665, 40.972658], [-1.975654, 40.972469], [-1.975586, 40.972295], [-1.97546, 40.972133], [-1.975277, 40.971986], [-1.97516, 40.971827], [-1.97511, 40.971656], [-1.975127, 40.971475], [-1.97521, 40.971281], [-1.975288, 40.971131], [-1.975362, 40.971024], [-1.975432, 40.97096], [-1.975496, 40.970939], [-1.975599, 40.97096], [-1.97574, 40.971021], [-1.975918, 40.971123], [-1.976135, 40.971267], [-1.976306, 40.971416], [-1.97643, 40.971571], [-1.976508, 40.971731], [-1.97654, 40.971897], [-1.976613, 40.972049], [-1.976725, 40.972185], [-1.976877, 40.972307], [-1.97707, 40.972415], [-1.977262, 40.972476], [-1.977454, 40.972492], [-1.977646, 40.972462], [-1.977838, 40.972387], [-1.978038, 40.972264], [-1.978246, 40.972095], [-1.978462, 40.971879], [-1.978686, 40.971617], [-1.978897, 40.971352], [-1.979095, 40.971086], [-1.97928, 40.970819], [-1.979451, 40.97055], [-1.979473, 40.970354], [-1.979347, 40.970232], [-1.979071, 40.970184], [-1.978646, 40.97021], [-1.978312, 40.970191], [-1.978068, 40.97013], [-1.977915, 40.970024], [-1.977851, 40.969875], [-1.977912, 40.969724], [-1.978098, 40.96957], [-1.978407, 40.969415], [-1.978841, 40.969258], [-1.97916, 40.969111], [-1.979366, 40.968975], [-1.979458, 40.968849], [-1.979436, 40.968734], [-1.97943, 40.968617], [-1.979442, 40.968498], [-1.97947, 40.968377], [-1.979515, 40.968254], [-1.979556, 40.968089], [-1.979593, 40.967882], [-1.979627, 40.967632], [-1.979657, 40.967341], [-1.979674, 40.967078], [-1.97968, 40.966842], [-1.979675, 40.966633], [-1.979657, 40.966452], [-1.979696, 40.96632], [-1.979791, 40.966236], [-1.979944, 40.966202], [-1.980152, 40.966215], [-1.980302, 40.966321], [-1.980392, 40.96652], [-1.980422, 40.96681], [-1.980393, 40.967193], [-1.980415, 40.967487], [-1.980489, 40.967694], [-1.980615, 40.967813], [-1.980793, 40.967843], [-1.981073, 40.967868], [-1.981455, 40.967887], [-1.981938, 40.9679], [-1.982524, 40.967907], [-1.982928, 40.967842], [-1.983151, 40.967703], [-1.983192, 40.967493], [-1.983051, 40.967209], [-1.982936, 40.966968], [-1.982846, 40.96677], [-1.982781, 40.966614], [-1.982742, 40.966501], [-1.982679, 40.966375], [-1.982592, 40.966235], [-1.982481, 40.966082], [-1.982346, 40.965916], [-1.982232, 40.96575], [-1.98214, 40.965584], [-1.98207, 40.96542], [-1.982021, 40.965256], [-1.981953, 40.965104], [-1.981866, 40.964964], [-1.981759, 40.964837], [-1.981634, 40.964721], [-1.981455, 40.964661], [-1.981222, 40.964657], [-1.980935, 40.964708], [-1.980595, 40.964815], [-1.98029, 40.964989], [-1.980018, 40.965232], [-1.979782, 40.965542], [-1.97958, 40.965919], [-1.979399, 40.966209], [-1.979241, 40.966411], [-1.979104, 40.966526], [-1.978989, 40.966553], [-1.978862, 40.966585], [-1.978723, 40.966621], [-1.978572, 40.966663], [-1.978409, 40.966709], [-1.978282, 40.966809], [-1.978192, 40.966964], [-1.978138, 40.967173], [-1.97812, 40.967437], [-1.97806, 40.96764], [-1.977959, 40.967783], [-1.977816, 40.967866], [-1.977631, 40.967888], [-1.977505, 40.967946], [-1.977437, 40.96804], [-1.977427, 40.968168], [-1.977476, 40.968332], [-1.977464, 40.968468], [-1.97739, 40.968575], [-1.977255, 40.968653], [-1.977058, 40.968703], [-1.976899, 40.968749], [-1.976778, 40.96879], [-1.976695, 40.968826], [-1.97665, 40.968858], [-1.976574, 40.968887], [-1.976467, 40.968913], [-1.97633, 40.968936], [-1.976162, 40.968956], [-1.975972, 40.96893], [-1.97576, 40.968858], [-1.975527, 40.968739], [-1.975272, 40.968574], [-1.975062, 40.968534], [-1.974898, 40.96862], [-1.97478, 40.96883], [-1.974707, 40.969166], [-1.974628, 40.969424], [-1.974543, 40.969604], [-1.974451, 40.969707], [-1.974352, 40.969732], [-1.974255, 40.969737], [-1.974157, 40.969723], [-1.974061, 40.969689], [-1.973964, 40.969635], [-1.973886, 40.96954], [-1.973825, 40.969404], [-1.973782, 40.969226], [-1.973757, 40.969007], [-1.973727, 40.968785], [-1.973692, 40.968561], [-1.973653, 40.968333], [-1.973608, 40.968103], [-1.973519, 40.967951], [-1.973384, 40.967876], [-1.973204, 40.967878], [-1.972979, 40.967958], [-1.972793, 40.968065], [-1.972648, 40.968201], [-1.972542, 40.968364], [-1.972475, 40.968555], [-1.97235, 40.96875], [-1.972165, 40.968949], [-1.97192, 40.969152], [-1.971617, 40.969359], [-1.971394, 40.96954], [-1.971252, 40.969694], [-1.97119, 40.969823], [-1.97121, 40.969925], [-1.971155, 40.970016], [-1.971024, 40.970098], [-1.970819, 40.970168], [-1.970538, 40.970229], [-1.97028, 40.970227], [-1.970045, 40.970165], [-1.969832, 40.97004], [-1.969641, 40.969854], [-1.969451, 40.96976], [-1.969262, 40.969756], [-1.969072, 40.969845], [-1.968884, 40.970025], [-1.968716, 40.970182], [-1.968571, 40.970318], [-1.968446, 40.970431], [-1.968344, 40.970522], [-1.968213, 40.970603], [-1.968055, 40.970674], [-1.967869, 40.970736], [-1.967656, 40.970788], [-1.967366, 40.97082], [-1.966999, 40.970832], [-1.966555, 40.970824], [-1.966034, 40.970796], [-1.965625, 40.970728], [-1.965329, 40.97062], [-1.965146, 40.970473], [-1.965076, 40.970285], [-1.965035, 40.970097], [-1.965025, 40.969909], [-1.965044, 40.96972], [-1.965094, 40.969531], [-1.96519, 40.969408], [-1.965334, 40.969352], [-1.965525, 40.969361], [-1.965763, 40.969437], [-1.96596, 40.969481], [-1.966118, 40.969495], [-1.966235, 40.969477], [-1.966311, 40.969429], [-1.966405, 40.969401], [-1.966515, 40.969394], [-1.966642, 40.969408], [-1.966787, 40.969443], [-1.966905, 40.969432], [-1.966997, 40.969375], [-1.967063, 40.969272], [-1.967103, 40.969123], [-1.967151, 40.968974], [-1.967208, 40.968823], [-1.967274, 40.968671], [-1.967347, 40.968519], [-1.967407, 40.968381], [-1.967452, 40.968258], [-1.967482, 40.968149], [-1.967499, 40.968056], [-1.967466, 40.967978], [-1.967386, 40.967916], [-1.967256, 40.967869], [-1.967079, 40.967839], [-1.96695, 40.967861], [-1.96687, 40.967936], [-1.966839, 40.968064], [-1.966856, 40.968245], [-1.966827, 40.968363], [-1.966752, 40.968418], [-1.96663, 40.96841], [-1.966462, 40.968339], [-1.966301, 40.96826], [-1.966147, 40.968174], [-1.966, 40.968081], [-1.96586, 40.96798], [-1.965783, 40.967869], [-1.965768, 40.967747], [-1.965815, 40.967613], [-1.965925, 40.967469], [-1.965948, 40.967342], [-1.965883, 40.967232], [-1.965732, 40.96714], [-1.965494, 40.967064], [-1.965296, 40.96697], [-1.965137, 40.966859], [-1.965017, 40.96673], [-1.964938, 40.966583], [-1.964873, 40.966473], [-1.964825, 40.9664], [-1.964792, 40.966365], [-1.964776, 40.966367], [-1.964722, 40.96638], [-1.964632, 40.966404], [-1.964506, 40.966439], [-1.964343, 40.966485], [-1.964176, 40.966512], [-1.964006, 40.966519], [-1.963832, 40.966508], [-1.963654, 40.966477], [-1.963519, 40.966467], [-1.963427, 40.966479], [-1.963377, 40.966511], [-1.96337, 40.966564], [-1.963383, 40.966631], [-1.963416, 40.966712], [-1.963469, 40.966807], [-1.963541, 40.966916], [-1.96362, 40.967034], [-1.963704, 40.967161], [-1.963795, 40.967297], [-1.963892, 40.967442], [-1.96392, 40.967566], [-1.96388, 40.967669], [-1.963771, 40.967751], [-1.963593, 40.967811], [-1.963491, 40.967883], [-1.963464, 40.967964], [-1.963512, 40.968057], [-1.963635, 40.968159], [-1.963702, 40.968262], [-1.963713, 40.968366], [-1.963669, 40.968469], [-1.963568, 40.968573], [-1.963441, 40.96867], [-1.963287, 40.968761], [-1.963105, 40.968845], [-1.962897, 40.968922], [-1.962749, 40.969002], [-1.962662, 40.969085], [-1.962635, 40.96917], [-1.962669, 40.969257], [-1.962703, 40.969364], [-1.962736, 40.969491], [-1.962768, 40.969637], [-1.9628, 40.969803], [-1.962807, 40.96995], [-1.962788, 40.970076], [-1.962745, 40.970183], [-1.962675, 40.97027], [-1.962556, 40.97032], [-1.962387, 40.970334], [-1.962168, 40.970312], [-1.961899, 40.970253], [-1.96168, 40.970231], [-1.961511, 40.970245], [-1.961391, 40.970295], [-1.961322, 40.970382], [-1.961226, 40.970485], [-1.961103, 40.970605], [-1.960953, 40.97074], [-1.960776, 40.970893], [-1.960606, 40.971015], [-1.960444, 40.971106], [-1.960288, 40.971168], [-1.960139, 40.971199], [-1.95997, 40.971233], [-1.959779, 40.971269], [-1.959567, 40.971308], [-1.959335, 40.971349], [-1.95911, 40.971409], [-1.958893, 40.971488], [-1.958684, 40.971585], [-1.958483, 40.971701], [-1.958301, 40.971805], [-1.958138, 40.971896], [-1.957995, 40.971976], [-1.95787, 40.972043], [-1.957734, 40.972004], [-1.957586, 40.971859], [-1.957425, 40.971607], [-1.957253, 40.971249], [-1.957099, 40.970983], [-1.956962, 40.97081], [-1.956844, 40.97073], [-1.956743, 40.970742], [-1.956646, 40.970793], [-1.956551, 40.970883], [-1.95646, 40.971012], [-1.956372, 40.971179], [-1.956277, 40.971289], [-1.956175, 40.971341], [-1.956067, 40.971334], [-1.955951, 40.97127], [-1.955844, 40.97125], [-1.955746, 40.971275], [-1.955656, 40.971345], [-1.955575, 40.971459], [-1.955472, 40.971573], [-1.955348, 40.971686], [-1.955202, 40.971799], [-1.955035, 40.971911], [-1.954864, 40.972003], [-1.954689, 40.972077], [-1.95451, 40.972131], [-1.954328, 40.972166], [-1.954145, 40.972218], [-1.95396, 40.972286], [-1.953774, 40.972371], [-1.953588, 40.972472], [-1.953402, 40.972491], [-1.953218, 40.972429], [-1.953036, 40.972284], [-1.952855, 40.972058], [-1.952654, 40.971928], [-1.952433, 40.971896], [-1.952192, 40.971962], [-1.951931, 40.972124], [-1.95173, 40.972197], [-1.95159, 40.972182], [-1.95151, 40.972077], [-1.951489, 40.971884], [-1.951512, 40.971711], [-1.951577, 40.971559], [-1.951685, 40.971428], [-1.951836, 40.971319], [-1.952048, 40.971192], [-1.952321, 40.971047], [-1.952655, 40.970886], [-1.95305, 40.970707], [-1.953352, 40.970556], [-1.95356, 40.970433], [-1.953675, 40.970337], [-1.953696, 40.970269], [-1.953753, 40.970207], [-1.953845, 40.97015], [-1.953973, 40.970098], [-1.954136, 40.970052], [-1.954496, 40.970005], [-1.955054, 40.969957], [-1.955809, 40.969908], [-1.956762, 40.969858], [-1.957469, 40.969804], [-1.957931, 40.969748], [-1.958147, 40.969689], [-1.958118, 40.969627], [-1.95812, 40.969552], [-1.958155, 40.969463], [-1.958221, 40.96936], [-1.958319, 40.969243], [-1.958338, 40.96914], [-1.958277, 40.969049], [-1.958138, 40.968971], [-1.957919, 40.968906], [-1.957825, 40.968846], [-1.957858, 40.96879], [-1.958015, 40.968738], [-1.958298, 40.96869], [-1.958507, 40.968593], [-1.958642, 40.968446], [-1.958703, 40.968249], [-1.95869, 40.968002], [-1.958673, 40.967713], [-1.958652, 40.967383], [-1.958627, 40.96701], [-1.958599, 40.966595], [-1.958618, 40.966315], [-1.958684, 40.966169], [-1.958798, 40.966159], [-1.95896, 40.966283], [-1.959141, 40.966356], [-1.959343, 40.966377], [-1.959565, 40.966347], [-1.959807, 40.966265], [-1.96006, 40.966107], [-1.960324, 40.965872], [-1.960599, 40.965561], [-1.960885, 40.965173], [-1.961089, 40.964838], [-1.961209, 40.964557], [-1.961247, 40.964328], [-1.961203, 40.964152], [-1.961168, 40.96402], [-1.961142, 40.963932], [-1.961126, 40.963887], [-1.961119, 40.963886], [-1.961095, 40.963871], [-1.961052, 40.963843], [-1.96099, 40.963801], [-1.960911, 40.963745], [-1.96081, 40.963689], [-1.960687, 40.963632], [-1.960543, 40.963574], [-1.960377, 40.963516], [-1.96016, 40.963461], [-1.959892, 40.963408], [-1.959573, 40.963359], [-1.959204, 40.963312], [-1.958872, 40.96331], [-1.95858, 40.963352], [-1.958326, 40.963438], [-1.95811, 40.963569], [-1.957934, 40.963659], [-1.957798, 40.963708], [-1.957701, 40.963717], [-1.957643, 40.963685], [-1.957626, 40.963621], [-1.957651, 40.963527], [-1.957717, 40.963401], [-1.957824, 40.963244], [-1.957874, 40.963098], [-1.957864, 40.962962], [-1.957797, 40.962836], [-1.957672, 40.96272], [-1.957664, 40.962659], [-1.957775, 40.962652], [-1.958003, 40.9627], [-1.958349, 40.962801], [-1.958716, 40.962878], [-1.959104, 40.962929], [-1.959513, 40.962954], [-1.959942, 40.962954], [-1.960293, 40.962925], [-1.960565, 40.962865], [-1.960759, 40.962777], [-1.960873, 40.962658], [-1.961048, 40.962428], [-1.961283, 40.962085], [-1.961577, 40.961631], [-1.961932, 40.961065], [-1.962269, 40.960648], [-1.962586, 40.960381], [-1.962886, 40.960263], [-1.963167, 40.960294], [-1.963402, 40.960288], [-1.963591, 40.960246], [-1.963735, 40.960166], [-1.963833, 40.96005], [-1.963929, 40.959927], [-1.964025, 40.959798], [-1.964119, 40.959662], [-1.964212, 40.95952], [-1.964241, 40.959405], [-1.964207, 40.959318], [-1.96411, 40.959258], [-1.963949, 40.959225], [-1.963865, 40.959147], [-1.963858, 40.959024], [-1.963929, 40.958855], [-1.964077, 40.958641], [-1.964219, 40.958467], [-1.964357, 40.958332], [-1.964489, 40.958238], [-1.964616, 40.958183], [-1.964752, 40.958131], [-1.964896, 40.95808], [-1.96505, 40.958032], [-1.965213, 40.957986], [-1.965399, 40.957967], [-1.965606, 40.957975], [-1.965836, 40.958009], [-1.966089, 40.958069], [-1.966422, 40.95815], [-1.966836, 40.95825], [-1.967332, 40.958369], [-1.967909, 40.958508], [-1.968382, 40.958601], [-1.968752, 40.958648], [-1.969018, 40.958648], [-1.969181, 40.958602], [-1.969316, 40.958592], [-1.969425, 40.958618], [-1.969505, 40.95868], [-1.969559, 40.958778], [-1.969659, 40.958831], [-1.969807, 40.95884], [-1.970001, 40.958803], [-1.970243, 40.958721], [-1.970452, 40.958643], [-1.970627, 40.95857], [-1.970768, 40.9585], [-1.970876, 40.958435], [-1.970885, 40.958375], [-1.970798, 40.95832], [-1.970612, 40.958271], [-1.970329, 40.958227], [-1.97018, 40.958127], [-1.970168, 40.957972], [-1.97029, 40.957761], [-1.970548, 40.957494], [-1.97083, 40.95731], [-1.971137, 40.957207], [-1.971468, 40.957186], [-1.971823, 40.957248], [-1.97213, 40.957279], [-1.972388, 40.95728], [-1.972597, 40.957252], [-1.972758, 40.957193], [-1.973022, 40.957069], [-1.973389, 40.956881], [-1.97386, 40.956627], [-1.974435, 40.956309], [-1.974954, 40.956086], [-1.975419, 40.955957], [-1.975829, 40.955924], [-1.976185, 40.955985], [-1.976508, 40.956034], [-1.976798, 40.95607], [-1.977056, 40.956095], [-1.977282, 40.956106], [-1.977527, 40.956129], [-1.977791, 40.956162], [-1.978074, 40.956206], [-1.978377, 40.956261], [-1.978638, 40.95632], [-1.978856, 40.956385], [-1.979033, 40.956455], [-1.979168, 40.95653], [-1.979323, 40.956619], [-1.979497, 40.956722], [-1.979691, 40.956839], [-1.979906, 40.95697], [-1.980076, 40.957093], [-1.980201, 40.957209], [-1.980282, 40.957316], [-1.980318, 40.957417], [-1.980362, 40.957509], [-1.980413, 40.957595], [-1.980471, 40.957673], [-1.980536, 40.957743], [-1.980645, 40.957795], [-1.980797, 40.957829], [-1.980994, 40.957844], [-1.981234, 40.957841], [-1.981501, 40.957848], [-1.981797, 40.957864], [-1.982119, 40.95789], [-1.98247, 40.957926], [-1.982685, 40.957926], [-1.982764, 40.95789], [-1.982707, 40.957819], [-1.982514, 40.957711], [-1.982379, 40.95759], [-1.982302, 40.957456], [-1.982282, 40.957308], [-1.98232, 40.957147], [-1.982279, 40.957001], [-1.982159, 40.956872], [-1.981961, 40.956759], [-1.981685, 40.956662], [-1.981434, 40.956611], [-1.98121, 40.956605], [-1.981012, 40.956646], [-1.980839, 40.956732], [-1.98069, 40.95674], [-1.980565, 40.956671], [-1.980464, 40.956523], [-1.980386, 40.956297], [-1.980334, 40.95612], [-1.98031, 40.955993], [-1.980312, 40.955914], [-1.98034, 40.955884], [-1.9804, 40.955835], [-1.980489, 40.955765], [-1.980609, 40.955675], [-1.98076, 40.955565], [-1.980931, 40.955472], [-1.981123, 40.955397], [-1.981335, 40.955338], [-1.981567, 40.955297], [-1.981756, 40.955251], [-1.981901, 40.955201], [-1.982002, 40.955146], [-1.982059, 40.955087], [-1.982118, 40.955014], [-1.982179, 40.954928], [-1.982242, 40.954829], [-1.982306, 40.954717], [-1.98238, 40.954636], [-1.982465, 40.954586], [-1.982561, 40.954568], [-1.982666, 40.954581], [-1.982728, 40.954613], [-1.982746, 40.954663], [-1.982721, 40.954732], [-1.982652, 40.954818], [-1.982595, 40.954904], [-1.982551, 40.954988], [-1.98252, 40.95507], [-1.982501, 40.955151], [-1.982507, 40.955225], [-1.982537, 40.955293], [-1.982592, 40.955355], [-1.982672, 40.955411], [-1.98273, 40.955469], [-1.982768, 40.95553], [-1.982784, 40.955593], [-1.98278, 40.955659], [-1.982746, 40.955729], [-1.982683, 40.955802], [-1.98259, 40.955878], [-1.982468, 40.955959], [-1.982382, 40.956044], [-1.982331, 40.956135], [-1.982315, 40.956232], [-1.982335, 40.956334], [-1.982424, 40.956418], [-1.982583, 40.956484], [-1.982811, 40.956531], [-1.983108, 40.95656], [-1.98333, 40.956615], [-1.983474, 40.956696], [-1.983542, 40.956802], [-1.983533, 40.956934], [-1.983514, 40.95708], [-1.983485, 40.95724], [-1.983445, 40.957415], [-1.983396, 40.957604], [-1.983379, 40.957763], [-1.983396, 40.957892], [-1.983445, 40.95799], [-1.983527, 40.958059], [-1.983613, 40.958084], [-1.983704, 40.958066], [-1.9838, 40.958006], [-1.9839, 40.957902], [-1.983969, 40.957792], [-1.984007, 40.957677], [-1.984014, 40.957555], [-1.983989, 40.957427], [-1.983979, 40.957288], [-1.983984, 40.957137], [-1.984005, 40.956974], [-1.98404, 40.9568], [-1.984097, 40.956607], [-1.984176, 40.956394], [-1.984277, 40.956163], [-1.984401, 40.955913], [-1.984507, 40.955684], [-1.984596, 40.955477], [-1.984668, 40.955292], [-1.984722, 40.955128], [-1.98474, 40.954999], [-1.984721, 40.954903], [-1.984667, 40.954841], [-1.984575, 40.954813], [-1.984504, 40.954753], [-1.984451, 40.954661], [-1.984419, 40.954538], [-1.984406, 40.954383], [-1.984476, 40.954256], [-1.984629, 40.954159], [-1.984865, 40.954091], [-1.985184, 40.954052], [-1.98545, 40.954004], [-1.985662, 40.953945], [-1.985821, 40.953877], [-1.985926, 40.953799], [-1.985892, 40.953715], [-1.98572, 40.953624], [-1.98541, 40.953528], [-1.98496, 40.953426], [-1.984577, 40.953329], [-1.984258, 40.953237], [-1.984005, 40.95315], [-1.983817, 40.953068], [-1.983614, 40.952992], [-1.983394, 40.952921], [-1.983158, 40.952855], [-1.982905, 40.952794], [-1.982626, 40.952815], [-1.982319, 40.952918], [-1.981986, 40.953102], [-1.981625, 40.953368], [-1.981323, 40.953585], [-1.98108, 40.953752], [-1.980896, 40.953869], [-1.980772, 40.953936], [-1.980676, 40.953905], [-1.980608, 40.953776], [-1.980568, 40.953549], [-1.980557, 40.953224], [-1.980749, 40.952929], [-1.981145, 40.952665], [-1.981745, 40.952432], [-1.982547, 40.95223], [-1.983196, 40.952075], [-1.983691, 40.951969], [-1.984032, 40.951911], [-1.984219, 40.951902], [-1.984486, 40.951905], [-1.984833, 40.951922], [-1.98526, 40.951951], [-1.985766, 40.951994], [-1.986186, 40.952054], [-1.986519, 40.952131], [-1.986765, 40.952226], [-1.986924, 40.952337], [-1.987064, 40.952398], [-1.987187, 40.95241], [-1.987291, 40.952371], [-1.987377, 40.952282], [-1.987457, 40.95221], [-1.987533, 40.952155], [-1.987603, 40.952117], [-1.987667, 40.952096], [-1.987746, 40.952057], [-1.987838, 40.952], [-1.987944, 40.951925], [-1.988063, 40.951832], [-1.988183, 40.951765], [-1.988304, 40.951724], [-1.988426, 40.95171], [-1.988548, 40.951721], [-1.988652, 40.95177], [-1.988738, 40.951858], [-1.988805, 40.951984], [-1.988854, 40.952148], [-1.988933, 40.952266], [-1.989041, 40.952337], [-1.989179, 40.952363], [-1.989347, 40.952342], [-1.989534, 40.95233], [-1.989739, 40.952324], [-1.989963, 40.952326], [-1.990205, 40.952336], [-1.99044, 40.952353], [-1.990669, 40.952378], [-1.99089, 40.952411], [-1.991104, 40.952451], [-1.991296, 40.952487], [-1.991465, 40.952518], [-1.991612, 40.952546], [-1.991737, 40.952569], [-1.991827, 40.952537], [-1.991882, 40.952451], [-1.991904, 40.952309], [-1.99189, 40.952113], [-1.991921, 40.951942], [-1.991996, 40.951795], [-1.992115, 40.951674], [-1.992278, 40.951577], [-1.99245, 40.951499], [-1.992632, 40.951438], [-1.992824, 40.951396], [-1.993025, 40.951371], [-1.993248, 40.951344], [-1.993491, 40.951314], [-1.993756, 40.951282], [-1.994041, 40.951247], [-1.994264, 40.951204], [-1.994426, 40.951151], [-1.994526, 40.95109], [-1.994564, 40.95102], [-1.994653, 40.95097], [-1.994793, 40.95094], [-1.994985, 40.95093], [-1.995227, 40.950939], [-1.995514, 40.950999], [-1.995844, 40.951109], [-1.996219, 40.95127], [-1.996637, 40.95148], [-1.996989, 40.951653], [-1.997272, 40.951788], [-1.997489, 40.951886], [-1.997638, 40.951946], [-1.997767, 40.952012], [-1.997875, 40.952084], [-1.997963, 40.952162], [-1.998031, 40.952245], [-1.998139, 40.952313], [-1.998286, 40.952367], [-1.998474, 40.952406], [-1.998703, 40.952431], [-1.998912, 40.952448], [-1.999103, 40.952457], [-1.999275, 40.952459], [-1.999429, 40.952454], [-1.999578, 40.952471], [-1.999723, 40.952512], [-1.999865, 40.952577], [-2.000002, 40.952665], [-2.000117, 40.952726], [-2.000209, 40.95276], [-2.00028, 40.952768], [-2.000328, 40.952749], [-2.00042, 40.952695], [-2.000558, 40.952607], [-2.00074, 40.952483], [-2.000967, 40.952325], [-2.00113, 40.952187], [-2.001227, 40.952071], [-2.00126, 40.951975], [-2.001229, 40.951901], [-2.001174, 40.951819], [-2.001097, 40.95173], [-2.000997, 40.951635], [-2.000874, 40.951532], [-2.000775, 40.95142], [-2.0007, 40.951298], [-2.000649, 40.951167], [-2.000622, 40.951027], [-2.00057, 40.950912], [-2.000492, 40.950824], [-2.00039, 40.950761], [-2.000263, 40.950724], [-2.000137, 40.95072], [-2.000014, 40.950748], [-1.999892, 40.950809], [-1.999773, 40.950902], [-1.999644, 40.95097], [-1.999506, 40.951012], [-1.99936, 40.95103], [-1.999204, 40.951023], [-1.999016, 40.950987], [-1.998798, 40.950922], [-1.998547, 40.950829], [-1.998266, 40.950706], [-1.998047, 40.950507], [-1.997891, 40.950232], [-1.997797, 40.949881], [-1.997766, 40.949453], [-1.997785, 40.949127], [-1.997853, 40.948903], [-1.997971, 40.948781], [-1.998139, 40.948761], [-1.998345, 40.948736], [-1.998588, 40.948706], [-1.998869, 40.948672], [-1.999188, 40.948633], [-1.999452, 40.948597], [-1.999661, 40.948565], [-1.999814, 40.948537], [-1.999912, 40.948512], [-2.0, 40.948478], [-2.000078, 40.948436], [-2.000145, 40.948385], [-2.000203, 40.948326], [-2.000276, 40.948261], [-2.000366, 40.948192], [-2.000472, 40.948117], [-2.000593, 40.948036], [-2.000722, 40.947968], [-2.000857, 40.947913], [-2.000999, 40.947869], [-2.001148, 40.947838], [-2.001252, 40.947776], [-2.001311, 40.947684], [-2.001326, 40.947561], [-2.001297, 40.947408], [-2.001287, 40.947292], [-2.001297, 40.947212], [-2.001328, 40.947169], [-2.001378, 40.947163], [-2.001475, 40.947128], [-2.001617, 40.947065], [-2.001805, 40.946973], [-2.00204, 40.946853], [-2.00219, 40.946743], [-2.002257, 40.946644], [-2.00224, 40.946554], [-2.002139, 40.946475], [-2.002104, 40.946407], [-2.002136, 40.946351], [-2.002235, 40.946306], [-2.0024, 40.946273], [-2.002596, 40.94624], [-2.002821, 40.946206], [-2.003076, 40.946171], [-2.003362, 40.946136], [-2.003624, 40.946117], [-2.003864, 40.946114], [-2.004081, 40.946127], [-2.004276, 40.946156], [-2.004487, 40.946228], [-2.004716, 40.946344], [-2.004962, 40.946503], [-2.005224, 40.946707], [-2.00546, 40.946838], [-2.005669, 40.946897], [-2.005852, 40.946885], [-2.006007, 40.946801], [-2.006143, 40.94673], [-2.006259, 40.946674], [-2.006355, 40.946631], [-2.006431, 40.946603], [-2.006516, 40.946541], [-2.006609, 40.946444], [-2.00671, 40.946314], [-2.00682, 40.94615], [-2.006923, 40.946021], [-2.007018, 40.945927], [-2.007107, 40.945869], [-2.007188, 40.945846], [-2.007287, 40.945824], [-2.007403, 40.945803], [-2.007537, 40.945784], [-2.007688, 40.945765], [-2.007872, 40.945759], [-2.008088, 40.945766], [-2.008336, 40.945784], [-2.008617, 40.945815], [-2.008835, 40.945812], [-2.008991, 40.945773], [-2.009084, 40.945699], [-2.009115, 40.945591], [-2.009165, 40.945497], [-2.009235, 40.945416], [-2.009326, 40.94535], [-2.009436, 40.945297], [-2.009539, 40.945252], [-2.009634, 40.945214], [-2.009723, 40.945183], [-2.009805, 40.94516], [-2.009895, 40.945162], [-2.009995, 40.94519], [-2.010104, 40.945242], [-2.010222, 40.945319], [-2.010334, 40.945413], [-2.010442, 40.945524], [-2.010544, 40.945652], [-2.010641, 40.945797], [-2.010731, 40.94593], [-2.010814, 40.94605], [-2.010891, 40.946159], [-2.010961, 40.946255], [-2.011033, 40.946318], [-2.011108, 40.946348], [-2.011185, 40.946345], [-2.011264, 40.946309], [-2.011335, 40.946278], [-2.011398, 40.94625], [-2.011454, 40.946227], [-2.011502, 40.946208], [-2.011616, 40.946201], [-2.011798, 40.946205], [-2.012045, 40.94622], [-2.01236, 40.946247], [-2.012605, 40.94625], [-2.012782, 40.946229], [-2.012889, 40.946183], [-2.012927, 40.946113], [-2.012969, 40.946042], [-2.013015, 40.945971], [-2.013066, 40.9459], [-2.013121, 40.945828], [-2.013183, 40.945774], [-2.013254, 40.945739], [-2.013332, 40.945723], [-2.013419, 40.945726], [-2.01352, 40.945736], [-2.013635, 40.945755], [-2.013765, 40.945782], [-2.013909, 40.945816], [-2.014043, 40.945865], [-2.014167, 40.945929], [-2.01428, 40.946006], [-2.014384, 40.946098], [-2.014507, 40.946158], [-2.01465, 40.946187], [-2.014813, 40.946183], [-2.014995, 40.946148], [-2.015101, 40.946184], [-2.01513, 40.946292], [-2.015083, 40.94647], [-2.01496, 40.946721], [-2.014894, 40.946912], [-2.014885, 40.947044], [-2.014933, 40.947116], [-2.015039, 40.94713], [-2.015141, 40.947192], [-2.01524, 40.947304], [-2.015336, 40.947466], [-2.015428, 40.947677], [-2.015507, 40.947772], [-2.015572, 40.947751], [-2.015622, 40.947614], [-2.015659, 40.947361], [-2.015706, 40.947159], [-2.015763, 40.947008], [-2.01583, 40.946909], [-2.015906, 40.94686], [-2.015995, 40.94681], [-2.016097, 40.946759], [-2.016211, 40.946705], [-2.016338, 40.946651], [-2.016486, 40.946593], [-2.016655, 40.946533], [-2.016844, 40.946471], [-2.017055, 40.946406], [-2.017206, 40.946388], [-2.017298, 40.946416], [-2.017329, 40.94649], [-2.017301, 40.946611], [-2.017293, 40.946724], [-2.017304, 40.946827], [-2.017335, 40.946921], [-2.017386, 40.947006], [-2.017463, 40.947049], [-2.017566, 40.94705], [-2.017696, 40.947008], [-2.017851, 40.946923], [-2.017983, 40.946829], [-2.018092, 40.946724], [-2.018177, 40.946609], [-2.018239, 40.946484], [-2.018303, 40.946397], [-2.018372, 40.94635], [-2.018443, 40.946341], [-2.018517, 40.946371], [-2.018623, 40.946404], [-2.018758, 40.94644], [-2.018925, 40.946478], [-2.019122, 40.94652], [-2.019303, 40.946557], [-2.019467, 40.94659], [-2.019615, 40.946618], [-2.019747, 40.946642], [-2.019867, 40.946664], [-2.019974, 40.946684], [-2.020068, 40.946701], [-2.02015, 40.946716], [-2.020299, 40.946736], [-2.020515, 40.946762], [-2.020798, 40.946792], [-2.021149, 40.946828], [-2.021501, 40.94685], [-2.021855, 40.946859], [-2.022211, 40.946855], [-2.022568, 40.946837], [-2.022869, 40.946817], [-2.023114, 40.946794], [-2.023302, 40.946767], [-2.023434, 40.946738], [-2.02362, 40.946725], [-2.023861, 40.946728], [-2.024157, 40.946748], [-2.024508, 40.946783], [-2.024839, 40.946808], [-2.025151, 40.946822], [-2.025444, 40.946826], [-2.025717, 40.946819], [-2.026065, 40.946819], [-2.026487, 40.946826], [-2.026984, 40.94684], [-2.027555, 40.946862], [-2.028024, 40.946818], [-2.028389, 40.946708], [-2.028651, 40.946532], [-2.02881, 40.94629], [-2.028965, 40.946111], [-2.029114, 40.945995], [-2.029258, 40.945941], [-2.029398, 40.94595], [-2.029508, 40.94592], [-2.029589, 40.945852], [-2.029641, 40.945744], [-2.029664, 40.945597], [-2.029704, 40.945449], [-2.029761, 40.945298], [-2.029834, 40.945145], [-2.029925, 40.94499], [-2.030009, 40.944784], [-2.030088, 40.944526], [-2.030161, 40.944216], [-2.030229, 40.943855], [-2.030306, 40.943545], [-2.030393, 40.943285], [-2.03049, 40.943078], [-2.030597, 40.942921], [-2.030713, 40.942766], [-2.030838, 40.942613], [-2.030972, 40.942463], [-2.031116, 40.942315], [-2.031262, 40.942186], [-2.031413, 40.942076], [-2.031567, 40.941985], [-2.031725, 40.941913], [-2.031906, 40.941852], [-2.032111, 40.941801], [-2.03234, 40.94176], [-2.032591, 40.941729], [-2.032823, 40.941704], [-2.033034, 40.941685], [-2.033224, 40.941671], [-2.033395, 40.941663], [-2.033564, 40.941652], [-2.033733, 40.941638], [-2.033902, 40.941621], [-2.03407, 40.9416], [-2.034231, 40.94159], [-2.034386, 40.941591], [-2.034534, 40.941602], [-2.034676, 40.941624], [-2.0348, 40.941645], [-2.034908, 40.941663], [-2.034999, 40.94168], [-2.035073, 40.941696], [-2.035159, 40.941714], [-2.035257, 40.941734], [-2.035368, 40.941758], [-2.035491, 40.941783], [-2.035628, 40.941828], [-2.035779, 40.94189], [-2.035944, 40.941971], [-2.036123, 40.942071], [-2.036282, 40.942148], [-2.036422, 40.942203], [-2.036542, 40.942235], [-2.036642, 40.942246], [-2.03683, 40.942262], [-2.037107, 40.942285], [-2.037472, 40.942315], [-2.037926, 40.942351], [-2.03834, 40.942359], [-2.038714, 40.942339], [-2.039049, 40.942292], [-2.039343, 40.942217], [-2.039616, 40.942203], [-2.039865, 40.942251], [-2.040093, 40.94236], [-2.040298, 40.942531], [-2.04046, 40.942639], [-2.040581, 40.942683], [-2.040658, 40.942664], [-2.040694, 40.942581], [-2.040771, 40.942513], [-2.040889, 40.942459], [-2.041049, 40.94242], [-2.041251, 40.942395], [-2.041445, 40.942358], [-2.041633, 40.942309], [-2.041815, 40.942248], [-2.041989, 40.942174], [-2.042198, 40.942099], [-2.042441, 40.942024], [-2.042719, 40.941947], [-2.04303, 40.94187], [-2.043313, 40.941826], [-2.043569, 40.941814], [-2.043796, 40.941835], [-2.043996, 40.941889], [-2.044211, 40.941935], [-2.044441, 40.941972], [-2.044688, 40.942], [-2.044949, 40.942021], [-2.045191, 40.94205], [-2.045413, 40.942088], [-2.045616, 40.942135], [-2.045798, 40.942191], [-2.045972, 40.942265], [-2.046135, 40.942356], [-2.046289, 40.942465], [-2.046434, 40.942591], [-2.046611, 40.942729], [-2.046821, 40.94288], [-2.047063, 40.943043], [-2.047338, 40.943219], [-2.047536, 40.943286], [-2.047657, 40.943245], [-2.047701, 40.943096], [-2.047668, 40.942838], [-2.047664, 40.942597], [-2.047689, 40.942372], [-2.047743, 40.942162], [-2.047826, 40.941969], [-2.047889, 40.941808], [-2.047932, 40.941678], [-2.047956, 40.941581], [-2.047961, 40.941515], [-2.047932, 40.941499], [-2.04787, 40.941532], [-2.047774, 40.941616], [-2.047645, 40.941749], [-2.047508, 40.941861], [-2.047362, 40.941951], [-2.047208, 40.942019], [-2.047045, 40.942065], [-2.046882, 40.942085], [-2.046717, 40.942079], [-2.046552, 40.942047], [-2.046386, 40.941989], [-2.046261, 40.941919], [-2.046176, 40.941838], [-2.046133, 40.941745], [-2.04613, 40.941641], [-2.046122, 40.941534], [-2.046109, 40.941424], [-2.046092, 40.941312], [-2.046069, 40.941197], [-2.046064, 40.941083], [-2.046077, 40.940971], [-2.046107, 40.940859], [-2.046154, 40.940749], [-2.04621, 40.940637], [-2.046274, 40.940525], [-2.046346, 40.940411], [-2.046427, 40.940297], [-2.046513, 40.940162], [-2.046603, 40.940007], [-2.046698, 40.939832], [-2.046798, 40.939637], [-2.046909, 40.939483], [-2.047033, 40.93937], [-2.04717, 40.939297], [-2.047318, 40.939266], [-2.047514, 40.939232], [-2.047756, 40.939196], [-2.048045, 40.939157], [-2.04838, 40.939116], [-2.048614, 40.939058], [-2.048745, 40.938983], [-2.048775, 40.938892], [-2.048702, 40.938783], [-2.048596, 40.938658], [-2.048457, 40.938519], [-2.048286, 40.938363], [-2.048081, 40.938192], [-2.047967, 40.938072], [-2.047945, 40.938003], [-2.048014, 40.937984], [-2.048175, 40.938017], [-2.048359, 40.938053], [-2.048564, 40.938094], [-2.048792, 40.938138], [-2.049041, 40.938186], [-2.049258, 40.938237], [-2.04944, 40.938294], [-2.049589, 40.938354], [-2.049705, 40.938418], [-2.049832, 40.938455], [-2.049972, 40.938464], [-2.050123, 40.938445], [-2.050285, 40.938399], [-2.050442, 40.938344], [-2.050593, 40.93828], [-2.050738, 40.938207], [-2.050876, 40.938124], [-2.051014, 40.938058], [-2.05115, 40.938009], [-2.051286, 40.937976], [-2.05142, 40.93796], [-2.051563, 40.937945], [-2.051715, 40.937933], [-2.051877, 40.937923], [-2.052047, 40.937915], [-2.052178, 40.937883], [-2.05227, 40.937826], [-2.052323, 40.937744], [-2.052337, 40.937638], [-2.052381, 40.937554], [-2.052455, 40.937493], [-2.052559, 40.937454], [-2.052693, 40.937437], [-2.052823, 40.937402], [-2.05295, 40.937347], [-2.053073, 40.937273], [-2.053193, 40.93718], [-2.053299, 40.937131], [-2.053393, 40.937126], [-2.053473, 40.937165], [-2.053541, 40.937249], [-2.053597, 40.937291], [-2.05364, 40.937292], [-2.053671, 40.937252], [-2.053689, 40.937172], [-2.05371, 40.937081], [-2.053734, 40.93698], [-2.053759, 40.936869], [-2.053787, 40.936748], [-2.053881, 40.936674], [-2.054039, 40.936648], [-2.054262, 40.93667], [-2.05455, 40.936739], [-2.054807, 40.936721], [-2.055032, 40.936615], [-2.055225, 40.936421], [-2.055387, 40.936139], [-2.055519, 40.93593], [-2.055621, 40.935793], [-2.055694, 40.935727], [-2.055736, 40.935734], [-2.055805, 40.935732], [-2.055901, 40.93572], [-2.056023, 40.935699], [-2.056172, 40.935669], [-2.05632, 40.935635], [-2.056468, 40.935598], [-2.056614, 40.935558], [-2.056761, 40.935514], [-2.056899, 40.935474], [-2.057029, 40.935438], [-2.057152, 40.935407], [-2.057267, 40.93538], [-2.057381, 40.935392], [-2.057494, 40.935443], [-2.057606, 40.935534], [-2.057717, 40.935665], [-2.057812, 40.935774], [-2.057889, 40.935862], [-2.057949, 40.93593], [-2.057993, 40.935977], [-2.058052, 40.935996], [-2.058128, 40.935987], [-2.058219, 40.935949], [-2.058327, 40.935884], [-2.058444, 40.935824], [-2.058571, 40.935769], [-2.058707, 40.93572], [-2.058853, 40.935676], [-2.059, 40.935635], [-2.059147, 40.935597], [-2.059295, 40.935563], [-2.059444, 40.935531], [-2.059593, 40.935503], [-2.059743, 40.935478], [-2.059893, 40.935457], [-2.060044, 40.935438], [-2.060177, 40.935435], [-2.060291, 40.935447], [-2.060386, 40.935475], [-2.060463, 40.935517], [-2.060536, 40.935558], [-2.060603, 40.935595], [-2.060666, 40.93563], [-2.060723, 40.935662], [-2.060846, 40.935654], [-2.061034, 40.935604], [-2.061287, 40.935514], [-2.061606, 40.935384], [-2.061872, 40.935315], [-2.062085, 40.935309], [-2.062246, 40.935364], [-2.062355, 40.935482], [-2.062465, 40.935586], [-2.062577, 40.935677], [-2.062691, 40.935754], [-2.062807, 40.935818], [-2.062913, 40.935881], [-2.063011, 40.935941], [-2.063099, 40.935998], [-2.063179, 40.936054], [-2.063285, 40.936113], [-2.063417, 40.936175], [-2.063576, 40.936241], [-2.063761, 40.936309], [-2.063909, 40.936363], [-2.06402, 40.936402], [-2.064093, 40.936426], [-2.064129, 40.936434], [-2.064166, 40.936472], [-2.064205, 40.936539], [-2.064246, 40.936636], [-2.064287, 40.936761], [-2.06435, 40.936862], [-2.064433, 40.936936], [-2.064537, 40.936986], [-2.064662, 40.93701], [-2.064802, 40.937025], [-2.064958, 40.937032], [-2.06513, 40.937031], [-2.065317, 40.937021], [-2.06546, 40.937026], [-2.065558, 40.937047], [-2.065612, 40.937083], [-2.065622, 40.937134], [-2.065667, 40.93721], [-2.065747, 40.937311], [-2.065862, 40.937438], [-2.066011, 40.937589], [-2.066145, 40.937727], [-2.066264, 40.937849], [-2.066366, 40.937958], [-2.066453, 40.938052], [-2.066551, 40.938134], [-2.06666, 40.938206], [-2.066779, 40.938267], [-2.066909, 40.938316], [-2.067045, 40.938375], [-2.067186, 40.938442], [-2.067335, 40.938519], [-2.067489, 40.938605], [-2.067671, 40.938683], [-2.067883, 40.938756], [-2.068123, 40.938821], [-2.068393, 40.938879], [-2.068615, 40.938921], [-2.068792, 40.938945], [-2.068922, 40.938952], [-2.069006, 40.938941], [-2.069122, 40.938943], [-2.069271, 40.938958], [-2.069452, 40.938985], [-2.069666, 40.939024], [-2.069887, 40.939056], [-2.070115, 40.93908], [-2.07035, 40.939097], [-2.070593, 40.939106], [-2.070826, 40.939133], [-2.071049, 40.939178], [-2.071263, 40.93924], [-2.071468, 40.939319], [-2.071643, 40.939383], [-2.07179, 40.93943], [-2.071908, 40.939461], [-2.071996, 40.939477], [-2.072115, 40.939511], [-2.072263, 40.939565], [-2.07244, 40.939638], [-2.072647, 40.93973], [-2.072839, 40.939811], [-2.073016, 40.939881], [-2.073177, 40.93994], [-2.073324, 40.939987], [-2.07347, 40.940028], [-2.073614, 40.940063], [-2.073757, 40.940091], [-2.073898, 40.940113], [-2.074028, 40.940139], [-2.074146, 40.940171], [-2.074252, 40.940207], [-2.074345, 40.940247], [-2.074456, 40.940286], [-2.074584, 40.940323], [-2.074728, 40.940357], [-2.074889, 40.94039], [-2.075039, 40.940388], [-2.075178, 40.940351], [-2.075305, 40.94028], [-2.075422, 40.940174], [-2.075567, 40.940146], [-2.07574, 40.940197], [-2.075942, 40.940326], [-2.076171, 40.940533], [-2.076333, 40.940729], [-2.076429, 40.940913], [-2.076459, 40.941086], [-2.076421, 40.941248], [-2.076368, 40.941392], [-2.076298, 40.941518], [-2.076212, 40.941627], [-2.076109, 40.941718], [-2.075982, 40.941803], [-2.075831, 40.941882], [-2.075656, 40.941956], [-2.075456, 40.942023], [-2.075316, 40.942095], [-2.075235, 40.942171], [-2.075213, 40.942251], [-2.07525, 40.942335], [-2.075274, 40.942399], [-2.075285, 40.942441], [-2.075284, 40.942463], [-2.07527, 40.942463], [-2.075245, 40.942478], [-2.07521, 40.942508], [-2.075163, 40.942553], [-2.075106, 40.942612], [-2.075059, 40.942703], [-2.075023, 40.942825], [-2.074997, 40.942979], [-2.074981, 40.943164], [-2.074988, 40.943333], [-2.075018, 40.943486], [-2.075071, 40.943623], [-2.075146, 40.943745], [-2.075207, 40.943838], [-2.075254, 40.943902], [-2.075286, 40.943937], [-2.075304, 40.943944], [-2.07536, 40.943965], [-2.075452, 40.943999], [-2.075582, 40.944047], [-2.075749, 40.944109], [-2.075912, 40.944151], [-2.076071, 40.944173], [-2.076226, 40.944174], [-2.076377, 40.944156], [-2.076512, 40.944165], [-2.076631, 40.944203], [-2.076734, 40.944269], [-2.076821, 40.944363], [-2.076908, 40.944457], [-2.076995, 40.944551], [-2.077082, 40.944645], [-2.077169, 40.944739], [-2.077255, 40.944849], [-2.07734, 40.944976], [-2.077424, 40.945119], [-2.077506, 40.945279], [-2.077606, 40.945417], [-2.077723, 40.945534], [-2.077858, 40.945628], [-2.078009, 40.945701], [-2.078125, 40.945785], [-2.078203, 40.94588], [-2.078245, 40.945986], [-2.078251, 40.946103], [-2.078251, 40.946214], [-2.078246, 40.946319], [-2.078235, 40.946419], [-2.078219, 40.946512], [-2.078177, 40.946609], [-2.078111, 40.946708], [-2.078019, 40.946811], [-2.077902, 40.946917], [-2.077826, 40.947011], [-2.077791, 40.947094], [-2.077796, 40.947166], [-2.077842, 40.947225], [-2.077849, 40.947306], [-2.077818, 40.947408], [-2.077747, 40.947531], [-2.077638, 40.947675], [-2.077505, 40.947835], [-2.077351, 40.948011], [-2.077173, 40.948203], [-2.076973, 40.948411], [-2.07679, 40.948619], [-2.076625, 40.948829], [-2.076477, 40.94904], [-2.076346, 40.949253], [-2.076241, 40.949462], [-2.076161, 40.949668], [-2.076106, 40.94987], [-2.076076, 40.95007], [-2.076038, 40.950251], [-2.075992, 40.950414], [-2.075939, 40.950558], [-2.075877, 40.950683], [-2.075783, 40.950816], [-2.075655, 40.950955], [-2.075495, 40.951103], [-2.075301, 40.951257], [-2.075105, 40.951376], [-2.074907, 40.951459], [-2.074705, 40.951507], [-2.074502, 40.951519], [-2.074252, 40.951562], [-2.073958, 40.951638], [-2.073618, 40.951745], [-2.073232, 40.951884], [-2.072958, 40.952013], [-2.072796, 40.952133], [-2.072745, 40.952244], [-2.072805, 40.952345], [-2.072833, 40.952425], [-2.072827, 40.952485], [-2.072788, 40.952524], [-2.072717, 40.952541], [-2.072675, 40.952619], [-2.072664, 40.952756], [-2.072684, 40.952952], [-2.072734, 40.953208], [-2.072708, 40.95343], [-2.072607, 40.953619], [-2.072431, 40.953775], [-2.07218, 40.953896], [-2.071974, 40.95401], [-2.071814, 40.954114], [-2.0717, 40.95421], [-2.071631, 40.954296], [-2.071561, 40.954403], [-2.071491, 40.954529], [-2.071421, 40.954675], [-2.07135, 40.954841], [-2.071259, 40.955015], [-2.071149, 40.955199], [-2.071019, 40.955391], [-2.070869, 40.955593], [-2.070716, 40.955778], [-2.07056, 40.955948], [-2.070401, 40.956101], [-2.070238, 40.956239], [-2.070092, 40.956368], [-2.06996, 40.956489], [-2.069845, 40.956601], [-2.069745, 40.956705], [-2.069618, 40.956805], [-2.069465, 40.956903], [-2.069286, 40.956996], [-2.06908, 40.957087], [-2.068953, 40.957207], [-2.068905, 40.957357], [-2.068935, 40.957536], [-2.069045, 40.957745], [-2.069029, 40.957953], [-2.068889, 40.95816], [-2.068624, 40.958366], [-2.068234, 40.95857], [-2.067948, 40.958756], [-2.067765, 40.958922], [-2.067687, 40.959069], [-2.067711, 40.959197], [-2.067729, 40.959309], [-2.067739, 40.959406], [-2.067742, 40.959487], [-2.067738, 40.959553], [-2.06767, 40.959646], [-2.067539, 40.959767], [-2.067344, 40.959915], [-2.067086, 40.96009], [-2.066891, 40.960301], [-2.066758, 40.960546], [-2.066688, 40.960826], [-2.06668, 40.961141], [-2.066645, 40.961423], [-2.066582, 40.961672], [-2.066491, 40.961889], [-2.066372, 40.962074], [-2.06623, 40.962248], [-2.066064, 40.962412], [-2.065875, 40.962566], [-2.065662, 40.96271], [-2.065427, 40.962873], [-2.06517, 40.963055], [-2.064891, 40.963256], [-2.064591, 40.963476], [-2.064393, 40.963676], [-2.0643, 40.963858], [-2.06431, 40.96402], [-2.064423, 40.964163], [-2.064452, 40.96429], [-2.064397, 40.964402], [-2.064256, 40.964497], [-2.064031, 40.964577], [-2.063873, 40.964668], [-2.063781, 40.964771], [-2.063756, 40.964885], [-2.063798, 40.965011], [-2.063809, 40.965134], [-2.063789, 40.965254], [-2.063739, 40.965371], [-2.063658, 40.965486], [-2.063563, 40.965596], [-2.063455, 40.9657], [-2.063332, 40.9658], [-2.063196, 40.965895], [-2.063046, 40.965963], [-2.062882, 40.966003], [-2.062704, 40.966015], [-2.062512, 40.965999], [-2.062353, 40.966002], [-2.062228, 40.966024], [-2.062138, 40.966064], [-2.06208, 40.966124], [-2.061994, 40.96621], [-2.061878, 40.966322], [-2.061733, 40.966461], [-2.061559, 40.966626], [-2.061426, 40.966779], [-2.061333, 40.966921], [-2.061281, 40.967052], [-2.06127, 40.967171], [-2.06122, 40.967267], [-2.061132, 40.96734], [-2.061006, 40.96739], [-2.060841, 40.967416], [-2.060726, 40.967463]]]}}]}