{"type": "FeatureCollection", "name": "FERMOSELLE", "features": [{"type": "Feature", "properties": {"id": "577308", "FIREDATE": "2026-07-29T12:19:00", "FINALDATE": "2026-07-31T03:19:00", "LASTUPDATE": "2026-07-29 15:09:40.195033", "COUNTRY": "ES", "PROVINCE": "Zamora", "COMMUNE": "Fermoselle", "AREA_HA": 11784.0, "BROADLEA": 5.7022, "CONIFER": 0.0, "MIXED": 0.0, "SCLEROPH": 27.7556, "TRANSIT": 16.8519, "OTHERNATLC": 17.6156, "AGRIAREAS": 31.7268, "ARTIFSURF": 0.0, "OTHERLC": 0.3479, "PERCNA2K": 74.7442, "CLASS": "7DAYS", "AÑO": 2026, "LATITUD": 41.35097548171101, "LONGITUD": -6.3019736560460835}, "geometry": {"type": "Polygon", "coordinates": [[[-6.306251, 41.400545], [-6.297801, 41.400782], [-6.293291, 41.405602], [-6.291431, 41.40723], [-6.287964, 41.410265], [-6.28344, 41.405954], [-6.280749, 41.405284], [-6.279984, 41.404992], [-6.27625, 41.406267], [-6.271051, 41.407007], [-6.26743, 41.405935], [-6.266982, 41.405703], [-6.266823, 41.405762], [-6.264122, 41.407954], [-6.260229, 41.40787], [-6.259778, 41.406188], [-6.259482, 41.405084], [-6.257253, 41.402543], [-6.253361, 41.402459], [-6.249469, 41.402374], [-6.245687, 41.40198], [-6.241203, 41.402575], [-6.240283, 41.402727], [-6.238381, 41.402163], [-6.229836, 41.400405], [-6.222097, 41.397722], [-6.220673, 41.396986], [-6.220659, 41.395928], [-6.220765, 41.391983], [-6.218315, 41.389333], [-6.214388, 41.389834], [-6.211014, 41.390289], [-6.209037, 41.388261], [-6.205332, 41.382273], [-6.206694, 41.380711], [-6.208151, 41.380245], [-6.212004, 41.379464], [-6.214743, 41.377413], [-6.219854, 41.375553], [-6.223446, 41.374524], [-6.226927, 41.373077], [-6.22596, 41.370182], [-6.22255, 41.368999], [-6.221065, 41.366335], [-6.218728, 41.364102], [-6.21776, 41.363462], [-6.215911, 41.36224], [-6.219614, 41.361629], [-6.219865, 41.361655], [-6.223393, 41.362024], [-6.227319, 41.361522], [-6.23091, 41.360493], [-6.234798, 41.359124], [-6.238055, 41.357568], [-6.235015, 41.355598], [-6.231089, 41.355373], [-6.227686, 41.355545], [-6.225827, 41.353768], [-6.223639, 41.351366], [-6.221436, 41.350872], [-6.221426, 41.350796], [-6.221304, 41.34986], [-6.218412, 41.347719], [-6.215004, 41.346536], [-6.210782, 41.345923], [-6.209006, 41.345971], [-6.208529, 41.345693], [-6.206893, 41.345836], [-6.203078, 41.345301], [-6.199892, 41.343499], [-6.19789, 41.341066], [-6.197888, 41.338157], [-6.200145, 41.335749], [-6.203372, 41.334845], [-6.20392, 41.334691], [-6.207622, 41.333354], [-6.211138, 41.332047], [-6.214765, 41.331158], [-6.215733, 41.330778], [-6.220868, 41.330092], [-6.229602, 41.32997], [-6.238471, 41.330353], [-6.249624, 41.330094], [-6.258694, 41.329915], [-6.26702, 41.326954], [-6.269691, 41.325861], [-6.27077, 41.324523], [-6.273023, 41.322114], [-6.27665, 41.321222], [-6.28035, 41.320609], [-6.284496, 41.320214], [-6.288345, 41.320158], [-6.291939, 41.321308], [-6.295089, 41.322968], [-6.299754, 41.323067], [-6.303606, 41.323738], [-6.305832, 41.325722], [-6.313821, 41.324397], [-6.323006, 41.323657], [-6.331322, 41.322275], [-6.334819, 41.321029], [-6.33847, 41.320422], [-6.342355, 41.319776], [-6.345571, 41.318078], [-6.347821, 41.315666], [-6.348589, 41.312774], [-6.346266, 41.31056], [-6.346527, 41.310303], [-6.345566, 41.307323], [-6.345711, 41.304262], [-6.34815, 41.302518], [-6.349288, 41.299564], [-6.35224, 41.29689], [-6.354972, 41.294835], [-6.356592, 41.292238], [-6.358397, 41.289609], [-6.357905, 41.286345], [-6.357694, 41.285559], [-6.359729, 41.284372], [-6.364628, 41.2834], [-6.365446, 41.284216], [-6.369553, 41.284404], [-6.373474, 41.283897], [-6.377321, 41.283837], [-6.380906, 41.282803], [-6.384342, 41.281211], [-6.387554, 41.279512], [-6.388381, 41.278624], [-6.38882, 41.278551], [-6.392982, 41.277601], [-6.396945, 41.275915], [-6.40101, 41.275236], [-6.404272, 41.275903], [-6.406592, 41.275606], [-6.410439, 41.275545], [-6.41359, 41.277201], [-6.41401, 41.280187], [-6.41243, 41.282925], [-6.408845, 41.28396], [-6.408226, 41.284192], [-6.408113, 41.284536], [-6.405853, 41.285042], [-6.402418, 41.286634], [-6.398945, 41.288087], [-6.401765, 41.289944], [-6.403075, 41.289876], [-6.405575, 41.289745], [-6.409461, 41.289823], [-6.412281, 41.29168], [-6.408846, 41.293273], [-6.405073, 41.293612], [-6.401487, 41.294647], [-6.401869, 41.297494], [-6.401288, 41.300355], [-6.398557, 41.302411], [-6.396124, 41.304855], [-6.392653, 41.304662], [-6.3922, 41.304636], [-6.391799, 41.304804], [-6.388727, 41.306089], [-6.388368, 41.309059], [-6.388046, 41.312168], [-6.385352, 41.314363], [-6.382734, 41.315342], [-6.382535, 41.315602], [-6.382284, 41.315906], [-6.382017, 41.316207], [-6.381734, 41.316505], [-6.381445, 41.316795], [-6.38115, 41.317078], [-6.380849, 41.317354], [-6.380543, 41.317621], [-6.380231, 41.317881], [-6.379913, 41.318134], [-6.379589, 41.318379], [-6.379259, 41.318616], [-6.378921, 41.318852], [-6.378575, 41.319086], [-6.378353, 41.319233], [-6.376672, 41.319447], [-6.373009, 41.320203], [-6.369757, 41.321763], [-6.369952, 41.324641], [-6.37, 41.327688], [-6.372341, 41.329917], [-6.375014, 41.331945], [-6.377491, 41.333247], [-6.377441, 41.333558], [-6.377578, 41.334067], [-6.377108, 41.334943], [-6.376976, 41.335763], [-6.376775, 41.336328], [-6.376574, 41.336893], [-6.375966, 41.33726], [-6.376103, 41.337769], [-6.375902, 41.338334], [-6.375432, 41.33921], [-6.375569, 41.339719], [-6.37503, 41.340341], [-6.375167, 41.34085], [-6.375035, 41.34167], [-6.374427, 41.342037], [-6.374226, 41.342602], [-6.374363, 41.343111], [-6.373756, 41.343478], [-6.373657, 41.343756], [-6.374438, 41.344137], [-6.377152, 41.34655], [-6.378954, 41.349115], [-6.378479, 41.352059], [-6.3763, 41.35457], [-6.374487, 41.35726], [-6.371425, 41.359441], [-6.367875, 41.360987], [-6.36469, 41.36271], [-6.363321, 41.36366], [-6.36292, 41.36374], [-6.361868, 41.363524], [-6.358161, 41.362686], [-6.354498, 41.364168], [-6.354138, 41.367137], [-6.356147, 41.369567], [-6.359185, 41.369945], [-6.360467, 41.371769], [-6.360143, 41.374688], [-6.35717, 41.376614], [-6.353372, 41.377246], [-6.349543, 41.377763], [-6.347071, 41.377955], [-6.346353, 41.378293], [-6.342647, 41.379267], [-6.33888, 41.380012], [-6.335266, 41.381329], [-6.331958, 41.383191], [-6.327827, 41.384354], [-6.323968, 41.385352], [-6.32011, 41.386351], [-6.316374, 41.387806], [-6.314192, 41.390316], [-6.313379, 41.393196], [-6.313692, 41.396128], [-6.31446, 41.398984], [-6.312978, 41.401736], [-6.312855, 41.401806], [-6.306251, 41.400545]]]}}]}