{"type": "FeatureCollection", "name": "FERRERASDEARRIBA", "features": [{"type": "Feature", "properties": {"id": "203513", "FIREDATE": "2022-06-16T01:15:00", "FINALDATE": "2022-06-24T13:29:00", "LASTUPDATE": "2022-06-27 08:39:42.142124", "COUNTRY": "ES", "PROVINCE": "Zamora", "COMMUNE": "Ferreras de Arriba", "AREA_HA": 28046.0, "BROADLEA": 3.9156, "CONIFER": 18.6625, "MIXED": 1.2862, "SCLEROPH": 37.3677, "TRANSIT": 25.0579, "OTHERNATLC": 3.7802, "AGRIAREAS": 9.8158, "ARTIFSURF": 0.0178, "OTHERLC": 0.0962, "PERCNA2K": 62.2508, "CLASS": "FireSeason", "AÑO": 2022, "LATITUD": 41.91152419387884, "LONGITUD": -6.221505978305506}, "geometry": {"type": "Polygon", "coordinates": [[[-6.138613, 41.998487], [-6.136267, 41.997667], [-6.135012, 41.996638], [-6.134847, 41.9954], [-6.13493, 41.994375], [-6.135263, 41.993562], [-6.135844, 41.992961], [-6.136673, 41.992573], [-6.137071, 41.992003], [-6.137037, 41.991249], [-6.136571, 41.990313], [-6.135674, 41.989195], [-6.134814, 41.988528], [-6.133992, 41.988314], [-6.133206, 41.988552], [-6.132459, 41.989243], [-6.131661, 41.989626], [-6.130813, 41.9897], [-6.129915, 41.989467], [-6.128967, 41.988926], [-6.128385, 41.988155], [-6.128171, 41.987154], [-6.128322, 41.985924], [-6.128841, 41.984464], [-6.129027, 41.983287], [-6.128881, 41.982394], [-6.128403, 41.981784], [-6.127593, 41.981457], [-6.127151, 41.980948], [-6.127078, 41.980257], [-6.127374, 41.979382], [-6.128039, 41.978326], [-6.128192, 41.977668], [-6.127833, 41.977411], [-6.126962, 41.977552], [-6.125579, 41.978093], [-6.1244, 41.978522], [-6.123424, 41.978839], [-6.122651, 41.979044], [-6.122081, 41.979136], [-6.121662, 41.979078], [-6.121393, 41.978868], [-6.121275, 41.978508], [-6.121306, 41.977997], [-6.121756, 41.977553], [-6.122622, 41.977175], [-6.123906, 41.976863], [-6.125608, 41.976618], [-6.126412, 41.976318], [-6.126318, 41.975961], [-6.125327, 41.975549], [-6.123438, 41.975082], [-6.122149, 41.974659], [-6.121461, 41.974281], [-6.121372, 41.973947], [-6.121883, 41.973659], [-6.122681, 41.973327], [-6.123767, 41.972953], [-6.125139, 41.972536], [-6.126798, 41.972077], [-6.128278, 41.971734], [-6.129578, 41.971506], [-6.130699, 41.971395], [-6.131639, 41.9714], [-6.132481, 41.971319], [-6.133224, 41.97115], [-6.133868, 41.970896], [-6.134412, 41.970554], [-6.13459, 41.970209], [-6.1344, 41.96986], [-6.133843, 41.969508], [-6.132919, 41.969153], [-6.132411, 41.968824], [-6.132319, 41.968523], [-6.132643, 41.968249], [-6.133383, 41.968002], [-6.133972, 41.967649], [-6.134411, 41.967191], [-6.134698, 41.966626], [-6.134836, 41.965955], [-6.135177, 41.965335], [-6.135724, 41.964764], [-6.136474, 41.964242], [-6.137429, 41.963771], [-6.138397, 41.963388], [-6.139376, 41.963094], [-6.140368, 41.962889], [-6.141371, 41.962773], [-6.141717, 41.962436], [-6.141404, 41.961879], [-6.140433, 41.9611], [-6.138804, 41.9601], [-6.137908, 41.959297], [-6.137744, 41.958692], [-6.138313, 41.958283], [-6.139614, 41.958071], [-6.141054, 41.958058], [-6.142633, 41.958244], [-6.14435, 41.958628], [-6.146206, 41.959211], [-6.147915, 41.959486], [-6.149477, 41.959453], [-6.150892, 41.959112], [-6.15216, 41.958463], [-6.152919, 41.957818], [-6.15317, 41.957176], [-6.152913, 41.956538], [-6.152147, 41.955904], [-6.15119, 41.955269], [-6.150041, 41.954634], [-6.148702, 41.953998], [-6.147171, 41.953362], [-6.146097, 41.952715], [-6.145478, 41.952057], [-6.145316, 41.951388], [-6.14561, 41.950707], [-6.145634, 41.950071], [-6.145389, 41.949479], [-6.144874, 41.94893], [-6.14409, 41.948425], [-6.143325, 41.948253], [-6.142578, 41.948414], [-6.141849, 41.948909], [-6.141139, 41.949736], [-6.140023, 41.950162], [-6.138502, 41.950189], [-6.136576, 41.949814], [-6.134244, 41.94904], [-6.132207, 41.948885], [-6.130465, 41.94935], [-6.129018, 41.950435], [-6.127865, 41.952141], [-6.126402, 41.954209], [-6.124628, 41.956639], [-6.122544, 41.959433], [-6.120148, 41.962589], [-6.118225, 41.964993], [-6.116773, 41.966643], [-6.115794, 41.967542], [-6.115287, 41.967687], [-6.114895, 41.968133], [-6.114618, 41.968877], [-6.114457, 41.969921], [-6.114411, 41.971264], [-6.114277, 41.97216], [-6.114055, 41.972607], [-6.113746, 41.972606], [-6.113348, 41.972156], [-6.112858, 41.971791], [-6.112276, 41.97151], [-6.1116, 41.971314], [-6.110832, 41.971201], [-6.110261, 41.971338], [-6.109888, 41.971722], [-6.109711, 41.972356], [-6.109731, 41.973238], [-6.109303, 41.973987], [-6.108427, 41.974604], [-6.107102, 41.975088], [-6.105328, 41.975439], [-6.10388, 41.975888], [-6.102756, 41.976434], [-6.101957, 41.977077], [-6.101482, 41.977818], [-6.100733, 41.978414], [-6.099708, 41.978865], [-6.098408, 41.979171], [-6.096832, 41.979332], [-6.095024, 41.979175], [-6.092982, 41.9787], [-6.090707, 41.977907], [-6.0882, 41.976796], [-6.085847, 41.975707], [-6.083649, 41.974641], [-6.081605, 41.973597], [-6.079717, 41.972575], [-6.078467, 41.97164], [-6.077856, 41.97079], [-6.077884, 41.970027], [-6.078551, 41.96935], [-6.078318, 41.968834], [-6.077185, 41.96848], [-6.075152, 41.968288], [-6.07222, 41.968257], [-6.069759, 41.96819], [-6.06777, 41.968085], [-6.066253, 41.967944], [-6.065207, 41.967765], [-6.064262, 41.967701], [-6.063415, 41.967751], [-6.062669, 41.967915], [-6.062022, 41.968194], [-6.06064, 41.968442], [-6.058523, 41.968658], [-6.05567, 41.968843], [-6.052082, 41.968997], [-6.049061, 41.96913], [-6.046608, 41.969243], [-6.044722, 41.969334], [-6.043404, 41.969405], [-6.042735, 41.969106], [-6.042715, 41.968438], [-6.043343, 41.9674], [-6.04462, 41.965992], [-6.046164, 41.964853], [-6.047976, 41.963983], [-6.050055, 41.963382], [-6.052401, 41.963049], [-6.055189, 41.96276], [-6.058421, 41.962513], [-6.062095, 41.96231], [-6.066211, 41.962149], [-6.069454, 41.962011], [-6.071824, 41.961895], [-6.073321, 41.961803], [-6.073944, 41.961734], [-6.074756, 41.961507], [-6.075757, 41.961124], [-6.076946, 41.960583], [-6.078323, 41.959886], [-6.079523, 41.959193], [-6.080545, 41.958506], [-6.081389, 41.957823], [-6.082055, 41.957146], [-6.08258, 41.956492], [-6.082961, 41.955861], [-6.083201, 41.955253], [-6.083298, 41.954668], [-6.083042, 41.954267], [-6.082431, 41.95405], [-6.081467, 41.954017], [-6.08015, 41.954167], [-6.078742, 41.954221], [-6.077245, 41.95418], [-6.075659, 41.954041], [-6.073983, 41.953807], [-6.073532, 41.953549], [-6.074304, 41.953265], [-6.076301, 41.952957], [-6.079522, 41.952625], [-6.082202, 41.952016], [-6.08434, 41.951132], [-6.085938, 41.949972], [-6.086994, 41.948536], [-6.087374, 41.947735], [-6.087077, 41.94757], [-6.086104, 41.94804], [-6.084455, 41.949145], [-6.082504, 41.950007], [-6.080252, 41.950625], [-6.077697, 41.951], [-6.074841, 41.951131], [-6.072183, 41.951281], [-6.069722, 41.951451], [-6.067458, 41.95164], [-6.065392, 41.951848], [-6.063875, 41.951809], [-6.062907, 41.951524], [-6.062488, 41.950991], [-6.062617, 41.950211], [-6.062389, 41.949758], [-6.061804, 41.949631], [-6.06086, 41.949832], [-6.059559, 41.950359], [-6.058205, 41.950847], [-6.056798, 41.951296], [-6.055338, 41.951706], [-6.053825, 41.952077], [-6.052381, 41.95239], [-6.051007, 41.952644], [-6.049701, 41.95284], [-6.048465, 41.952977], [-6.04751, 41.952973], [-6.046838, 41.952829], [-6.046447, 41.952544], [-6.046338, 41.952119], [-6.046564, 41.951767], [-6.047125, 41.951486], [-6.048022, 41.951278], [-6.049253, 41.951142], [-6.050534, 41.95095], [-6.051866, 41.950703], [-6.053247, 41.950401], [-6.054678, 41.950042], [-6.05611, 41.949684], [-6.057541, 41.949326], [-6.058973, 41.948968], [-6.060404, 41.948609], [-6.061563, 41.948105], [-6.062449, 41.947456], [-6.063063, 41.946661], [-6.063404, 41.94572], [-6.063413, 41.945118], [-6.06309, 41.944854], [-6.062436, 41.944929], [-6.061449, 41.945342], [-6.060075, 41.945722], [-6.058315, 41.946071], [-6.056168, 41.946387], [-6.053634, 41.94667], [-6.051683, 41.946797], [-6.050314, 41.946765], [-6.049527, 41.946576], [-6.049323, 41.94623], [-6.049035, 41.946103], [-6.048665, 41.946194], [-6.048211, 41.946505], [-6.047674, 41.947034], [-6.046874, 41.947563], [-6.045809, 41.948091], [-6.04448, 41.948618], [-6.042887, 41.949145], [-6.041578, 41.949475], [-6.040553, 41.949609], [-6.039812, 41.949547], [-6.039355, 41.949289], [-6.03905, 41.948837], [-6.038895, 41.94819], [-6.03889, 41.947349], [-6.039037, 41.946314], [-6.039512, 41.945399], [-6.040317, 41.944605], [-6.041452, 41.943931], [-6.042916, 41.943378], [-6.044266, 41.942954], [-6.045502, 41.94266], [-6.046624, 41.942494], [-6.047633, 41.942457], [-6.048914, 41.942487], [-6.050467, 41.942583], [-6.052293, 41.942746], [-6.054391, 41.942975], [-6.056095, 41.943], [-6.057405, 41.942819], [-6.05832, 41.942434], [-6.05884, 41.941844], [-6.058728, 41.941285], [-6.057984, 41.940757], [-6.056608, 41.940261], [-6.0546, 41.939796], [-6.052699, 41.939515], [-6.050904, 41.939418], [-6.049216, 41.939506], [-6.047634, 41.939777], [-6.046073, 41.939951], [-6.044531, 41.940027], [-6.043009, 41.940004], [-6.041508, 41.939883], [-6.040085, 41.939952], [-6.038741, 41.940209], [-6.037475, 41.940655], [-6.036287, 41.941289], [-6.035254, 41.941709], [-6.034376, 41.941914], [-6.033652, 41.941905], [-6.033083, 41.941681], [-6.032762, 41.941353], [-6.032689, 41.940923], [-6.032863, 41.940389], [-6.033286, 41.939751], [-6.034039, 41.939234], [-6.03512, 41.938838], [-6.036531, 41.938562], [-6.038272, 41.938407], [-6.040036, 41.938185], [-6.041825, 41.937896], [-6.043639, 41.937539], [-6.045477, 41.937115], [-6.046518, 41.936725], [-6.046761, 41.93637], [-6.046208, 41.936048], [-6.044858, 41.935761], [-6.044143, 41.935308], [-6.044061, 41.934689], [-6.044614, 41.933904], [-6.045801, 41.932953], [-6.047358, 41.932037], [-6.049285, 41.931156], [-6.051582, 41.93031], [-6.054249, 41.929498], [-6.056554, 41.928999], [-6.058498, 41.92881], [-6.060079, 41.928933], [-6.061299, 41.929368], [-6.062494, 41.929554], [-6.063665, 41.929491], [-6.064812, 41.929178], [-6.065934, 41.928617], [-6.067466, 41.928242], [-6.069409, 41.928054], [-6.071763, 41.928052], [-6.074528, 41.928236], [-6.076467, 41.92819], [-6.077581, 41.927914], [-6.077869, 41.927409], [-6.077332, 41.926674], [-6.076381, 41.925896], [-6.075014, 41.925074], [-6.073233, 41.924209], [-6.071037, 41.9233], [-6.070081, 41.922538], [-6.070363, 41.921923], [-6.071885, 41.921455], [-6.074646, 41.921134], [-6.077032, 41.920763], [-6.079043, 41.920342], [-6.080678, 41.919871], [-6.081937, 41.919351], [-6.082857, 41.918846], [-6.083436, 41.918357], [-6.083674, 41.917883], [-6.083572, 41.917425], [-6.083606, 41.917021], [-6.083777, 41.916669], [-6.084084, 41.91637], [-6.084527, 41.916124], [-6.085194, 41.915985], [-6.086086, 41.91595], [-6.087203, 41.916022], [-6.088545, 41.9162], [-6.089181, 41.91595], [-6.089113, 41.915273], [-6.08834, 41.91417], [-6.086863, 41.912639], [-6.085876, 41.911313], [-6.085381, 41.910192], [-6.085377, 41.909275], [-6.085864, 41.908564], [-6.08664, 41.90798], [-6.087705, 41.907522], [-6.089058, 41.907192], [-6.0907, 41.906989], [-6.092508, 41.906458], [-6.094482, 41.9056], [-6.096623, 41.904414], [-6.09893, 41.902901], [-6.100627, 41.901487], [-6.101715, 41.900172], [-6.102194, 41.898956], [-6.102062, 41.897839], [-6.102098, 41.89679], [-6.1023, 41.895808], [-6.102669, 41.894894], [-6.103205, 41.894048], [-6.103992, 41.892877], [-6.105031, 41.89138], [-6.106321, 41.889558], [-6.107863, 41.88741], [-6.109149, 41.885572], [-6.110179, 41.884045], [-6.110954, 41.882828], [-6.111473, 41.881922], [-6.111911, 41.881182], [-6.112268, 41.880611], [-6.112545, 41.880206], [-6.112741, 41.879968], [-6.112872, 41.879694], [-6.112939, 41.879383], [-6.112942, 41.879035], [-6.112881, 41.878649], [-6.112781, 41.878282], [-6.112642, 41.877933], [-6.112464, 41.877602], [-6.112247, 41.87729], [-6.111662, 41.876903], [-6.110709, 41.876441], [-6.109387, 41.875905], [-6.107696, 41.875295], [-6.106607, 41.874713], [-6.106119, 41.87416], [-6.106232, 41.873636], [-6.106947, 41.87314], [-6.107909, 41.872699], [-6.109119, 41.872313], [-6.110577, 41.871981], [-6.112283, 41.871703], [-6.113676, 41.871603], [-6.114756, 41.87168], [-6.115524, 41.871935], [-6.11598, 41.872366], [-6.116524, 41.872657], [-6.117158, 41.872807], [-6.117881, 41.872816], [-6.118693, 41.872684], [-6.119217, 41.872346], [-6.119452, 41.871801], [-6.119398, 41.871051], [-6.119056, 41.870095], [-6.118705, 41.868634], [-6.118345, 41.866669], [-6.117977, 41.864199], [-6.1176, 41.861225], [-6.117447, 41.858847], [-6.117518, 41.857064], [-6.117813, 41.855878], [-6.118333, 41.855288], [-6.119018, 41.854765], [-6.119871, 41.85431], [-6.120889, 41.853923], [-6.122075, 41.853603], [-6.123183, 41.853154], [-6.124214, 41.852575], [-6.125167, 41.851866], [-6.126043, 41.851028], [-6.126558, 41.850264], [-6.126711, 41.849575], [-6.126503, 41.848961], [-6.125934, 41.848421], [-6.125397, 41.847686], [-6.124893, 41.846757], [-6.124421, 41.845632], [-6.123981, 41.844312], [-6.123821, 41.843326], [-6.123942, 41.842674], [-6.124344, 41.842356], [-6.125026, 41.842371], [-6.125643, 41.842619], [-6.126196, 41.843098], [-6.126684, 41.843809], [-6.127107, 41.844752], [-6.1279, 41.845413], [-6.129062, 41.845793], [-6.130592, 41.845892], [-6.132492, 41.845709], [-6.134072, 41.845593], [-6.13533, 41.845546], [-6.136268, 41.845568], [-6.136885, 41.845657], [-6.137754, 41.845578], [-6.138875, 41.845332], [-6.140246, 41.844919], [-6.14187, 41.844338], [-6.143473, 41.843919], [-6.145056, 41.843661], [-6.146619, 41.843564], [-6.148162, 41.843628], [-6.149287, 41.843872], [-6.149994, 41.844294], [-6.150283, 41.844895], [-6.150154, 41.845675], [-6.150413, 41.846238], [-6.15106, 41.846583], [-6.152094, 41.846711], [-6.153516, 41.846621], [-6.155107, 41.846551], [-6.156865, 41.846501], [-6.158792, 41.846472], [-6.160887, 41.846462], [-6.162765, 41.846712], [-6.164426, 41.847224], [-6.165871, 41.847996], [-6.167098, 41.849029], [-6.168315, 41.849961], [-6.169522, 41.850792], [-6.170719, 41.851521], [-6.171906, 41.85215], [-6.17303, 41.852737], [-6.174092, 41.853283], [-6.17509, 41.853788], [-6.176026, 41.854252], [-6.176936, 41.854237], [-6.177821, 41.853745], [-6.178679, 41.852775], [-6.179512, 41.851326], [-6.180742, 41.85052], [-6.182369, 41.850357], [-6.184394, 41.850837], [-6.186817, 41.851959], [-6.18878, 41.85295], [-6.190285, 41.853811], [-6.19133, 41.854541], [-6.191916, 41.855141], [-6.192754, 41.855574], [-6.193843, 41.855838], [-6.195183, 41.855935], [-6.196775, 41.855865], [-6.198489, 41.855853], [-6.200324, 41.855901], [-6.202282, 41.856007], [-6.204362, 41.856173], [-6.20636, 41.856352], [-6.208278, 41.856544], [-6.210114, 41.85675], [-6.211869, 41.856968], [-6.21288, 41.856945], [-6.213147, 41.85668], [-6.212671, 41.856173], [-6.211451, 41.855424], [-6.211231, 41.854629], [-6.212014, 41.85379], [-6.213797, 41.852905], [-6.216581, 41.851974], [-6.219086, 41.851465], [-6.221312, 41.851377], [-6.223258, 41.851711], [-6.224925, 41.852465], [-6.226463, 41.852842], [-6.227872, 41.85284], [-6.229152, 41.85246], [-6.230303, 41.851702], [-6.2316, 41.85094], [-6.233043, 41.850174], [-6.234632, 41.849403], [-6.236367, 41.848629], [-6.237984, 41.848043], [-6.239485, 41.847647], [-6.240869, 41.847439], [-6.242136, 41.847421], [-6.243079, 41.847773], [-6.243698, 41.848493], [-6.243994, 41.849584], [-6.243966, 41.851043], [-6.243784, 41.852401], [-6.243447, 41.853659], [-6.242955, 41.854815], [-6.242308, 41.85587], [-6.241765, 41.856793], [-6.241325, 41.857585], [-6.240989, 41.858245], [-6.240756, 41.858773], [-6.240484, 41.859474], [-6.240173, 41.860348], [-6.239822, 41.861394], [-6.239432, 41.862612], [-6.239918, 41.863213], [-6.24128, 41.863195], [-6.243519, 41.862558], [-6.246635, 41.861304], [-6.249216, 41.860505], [-6.251264, 41.860161], [-6.252778, 41.860272], [-6.253759, 41.860839], [-6.254759, 41.860876], [-6.255778, 41.860384], [-6.256817, 41.859364], [-6.257875, 41.857814], [-6.259143, 41.856448], [-6.26062, 41.855264], [-6.262308, 41.854263], [-6.264206, 41.853445], [-6.26571, 41.85266], [-6.26682, 41.851909], [-6.267536, 41.85119], [-6.267859, 41.850504], [-6.268461, 41.849836], [-6.269344, 41.849185], [-6.270507, 41.848551], [-6.271951, 41.847934], [-6.273366, 41.847369], [-6.274753, 41.846856], [-6.276112, 41.846396], [-6.277442, 41.845987], [-6.278838, 41.845663], [-6.280298, 41.845423], [-6.281825, 41.845266], [-6.283416, 41.845194], [-6.284975, 41.845159], [-6.286502, 41.845161], [-6.287997, 41.8452], [-6.289459, 41.845276], [-6.290863, 41.845219], [-6.292211, 41.845028], [-6.293501, 41.844705], [-6.294733, 41.844249], [-6.295837, 41.84402], [-6.296811, 41.844018], [-6.297657, 41.844243], [-6.298373, 41.844694], [-6.298891, 41.845273], [-6.299211, 41.84598], [-6.299332, 41.846814], [-6.299255, 41.847776], [-6.299343, 41.84841], [-6.299596, 41.848716], [-6.300014, 41.848694], [-6.300597, 41.848345], [-6.301038, 41.847862], [-6.301336, 41.847243], [-6.301491, 41.84649], [-6.301504, 41.845602], [-6.301801, 41.844905], [-6.302384, 41.844397], [-6.303252, 41.844081], [-6.304404, 41.843954], [-6.305549, 41.843955], [-6.306687, 41.844084], [-6.307817, 41.844341], [-6.308939, 41.844725], [-6.30983, 41.845195], [-6.310491, 41.845751], [-6.31092, 41.846392], [-6.311118, 41.847118], [-6.311554, 41.847553], [-6.312229, 41.847695], [-6.313142, 41.847544], [-6.314293, 41.847101], [-6.31521, 41.846966], [-6.315893, 41.847138], [-6.316342, 41.847618], [-6.316557, 41.848405], [-6.317131, 41.84888], [-6.318066, 41.849042], [-6.319361, 41.848892], [-6.321015, 41.848429], [-6.322372, 41.848585], [-6.323432, 41.849359], [-6.324193, 41.850752], [-6.324657, 41.852764], [-6.325294, 41.854319], [-6.326103, 41.85542], [-6.327084, 41.856065], [-6.328239, 41.856254], [-6.329336, 41.856468], [-6.330377, 41.856708], [-6.331361, 41.856973], [-6.332289, 41.857262], [-6.332746, 41.857772], [-6.332733, 41.858502], [-6.33225, 41.859452], [-6.331297, 41.860621], [-6.330441, 41.86168], [-6.329681, 41.862628], [-6.329019, 41.863465], [-6.328454, 41.86419], [-6.328678, 41.86447], [-6.329693, 41.864302], [-6.331498, 41.863688], [-6.334092, 41.862628], [-6.336116, 41.861962], [-6.337569, 41.86169], [-6.338451, 41.861813], [-6.338762, 41.862332], [-6.339268, 41.862707], [-6.339967, 41.862939], [-6.340861, 41.863029], [-6.34195, 41.862976], [-6.342982, 41.863027], [-6.343957, 41.863182], [-6.344877, 41.863442], [-6.34574, 41.863806], [-6.346514, 41.864311], [-6.347199, 41.864957], [-6.347796, 41.865744], [-6.348305, 41.866672], [-6.348808, 41.867428], [-6.349306, 41.86801], [-6.3498, 41.868418], [-6.350289, 41.868654], [-6.351301, 41.868867], [-6.352838, 41.869056], [-6.354898, 41.869222], [-6.357482, 41.869364], [-6.359491, 41.869728], [-6.360924, 41.870314], [-6.361781, 41.871121], [-6.362063, 41.872151], [-6.362924, 41.872973], [-6.364366, 41.873589], [-6.366387, 41.873999], [-6.368988, 41.874201], [-6.370887, 41.874552], [-6.372084, 41.87505], [-6.372579, 41.875696], [-6.372372, 41.876489], [-6.372631, 41.877047], [-6.373356, 41.877371], [-6.374547, 41.877458], [-6.376204, 41.877311], [-6.377586, 41.87732], [-6.378692, 41.877485], [-6.379522, 41.877806], [-6.380077, 41.878284], [-6.380595, 41.879045], [-6.381074, 41.880088], [-6.381516, 41.881415], [-6.38192, 41.883025], [-6.382096, 41.884198], [-6.382043, 41.884935], [-6.381762, 41.885235], [-6.381252, 41.885097], [-6.380957, 41.885387], [-6.380878, 41.886104], [-6.381014, 41.887249], [-6.381365, 41.88882], [-6.381484, 41.890327], [-6.38137, 41.891769], [-6.381023, 41.893148], [-6.380444, 41.894462], [-6.379686, 41.89558], [-6.378747, 41.896502], [-6.377629, 41.897229], [-6.376332, 41.89776], [-6.375663, 41.898187], [-6.375624, 41.898509], [-6.376215, 41.898728], [-6.377435, 41.898843], [-6.378463, 41.899029], [-6.379301, 41.899286], [-6.379946, 41.899614], [-6.380401, 41.900013], [-6.380527, 41.900309], [-6.380325, 41.9005], [-6.379794, 41.900588], [-6.378936, 41.900572], [-6.378399, 41.900874], [-6.378184, 41.901495], [-6.378292, 41.902434], [-6.378722, 41.903692], [-6.37905, 41.904828], [-6.379278, 41.905842], [-6.379405, 41.906735], [-6.37943, 41.907506], [-6.379755, 41.908488], [-6.38038, 41.909682], [-6.381304, 41.911088], [-6.382527, 41.912704], [-6.383242, 41.913951], [-6.383448, 41.914826], [-6.383144, 41.915331], [-6.382332, 41.915466], [-6.381456, 41.9155], [-6.380517, 41.915433], [-6.379515, 41.915267], [-6.378449, 41.915], [-6.377473, 41.914798], [-6.376586, 41.91466], [-6.375788, 41.914586], [-6.37508, 41.914576], [-6.374721, 41.91481], [-6.374711, 41.915286], [-6.37505, 41.916005], [-6.375738, 41.916967], [-6.376182, 41.917811], [-6.376381, 41.918538], [-6.376335, 41.919146], [-6.376045, 41.919637], [-6.375897, 41.92029], [-6.37589, 41.921106], [-6.376024, 41.922085], [-6.3763, 41.923225], [-6.376705, 41.924147], [-6.37724, 41.92485], [-6.377905, 41.925333], [-6.378699, 41.925597], [-6.379436, 41.925709], [-6.380115, 41.925668], [-6.380736, 41.925474], [-6.381299, 41.925128], [-6.382131, 41.9248], [-6.383233, 41.924492], [-6.384604, 41.924202], [-6.386244, 41.92393], [-6.387634, 41.924001], [-6.388775, 41.924413], [-6.389665, 41.925168], [-6.390306, 41.926264], [-6.390967, 41.926661], [-6.391648, 41.926358], [-6.39235, 41.925356], [-6.393072, 41.923655], [-6.393822, 41.922598], [-6.3946, 41.922184], [-6.395407, 41.922414], [-6.396241, 41.923289], [-6.396403, 41.924496], [-6.395892, 41.926036], [-6.394707, 41.927909], [-6.39285, 41.930115], [-6.391206, 41.93213], [-6.389778, 41.933957], [-6.388564, 41.935593], [-6.387565, 41.93704], [-6.38662, 41.938074], [-6.385729, 41.938696], [-6.384891, 41.938905], [-6.384108, 41.938703], [-6.383282, 41.938764], [-6.382413, 41.93909], [-6.381501, 41.939679], [-6.380546, 41.940533], [-6.37977, 41.941342], [-6.379172, 41.942105], [-6.378753, 41.942823], [-6.378513, 41.943495], [-6.378158, 41.943981], [-6.377688, 41.94428], [-6.377103, 41.944393], [-6.376403, 41.944319], [-6.37576, 41.944377], [-6.375176, 41.944569], [-6.374649, 41.944893], [-6.37418, 41.94535], [-6.374024, 41.945945], [-6.374183, 41.946678], [-6.374656, 41.947549], [-6.375442, 41.948558], [-6.375806, 41.949574], [-6.375747, 41.950596], [-6.375264, 41.951625], [-6.374359, 41.95266], [-6.373641, 41.953839], [-6.373112, 41.95516], [-6.37277, 41.956624], [-6.372616, 41.958232], [-6.372396, 41.959518], [-6.372108, 41.960483], [-6.371754, 41.961126], [-6.371332, 41.961449], [-6.370868, 41.961957], [-6.370359, 41.96265], [-6.369808, 41.963528], [-6.369212, 41.964591], [-6.368585, 41.965347], [-6.367924, 41.965796], [-6.367232, 41.965938], [-6.366507, 41.965773], [-6.366142, 41.96547], [-6.366137, 41.965028], [-6.366493, 41.964447], [-6.367209, 41.963728], [-6.367438, 41.963128], [-6.367179, 41.962649], [-6.366432, 41.96229], [-6.365198, 41.962051], [-6.364257, 41.962091], [-6.36361, 41.962412], [-6.363255, 41.963012], [-6.363194, 41.963892], [-6.36292, 41.964495], [-6.362433, 41.964821], [-6.361733, 41.964869], [-6.36082, 41.96464], [-6.360107, 41.964362], [-6.359592, 41.964036], [-6.359277, 41.963661], [-6.359161, 41.963237], [-6.35941, 41.962595], [-6.360023, 41.961734], [-6.361002, 41.960655], [-6.362346, 41.959358], [-6.363239, 41.958277], [-6.363682, 41.957413], [-6.363674, 41.956766], [-6.363216, 41.956335], [-6.362517, 41.956419], [-6.361576, 41.957017], [-6.360395, 41.95813], [-6.358971, 41.959757], [-6.357732, 41.960895], [-6.356678, 41.961543], [-6.355808, 41.961702], [-6.355123, 41.961373], [-6.354726, 41.960932], [-6.354617, 41.96038], [-6.354797, 41.959718], [-6.355265, 41.958945], [-6.355428, 41.958222], [-6.355286, 41.957549], [-6.354839, 41.956927], [-6.354087, 41.956355], [-6.353263, 41.955906], [-6.352367, 41.955579], [-6.351397, 41.955375], [-6.350355, 41.955294], [-6.349522, 41.955353], [-6.348896, 41.955551], [-6.348479, 41.955888], [-6.34827, 41.956366], [-6.347811, 41.956552], [-6.347103, 41.956447], [-6.346145, 41.956052], [-6.344937, 41.955365], [-6.343949, 41.954706], [-6.343181, 41.954073], [-6.342633, 41.953467], [-6.342305, 41.952889], [-6.341657, 41.952537], [-6.340691, 41.952411], [-6.339406, 41.952513], [-6.337802, 41.95284], [-6.336407, 41.952872], [-6.335223, 41.952609], [-6.334248, 41.95205], [-6.333483, 41.951195], [-6.333163, 41.950378], [-6.333286, 41.949599], [-6.333854, 41.948856], [-6.334867, 41.948152], [-6.335539, 41.947305], [-6.335871, 41.946318], [-6.335863, 41.945188], [-6.335516, 41.943917], [-6.335221, 41.942842], [-6.334981, 41.941964], [-6.334795, 41.941283], [-6.334662, 41.940799], [-6.334806, 41.940158], [-6.335225, 41.939362], [-6.335919, 41.938409], [-6.33689, 41.9373], [-6.33791, 41.936293], [-6.338979, 41.93539], [-6.340097, 41.934588], [-6.341265, 41.93389], [-6.342209, 41.933228], [-6.34293, 41.932603], [-6.343427, 41.932014], [-6.343701, 41.931463], [-6.343614, 41.931145], [-6.343166, 41.931061], [-6.342358, 41.93121], [-6.341189, 41.931593], [-6.340057, 41.932112], [-6.338962, 41.932767], [-6.337904, 41.933558], [-6.336884, 41.934485], [-6.335888, 41.935425], [-6.334917, 41.936375], [-6.33397, 41.937338], [-6.333048, 41.938313], [-6.332463, 41.939279], [-6.332215, 41.940237], [-6.332305, 41.941187], [-6.332733, 41.942129], [-6.333087, 41.943036], [-6.333368, 41.943907], [-6.333575, 41.944742], [-6.33371, 41.945543], [-6.33355, 41.946396], [-6.333097, 41.947301], [-6.33235, 41.948258], [-6.33131, 41.949268], [-6.33068, 41.950091], [-6.330462, 41.950728], [-6.330654, 41.951179], [-6.331257, 41.951443], [-6.331632, 41.951805], [-6.331779, 41.952263], [-6.331697, 41.952818], [-6.331387, 41.95347], [-6.330393, 41.95399], [-6.328715, 41.954377], [-6.326353, 41.954632], [-6.323306, 41.954754], [-6.320866, 41.955053], [-6.319031, 41.955529], [-6.317803, 41.956182], [-6.31718, 41.957012], [-6.316415, 41.957668], [-6.315505, 41.95815], [-6.314453, 41.958457], [-6.313258, 41.958591], [-6.312249, 41.958512], [-6.311425, 41.95822], [-6.310788, 41.957716], [-6.310338, 41.956999], [-6.309508, 41.956392], [-6.3083, 41.955895], [-6.306712, 41.955508], [-6.304746, 41.95523], [-6.302869, 41.954404], [-6.301082, 41.95303], [-6.299383, 41.951107], [-6.297774, 41.948635], [-6.296575, 41.947025], [-6.295787, 41.946277], [-6.295409, 41.946391], [-6.295442, 41.947366], [-6.295284, 41.94821], [-6.294938, 41.948923], [-6.294401, 41.949506], [-6.293675, 41.949957], [-6.292974, 41.950171], [-6.292299, 41.950148], [-6.291649, 41.949887], [-6.291025, 41.949389], [-6.290674, 41.948395], [-6.290596, 41.946905], [-6.290792, 41.944919], [-6.291262, 41.942438], [-6.291077, 41.940476], [-6.290237, 41.939032], [-6.288742, 41.938108], [-6.286594, 41.937702], [-6.284656, 41.937292], [-6.28293, 41.93688], [-6.281416, 41.936465], [-6.280113, 41.936046], [-6.278953, 41.93592], [-6.277937, 41.936087], [-6.277065, 41.936547], [-6.276336, 41.937299], [-6.275895, 41.93802], [-6.275743, 41.938709], [-6.27588, 41.939367], [-6.276306, 41.939993], [-6.276316, 41.940497], [-6.275911, 41.94088], [-6.27509, 41.941141], [-6.273854, 41.941281], [-6.273347, 41.941601], [-6.273569, 41.942103], [-6.274519, 41.942785], [-6.276198, 41.943648], [-6.277414, 41.944603], [-6.278166, 41.945649], [-6.278456, 41.946788], [-6.278282, 41.948019], [-6.278062, 41.949004], [-6.277796, 41.949743], [-6.277485, 41.950237], [-6.277128, 41.950485], [-6.276786, 41.950399], [-6.276459, 41.949978], [-6.276147, 41.949223], [-6.27585, 41.948133], [-6.27518, 41.947389], [-6.274137, 41.946991], [-6.272721, 41.946939], [-6.270933, 41.947232], [-6.26959, 41.947136], [-6.268694, 41.946651], [-6.268243, 41.945776], [-6.268238, 41.944512], [-6.268307, 41.943362], [-6.268449, 41.942326], [-6.268665, 41.941405], [-6.268955, 41.940598], [-6.269415, 41.939637], [-6.270045, 41.938522], [-6.270845, 41.937252], [-6.271816, 41.935827], [-6.27279, 41.934418], [-6.273769, 41.933023], [-6.274752, 41.931644], [-6.275739, 41.93028], [-6.27669, 41.929096], [-6.277605, 41.928092], [-6.278484, 41.927267], [-6.279327, 41.926623], [-6.280202, 41.925941], [-6.28111, 41.925223], [-6.282051, 41.924467], [-6.283023, 41.923675], [-6.283504, 41.922947], [-6.283493, 41.922285], [-6.282991, 41.921687], [-6.281997, 41.921155], [-6.281049, 41.921105], [-6.280148, 41.921537], [-6.279294, 41.922453], [-6.278486, 41.923851], [-6.277613, 41.925006], [-6.276673, 41.92592], [-6.275667, 41.926591], [-6.274596, 41.92702], [-6.273533, 41.927796], [-6.27248, 41.928917], [-6.271437, 41.930386], [-6.270403, 41.9322], [-6.269511, 41.933912], [-6.268761, 41.935522], [-6.268152, 41.937029], [-6.267686, 41.938434], [-6.267224, 41.939934], [-6.266766, 41.941527], [-6.266313, 41.943214], [-6.265865, 41.944996], [-6.265296, 41.946181], [-6.264606, 41.946768], [-6.263797, 41.946759], [-6.262867, 41.946152], [-6.2621, 41.945519], [-6.261496, 41.944859], [-6.261054, 41.944172], [-6.260775, 41.943459], [-6.260504, 41.942697], [-6.26024, 41.941886], [-6.259985, 41.941027], [-6.259738, 41.940118], [-6.259715, 41.93941], [-6.259916, 41.938903], [-6.260342, 41.938596], [-6.260992, 41.938489], [-6.26139, 41.938234], [-6.261535, 41.937831], [-6.261427, 41.937279], [-6.261067, 41.936579], [-6.260573, 41.936091], [-6.259945, 41.935814], [-6.259185, 41.935749], [-6.258291, 41.935896], [-6.257568, 41.936125], [-6.257016, 41.936437], [-6.256635, 41.936832], [-6.256425, 41.937309], [-6.256105, 41.937693], [-6.255675, 41.937985], [-6.255135, 41.938185], [-6.254485, 41.938291], [-6.253899, 41.938245], [-6.253378, 41.938046], [-6.252921, 41.937694], [-6.252529, 41.937189], [-6.252133, 41.936827], [-6.251734, 41.936608], [-6.251331, 41.936531], [-6.250925, 41.936598], [-6.250578, 41.936338], [-6.250291, 41.935753], [-6.250064, 41.934841], [-6.249897, 41.933603], [-6.249651, 41.932774], [-6.249324, 41.932353], [-6.248917, 41.932341], [-6.24843, 41.932737], [-6.247839, 41.933372], [-6.247143, 41.934245], [-6.246341, 41.935357], [-6.245435, 41.936707], [-6.244593, 41.937905], [-6.243816, 41.938949], [-6.243103, 41.939841], [-6.242455, 41.94058], [-6.241658, 41.941244], [-6.240712, 41.941834], [-6.239617, 41.942349], [-6.238373, 41.94279], [-6.237669, 41.94336], [-6.237507, 41.944059], [-6.237884, 41.944887], [-6.238803, 41.945843], [-6.239495, 41.946702], [-6.239963, 41.947464], [-6.240204, 41.948128], [-6.24022, 41.948695], [-6.240203, 41.949326], [-6.24015, 41.950023], [-6.240064, 41.950784], [-6.239944, 41.95161], [-6.23994, 41.95239], [-6.240052, 41.953123], [-6.24028, 41.953809], [-6.240623, 41.954448], [-6.240882, 41.955086], [-6.241055, 41.955722], [-6.241142, 41.956356], [-6.241145, 41.956988], [-6.241041, 41.957622], [-6.240832, 41.958257], [-6.240517, 41.958894], [-6.240096, 41.959532], [-6.239923, 41.960066], [-6.239997, 41.960497], [-6.24032, 41.960824], [-6.24089, 41.961046], [-6.24129, 41.961345], [-6.241519, 41.961718], [-6.241577, 41.962167], [-6.241465, 41.962692], [-6.241025, 41.963116], [-6.240255, 41.963439], [-6.239157, 41.963663], [-6.237731, 41.963786], [-6.236705, 41.964025], [-6.23608, 41.96438], [-6.235855, 41.964852], [-6.236031, 41.96544], [-6.236094, 41.966228], [-6.236044, 41.967217], [-6.235882, 41.968406], [-6.235607, 41.969795], [-6.235081, 41.970814], [-6.234305, 41.971463], [-6.233278, 41.971742], [-6.232, 41.971651], [-6.231206, 41.971294], [-6.230896, 41.970673], [-6.23107, 41.969786], [-6.231729, 41.968635], [-6.232279, 41.967564], [-6.232721, 41.966575], [-6.233055, 41.965666], [-6.233281, 41.964838], [-6.23358, 41.964015], [-6.233952, 41.963195], [-6.234396, 41.962379], [-6.234913, 41.961567], [-6.235259, 41.960727], [-6.235435, 41.95986], [-6.23544, 41.958966], [-6.235274, 41.958044], [-6.23522, 41.957021], [-6.235278, 41.955897], [-6.235447, 41.954671], [-6.235729, 41.953344], [-6.235528, 41.95229], [-6.234846, 41.951508], [-6.233682, 41.950999], [-6.232036, 41.950763], [-6.231051, 41.950327], [-6.230727, 41.949692], [-6.231064, 41.948858], [-6.232062, 41.947825], [-6.23266, 41.946964], [-6.232857, 41.946275], [-6.232655, 41.945759], [-6.232052, 41.945415], [-6.23151, 41.945219], [-6.23103, 41.945171], [-6.230611, 41.945271], [-6.230254, 41.94552], [-6.229678, 41.94582], [-6.228882, 41.946171], [-6.227866, 41.946575], [-6.226631, 41.94703], [-6.225246, 41.947162], [-6.223711, 41.94697], [-6.222025, 41.946455], [-6.220189, 41.945617], [-6.21889, 41.944786], [-6.218127, 41.943962], [-6.217901, 41.943145], [-6.218212, 41.942335], [-6.218324, 41.941542], [-6.218238, 41.940766], [-6.217954, 41.940006], [-6.21747, 41.939262], [-6.216963, 41.939029], [-6.21643, 41.939306], [-6.215873, 41.940093], [-6.215291, 41.94139], [-6.214733, 41.942533], [-6.214197, 41.943522], [-6.213685, 41.944357], [-6.213196, 41.945038], [-6.212591, 41.945413], [-6.21187, 41.945484], [-6.211032, 41.945249], [-6.210079, 41.944709], [-6.209406, 41.943878], [-6.209014, 41.942757], [-6.208903, 41.941344], [-6.209072, 41.93964], [-6.209036, 41.938389], [-6.208795, 41.93759], [-6.20835, 41.937244], [-6.207699, 41.93735], [-6.20718, 41.937761], [-6.20679, 41.938477], [-6.206531, 41.939498], [-6.206403, 41.940823], [-6.206492, 41.94204], [-6.206798, 41.943149], [-6.207321, 41.944148], [-6.208062, 41.945039], [-6.208499, 41.945825], [-6.208634, 41.946507], [-6.208466, 41.947084], [-6.207994, 41.947557], [-6.207367, 41.947603], [-6.206585, 41.947223], [-6.205647, 41.946416], [-6.204553, 41.945184], [-6.20368, 41.94405], [-6.203028, 41.943014], [-6.202596, 41.942076], [-6.202384, 41.941237], [-6.202305, 41.940457], [-6.202358, 41.939734], [-6.202544, 41.93907], [-6.202863, 41.938465], [-6.202825, 41.938088], [-6.202432, 41.937938], [-6.201683, 41.938017], [-6.200577, 41.938325], [-6.199786, 41.93877], [-6.199307, 41.939354], [-6.199143, 41.940077], [-6.199291, 41.940938], [-6.199607, 41.942025], [-6.200091, 41.943338], [-6.200742, 41.944876], [-6.20156, 41.94664], [-6.20213, 41.948128], [-6.202451, 41.94934], [-6.202523, 41.950277], [-6.202347, 41.950939], [-6.202013, 41.951764], [-6.20152, 41.952754], [-6.200868, 41.953908], [-6.200058, 41.955226], [-6.199203, 41.956481], [-6.198303, 41.957671], [-6.197357, 41.958798], [-6.196367, 41.959862], [-6.195478, 41.960979], [-6.194692, 41.962151], [-6.194008, 41.963378], [-6.193427, 41.964658], [-6.192686, 41.965752], [-6.191785, 41.966658], [-6.190725, 41.967377], [-6.189504, 41.967908], [-6.188606, 41.968367], [-6.188029, 41.968754], [-6.187773, 41.969068], [-6.187839, 41.96931], [-6.187835, 41.969611], [-6.187763, 41.969971], [-6.187622, 41.970389], [-6.187411, 41.970867], [-6.18678, 41.971353], [-6.185728, 41.971849], [-6.184255, 41.972354], [-6.182361, 41.972869], [-6.180724, 41.973179], [-6.179344, 41.973286], [-6.17822, 41.973189], [-6.177352, 41.972887], [-6.176851, 41.97257], [-6.176715, 41.972236], [-6.176945, 41.971886], [-6.177542, 41.97152], [-6.177719, 41.971262], [-6.177476, 41.971112], [-6.176814, 41.97107], [-6.175733, 41.971136], [-6.174677, 41.971161], [-6.173646, 41.971148], [-6.17264, 41.971094], [-6.17166, 41.971001], [-6.170821, 41.97085], [-6.170124, 41.970639], [-6.169569, 41.97037], [-6.169157, 41.970042], [-6.168651, 41.969622], [-6.168054, 41.969111], [-6.167363, 41.968508], [-6.166581, 41.967813], [-6.166048, 41.967489], [-6.165766, 41.967535], [-6.165734, 41.967951], [-6.165953, 41.968738], [-6.165904, 41.969331], [-6.165587, 41.96973], [-6.165003, 41.969936], [-6.164152, 41.969948], [-6.163237, 41.970192], [-6.162259, 41.970668], [-6.161218, 41.971375], [-6.160113, 41.972314], [-6.159147, 41.973136], [-6.158318, 41.97384], [-6.157628, 41.974427], [-6.157075, 41.974896], [-6.156315, 41.975147], [-6.155347, 41.975178], [-6.15417, 41.97499], [-6.152786, 41.974583], [-6.151801, 41.974159], [-6.151214, 41.973717], [-6.151026, 41.973257], [-6.151236, 41.97278], [-6.151255, 41.972145], [-6.151083, 41.97135], [-6.150719, 41.970398], [-6.150163, 41.969287], [-6.149681, 41.968638], [-6.149273, 41.968451], [-6.148937, 41.968727], [-6.148675, 41.969466], [-6.14845, 41.970151], [-6.148263, 41.970782], [-6.148113, 41.97136], [-6.148, 41.971884], [-6.147778, 41.972363], [-6.147447, 41.972796], [-6.147006, 41.973184], [-6.146456, 41.973527], [-6.145711, 41.973964], [-6.144769, 41.974497], [-6.143632, 41.975125], [-6.142299, 41.975848], [-6.141316, 41.976447], [-6.140682, 41.976921], [-6.140399, 41.977272], [-6.140465, 41.977498], [-6.140012, 41.977829], [-6.139039, 41.978264], [-6.137546, 41.978803], [-6.135532, 41.979447], [-6.134132, 41.980121], [-6.133343, 41.980827], [-6.133166, 41.981563], [-6.133602, 41.98233], [-6.134275, 41.98277], [-6.135184, 41.982883], [-6.13633, 41.982669], [-6.137712, 41.982128], [-6.139079, 41.981684], [-6.140429, 41.981338], [-6.141763, 41.981089], [-6.143082, 41.980938], [-6.144098, 41.980693], [-6.144814, 41.980356], [-6.145228, 41.979924], [-6.145341, 41.9794], [-6.145593, 41.978917], [-6.145982, 41.978474], [-6.14651, 41.978071], [-6.147177, 41.97771], [-6.147905, 41.977497], [-6.148694, 41.977431], [-6.149545, 41.977514], [-6.150457, 41.977745], [-6.15132, 41.97811], [-6.152135, 41.97861], [-6.152901, 41.979244], [-6.153619, 41.980013], [-6.154633, 41.980385], [-6.155943, 41.980362], [-6.15755, 41.979942], [-6.159453, 41.979126], [-6.161017, 41.978317], [-6.162245, 41.977517], [-6.163134, 41.976724], [-6.163686, 41.975938], [-6.164327, 41.975248], [-6.165058, 41.974655], [-6.165879, 41.974157], [-6.166789, 41.973756], [-6.167745, 41.973521], [-6.168746, 41.973453], [-6.169792, 41.973551], [-6.170883, 41.973816], [-6.171925, 41.974136], [-6.172919, 41.974512], [-6.173864, 41.974943], [-6.17476, 41.975429], [-6.175576, 41.976007], [-6.17631, 41.976678], [-6.176963, 41.977441], [-6.177534, 41.978297], [-6.178061, 41.979223], [-6.178544, 41.980219], [-6.178982, 41.981286], [-6.179376, 41.982424], [-6.179748, 41.983407], [-6.180101, 41.984235], [-6.180432, 41.984908], [-6.180742, 41.985426], [-6.180793, 41.986082], [-6.180583, 41.986875], [-6.180114, 41.987806], [-6.179384, 41.988874], [-6.178568, 41.989623], [-6.177665, 41.990055], [-6.176676, 41.990169], [-6.175601, 41.989965], [-6.17482, 41.989903], [-6.174332, 41.989982], [-6.174137, 41.990204], [-6.174235, 41.990567], [-6.174509, 41.990949], [-6.174958, 41.991351], [-6.175581, 41.991771], [-6.17638, 41.99221], [-6.176795, 41.992774], [-6.176826, 41.993465], [-6.176472, 41.994282], [-6.175735, 41.995224], [-6.175151, 41.996149], [-6.17472, 41.997058], [-6.174443, 41.997949], [-6.174319, 41.998823], [-6.174104, 41.999427], [-6.173799, 41.999761], [-6.173404, 41.999826], [-6.172918, 41.99962], [-6.172494, 41.999654], [-6.172132, 41.999926], [-6.171833, 42.000438], [-6.171596, 42.001188], [-6.170949, 42.001708], [-6.169894, 42.001999], [-6.16843, 42.00206], [-6.166557, 42.00189], [-6.164927, 42.001504], [-6.163539, 42.0009], [-6.162393, 42.000079], [-6.16149, 41.99904], [-6.16039, 41.998425], [-6.159093, 41.998233], [-6.157598, 41.998464], [-6.155906, 41.999119], [-6.153505, 41.99951], [-6.150396, 41.999637], [-6.146577, 41.9995], [-6.14205, 41.999098], [-6.138613, 41.998487]], [[-6.137087, 41.894986], [-6.13751, 41.895297], [-6.138453, 41.895491], [-6.139916, 41.895569], [-6.141277, 41.895584], [-6.142537, 41.895537], [-6.143695, 41.895428], [-6.144751, 41.895256], [-6.146133, 41.895189], [-6.14784, 41.895227], [-6.149872, 41.89537], [-6.152229, 41.895618], [-6.154395, 41.895787], [-6.15637, 41.895876], [-6.158154, 41.895885], [-6.159747, 41.895815], [-6.161624, 41.895778], [-6.163786, 41.895773], [-6.166233, 41.895801], [-6.168963, 41.895861], [-6.171276, 41.896021], [-6.17317, 41.896281], [-6.174646, 41.896641], [-6.175704, 41.897101], [-6.176733, 41.897613], [-6.177734, 41.898177], [-6.178707, 41.898793], [-6.179651, 41.899461], [-6.18073, 41.900233], [-6.181943, 41.90111], [-6.18329, 41.902092], [-6.184772, 41.903178], [-6.186193, 41.904116], [-6.187552, 41.904906], [-6.18885, 41.905548], [-6.190087, 41.906042], [-6.191307, 41.906317], [-6.19251, 41.906373], [-6.193696, 41.906211], [-6.194866, 41.90583], [-6.195678, 41.905381], [-6.196132, 41.904864], [-6.196228, 41.904279], [-6.195966, 41.903626], [-6.195993, 41.9031], [-6.196309, 41.9027], [-6.196914, 41.902427], [-6.197808, 41.902281], [-6.198637, 41.902209], [-6.199401, 41.902211], [-6.2001, 41.902286], [-6.200734, 41.902435], [-6.201332, 41.902448], [-6.201892, 41.902325], [-6.202416, 41.902065], [-6.202903, 41.90167], [-6.203617, 41.901331], [-6.204559, 41.901051], [-6.205729, 41.900828], [-6.207127, 41.900662], [-6.208699, 41.900674], [-6.210447, 41.900862], [-6.212371, 41.901228], [-6.214469, 41.90177], [-6.216023, 41.9021], [-6.217031, 41.90222], [-6.217494, 41.902128], [-6.217412, 41.901826], [-6.217114, 41.901511], [-6.216601, 41.901183], [-6.215873, 41.900844], [-6.214929, 41.900493], [-6.21429, 41.900091], [-6.213955, 41.89964], [-6.213926, 41.899139], [-6.2142, 41.898588], [-6.214215, 41.897858], [-6.213968, 41.896949], [-6.213461, 41.895862], [-6.212694, 41.894596], [-6.211923, 41.89371], [-6.21115, 41.893204], [-6.210373, 41.893078], [-6.209594, 41.893332], [-6.208932, 41.893472], [-6.208387, 41.893498], [-6.20796, 41.89341], [-6.207651, 41.893208], [-6.20765, 41.892891], [-6.207958, 41.892462], [-6.208574, 41.891918], [-6.209499, 41.891261], [-6.20996, 41.890616], [-6.209959, 41.889984], [-6.209494, 41.889364], [-6.208566, 41.888757], [-6.207626, 41.888341], [-6.206674, 41.888117], [-6.205711, 41.888085], [-6.204737, 41.888245], [-6.203961, 41.888514], [-6.203385, 41.888893], [-6.203009, 41.889381], [-6.202831, 41.889979], [-6.202345, 41.890612], [-6.201551, 41.89128], [-6.200447, 41.891982], [-6.199035, 41.892719], [-6.197683, 41.893288], [-6.196392, 41.893689], [-6.195161, 41.893922], [-6.193991, 41.893987], [-6.192923, 41.894035], [-6.191956, 41.894066], [-6.19109, 41.894081], [-6.190326, 41.89408], [-6.189318, 41.894118], [-6.188067, 41.894196], [-6.186572, 41.894314], [-6.184833, 41.894471], [-6.183386, 41.894455], [-6.182232, 41.894264], [-6.18137, 41.893899], [-6.180799, 41.893359], [-6.180222, 41.893027], [-6.179636, 41.892901], [-6.179043, 41.892982], [-6.178442, 41.89327], [-6.177573, 41.893507], [-6.176436, 41.893692], [-6.17503, 41.893827], [-6.173356, 41.89391], [-6.171686, 41.89393], [-6.17002, 41.893886], [-6.168358, 41.893778], [-6.1667, 41.893606], [-6.165074, 41.893476], [-6.163481, 41.893388], [-6.16192, 41.893342], [-6.160392, 41.893338], [-6.158974, 41.893427], [-6.157666, 41.893609], [-6.156468, 41.893883], [-6.15538, 41.89425], [-6.154307, 41.894441], [-6.153251, 41.894455], [-6.15221, 41.894293], [-6.151186, 41.893954], [-6.150243, 41.893681], [-6.149381, 41.893473], [-6.1486, 41.893332], [-6.147901, 41.893256], [-6.146869, 41.893203], [-6.145504, 41.893172], [-6.143805, 41.893165], [-6.141773, 41.893179], [-6.140095, 41.893326], [-6.138771, 41.893605], [-6.137801, 41.894016], [-6.137184, 41.89456], [-6.137087, 41.894986]], [[-6.360175, 41.927068], [-6.36049, 41.926699], [-6.360718, 41.926187], [-6.360857, 41.925532], [-6.361047, 41.924966], [-6.361288, 41.924491], [-6.361581, 41.924107], [-6.361925, 41.923813], [-6.362052, 41.923523], [-6.361964, 41.923237], [-6.361658, 41.922955], [-6.361136, 41.922678], [-6.361036, 41.922413], [-6.361357, 41.922163], [-6.3621, 41.921925], [-6.363265, 41.921701], [-6.364199, 41.921444], [-6.364902, 41.921154], [-6.365375, 41.920831], [-6.365617, 41.920474], [-6.365351, 41.920202], [-6.364578, 41.920013], [-6.363297, 41.919909], [-6.361508, 41.919888], [-6.359857, 41.919907], [-6.358345, 41.919967], [-6.356971, 41.920067], [-6.355736, 41.920208], [-6.354606, 41.920189], [-6.35358, 41.92001], [-6.352659, 41.919672], [-6.351844, 41.919174], [-6.351082, 41.918872], [-6.350374, 41.918768], [-6.34972, 41.91886], [-6.34912, 41.919149], [-6.348829, 41.919561], [-6.348848, 41.920095], [-6.349177, 41.920753], [-6.349815, 41.921533], [-6.35029, 41.922262], [-6.350603, 41.922938], [-6.350752, 41.923561], [-6.350739, 41.924133], [-6.350928, 41.924592], [-6.35132, 41.924939], [-6.351915, 41.925173], [-6.352713, 41.925294], [-6.353182, 41.925533], [-6.353322, 41.92589], [-6.353133, 41.926364], [-6.352616, 41.926955], [-6.352321, 41.927431], [-6.35225, 41.927791], [-6.352402, 41.928035], [-6.352777, 41.928163], [-6.353383, 41.928205], [-6.35422, 41.928162], [-6.355289, 41.928033], [-6.356589, 41.927818], [-6.357687, 41.927637], [-6.358583, 41.927489], [-6.359278, 41.927374], [-6.359771, 41.927293], [-6.360175, 41.927068]], [[-6.362468, 41.953295], [-6.362883, 41.952642], [-6.362642, 41.951764], [-6.361745, 41.950662], [-6.360193, 41.949337], [-6.35895, 41.948134], [-6.358016, 41.947054], [-6.357393, 41.946097], [-6.357079, 41.945263], [-6.356479, 41.944698], [-6.35559, 41.944402], [-6.354415, 41.944374], [-6.352952, 41.944616], [-6.351717, 41.944994], [-6.350711, 41.945508], [-6.349934, 41.946158], [-6.349384, 41.946944], [-6.349148, 41.947553], [-6.349223, 41.947983], [-6.349611, 41.948236], [-6.350311, 41.94831], [-6.350951, 41.948552], [-6.35153, 41.948963], [-6.35205, 41.949542], [-6.35251, 41.950288], [-6.353266, 41.951034], [-6.354319, 41.951777], [-6.35567, 41.952519], [-6.357317, 41.95326], [-6.358821, 41.953708], [-6.36018, 41.953863], [-6.361396, 41.953725], [-6.362468, 41.953295]], [[-6.148212, 41.946774], [-6.14905, 41.946574], [-6.149915, 41.946085], [-6.150808, 41.945307], [-6.151409, 41.944545], [-6.151716, 41.943799], [-6.151731, 41.94307], [-6.151453, 41.942356], [-6.151605, 41.941691], [-6.152186, 41.941074], [-6.153197, 41.940507], [-6.154638, 41.939987], [-6.155778, 41.939475], [-6.156618, 41.938971], [-6.157157, 41.938474], [-6.157396, 41.937984], [-6.156875, 41.937579], [-6.155595, 41.937258], [-6.153555, 41.937021], [-6.150755, 41.936869], [-6.148761, 41.936881], [-6.147573, 41.937059], [-6.14719, 41.937402], [-6.147614, 41.93791], [-6.147771, 41.938391], [-6.14766, 41.938843], [-6.147281, 41.939269], [-6.146635, 41.939666], [-6.146032, 41.940063], [-6.14547, 41.940459], [-6.144951, 41.940854], [-6.144474, 41.941248], [-6.144128, 41.941597], [-6.143913, 41.9419], [-6.143829, 41.942159], [-6.143876, 41.942373], [-6.144005, 41.942723], [-6.144217, 41.943211], [-6.14451, 41.943835], [-6.144886, 41.944596], [-6.145363, 41.945261], [-6.145941, 41.945831], [-6.146621, 41.946305], [-6.147403, 41.946684], [-6.148212, 41.946774]], [[-6.224071, 41.860477], [-6.224209, 41.860715], [-6.224636, 41.860942], [-6.225352, 41.861157], [-6.226084, 41.861238], [-6.226833, 41.861187], [-6.227599, 41.861002], [-6.228382, 41.860684], [-6.22911, 41.860434], [-6.229781, 41.860253], [-6.230397, 41.86014], [-6.230958, 41.860095], [-6.231489, 41.860004], [-6.231993, 41.859866], [-6.232467, 41.859682], [-6.232913, 41.859451], [-6.233347, 41.859253], [-6.233769, 41.859089], [-6.234179, 41.858958], [-6.234577, 41.858862], [-6.234887, 41.858834], [-6.235111, 41.858877], [-6.235247, 41.858989], [-6.235296, 41.859171], [-6.235474, 41.859355], [-6.235779, 41.859542], [-6.236212, 41.859732], [-6.236773, 41.859925], [-6.237284, 41.859952], [-6.237744, 41.859813], [-6.238155, 41.859508], [-6.238515, 41.859038], [-6.238559, 41.858616], [-6.238288, 41.858241], [-6.237701, 41.857914], [-6.236799, 41.857635], [-6.235925, 41.857403], [-6.235079, 41.857218], [-6.234263, 41.857079], [-6.233475, 41.856986], [-6.232731, 41.856962], [-6.232033, 41.857005], [-6.231379, 41.857116], [-6.230771, 41.857295], [-6.230172, 41.857492], [-6.229584, 41.857707], [-6.229006, 41.85794], [-6.228438, 41.858192], [-6.228102, 41.858437], [-6.227997, 41.858675], [-6.228123, 41.858907], [-6.228481, 41.859133], [-6.228674, 41.859335], [-6.228701, 41.859513], [-6.228562, 41.859666], [-6.228258, 41.859795], [-6.227874, 41.859865], [-6.227411, 41.859878], [-6.226869, 41.859833], [-6.226247, 41.859729], [-6.225672, 41.859716], [-6.225142, 41.859795], [-6.224658, 41.859966], [-6.22422, 41.860227], [-6.224071, 41.860477]], [[-6.122287, 41.908479], [-6.122713, 41.908232], [-6.123124, 41.907904], [-6.123517, 41.907496], [-6.123895, 41.907008], [-6.124226, 41.906665], [-6.124513, 41.906469], [-6.124753, 41.906418], [-6.124949, 41.906512], [-6.125226, 41.906775], [-6.125587, 41.907207], [-6.126029, 41.907807], [-6.126555, 41.908575], [-6.127015, 41.90916], [-6.12741, 41.909562], [-6.127739, 41.909781], [-6.128003, 41.909818], [-6.128252, 41.909797], [-6.128486, 41.909719], [-6.128704, 41.909585], [-6.128907, 41.909394], [-6.129, 41.909228], [-6.128984, 41.909089], [-6.128858, 41.908975], [-6.128622, 41.908887], [-6.128487, 41.908739], [-6.128452, 41.908531], [-6.128517, 41.908263], [-6.128684, 41.907936], [-6.128927, 41.907699], [-6.129248, 41.907552], [-6.129646, 41.907495], [-6.130122, 41.907528], [-6.130608, 41.907465], [-6.131106, 41.907305], [-6.131615, 41.907048], [-6.132134, 41.906694], [-6.13244, 41.906412], [-6.132531, 41.906199], [-6.132408, 41.906057], [-6.13207, 41.905985], [-6.131755, 41.905859], [-6.131462, 41.905677], [-6.131192, 41.905441], [-6.130943, 41.905149], [-6.130635, 41.904911], [-6.130267, 41.904726], [-6.129839, 41.904594], [-6.129351, 41.904515], [-6.128992, 41.9044], [-6.12876, 41.904248], [-6.128656, 41.904059], [-6.12868, 41.903834], [-6.128586, 41.903624], [-6.128374, 41.903429], [-6.128045, 41.903249], [-6.127598, 41.903085], [-6.127322, 41.90277], [-6.127218, 41.902305], [-6.127285, 41.901689], [-6.127524, 41.900923], [-6.12754, 41.900316], [-6.127334, 41.899867], [-6.126906, 41.899577], [-6.126256, 41.899446], [-6.125464, 41.899341], [-6.124531, 41.899264], [-6.123457, 41.899213], [-6.122242, 41.89919], [-6.121263, 41.899136], [-6.120519, 41.899051], [-6.120011, 41.898936], [-6.119739, 41.898791], [-6.119586, 41.898638], [-6.119553, 41.898477], [-6.11964, 41.898309], [-6.119847, 41.898133], [-6.120111, 41.897971], [-6.120432, 41.897824], [-6.12081, 41.897691], [-6.121245, 41.897573], [-6.121571, 41.897445], [-6.121788, 41.897307], [-6.121896, 41.897159], [-6.121896, 41.897001], [-6.121838, 41.896884], [-6.121722, 41.896808], [-6.121548, 41.896773], [-6.121317, 41.896779], [-6.121131, 41.896699], [-6.12099, 41.896532], [-6.120896, 41.896278], [-6.120846, 41.895938], [-6.120721, 41.89567], [-6.12052, 41.895474], [-6.120242, 41.895349], [-6.119889, 41.895296], [-6.119632, 41.895326], [-6.119471, 41.895439], [-6.119407, 41.895635], [-6.11944, 41.895914], [-6.119266, 41.896093], [-6.118884, 41.896171], [-6.118295, 41.896148], [-6.117498, 41.896025], [-6.116851, 41.895885], [-6.116353, 41.895729], [-6.116004, 41.895556], [-6.115805, 41.895367], [-6.11548, 41.895203], [-6.115028, 41.895063], [-6.114451, 41.894947], [-6.113748, 41.894856], [-6.113226, 41.894866], [-6.112885, 41.894977], [-6.112725, 41.895188], [-6.112745, 41.895501], [-6.112835, 41.895795], [-6.112994, 41.89607], [-6.113222, 41.896325], [-6.113518, 41.896561], [-6.113649, 41.89675], [-6.113612, 41.89689], [-6.113409, 41.896982], [-6.113039, 41.897027], [-6.112769, 41.897126], [-6.112599, 41.89728], [-6.112528, 41.897489], [-6.112557, 41.897753], [-6.112555, 41.898042], [-6.112523, 41.898356], [-6.11246, 41.898694], [-6.112367, 41.899057], [-6.11225, 41.899349], [-6.112108, 41.899569], [-6.111941, 41.899719], [-6.11175, 41.899797], [-6.111593, 41.899961], [-6.111469, 41.900211], [-6.111379, 41.900546], [-6.111323, 41.900966], [-6.111342, 41.901291], [-6.111435, 41.901521], [-6.111604, 41.901655], [-6.111848, 41.901695], [-6.112088, 41.901699], [-6.112323, 41.901669], [-6.112555, 41.901603], [-6.112782, 41.901503], [-6.113083, 41.901537], [-6.113457, 41.901706], [-6.113905, 41.902008], [-6.114425, 41.902445], [-6.114765, 41.90294], [-6.114925, 41.903491], [-6.114903, 41.904099], [-6.1147, 41.904764], [-6.114691, 41.905299], [-6.114874, 41.905704], [-6.115251, 41.905979], [-6.11582, 41.906124], [-6.116528, 41.906392], [-6.117376, 41.906784], [-6.118363, 41.907299], [-6.11949, 41.907938], [-6.120446, 41.908375], [-6.12123, 41.908611], [-6.121844, 41.908646], [-6.122287, 41.908479]], [[-6.083969, 41.930506], [-6.084455, 41.93038], [-6.085169, 41.930019], [-6.086112, 41.929423], [-6.087019, 41.928972], [-6.087891, 41.928664], [-6.088727, 41.928501], [-6.089528, 41.928482], [-6.090324, 41.928562], [-6.091115, 41.928742], [-6.091901, 41.929021], [-6.092682, 41.9294], [-6.093435, 41.929693], [-6.094158, 41.9299], [-6.094854, 41.93002], [-6.095521, 41.930054], [-6.096136, 41.929994], [-6.096699, 41.929839], [-6.09721, 41.92959], [-6.097669, 41.929247], [-6.09785, 41.928957], [-6.097755, 41.928719], [-6.097381, 41.928535], [-6.096731, 41.928403], [-6.096015, 41.928247], [-6.095234, 41.928065], [-6.094388, 41.927859], [-6.093477, 41.927627], [-6.092568, 41.927324], [-6.091662, 41.92695], [-6.090757, 41.926504], [-6.089854, 41.925986], [-6.089105, 41.92561], [-6.088511, 41.925374], [-6.088072, 41.925279], [-6.087788, 41.925326], [-6.087501, 41.925325], [-6.087212, 41.925277], [-6.086922, 41.925182], [-6.086629, 41.925039], [-6.086345, 41.92503], [-6.086071, 41.925154], [-6.085806, 41.92541], [-6.08555, 41.925799], [-6.085265, 41.926198], [-6.08495, 41.926604], [-6.084606, 41.92702], [-6.084232, 41.927444], [-6.083999, 41.927838], [-6.083905, 41.928201], [-6.083952, 41.928533], [-6.08414, 41.928834], [-6.084231, 41.929076], [-6.084227, 41.929259], [-6.084128, 41.929382], [-6.083933, 41.929445], [-6.083794, 41.929578], [-6.08371, 41.929781], [-6.083683, 41.930055], [-6.083712, 41.930398], [-6.083969, 41.930506]], [[-6.064861, 41.943445], [-6.065304, 41.943279], [-6.06567, 41.943061], [-6.065959, 41.942793], [-6.06623, 41.94248], [-6.066484, 41.942123], [-6.066721, 41.941721], [-6.06694, 41.941275], [-6.067377, 41.940828], [-6.068031, 41.940382], [-6.068903, 41.939937], [-6.069993, 41.939491], [-6.07087, 41.939104], [-6.071535, 41.938775], [-6.071987, 41.938504], [-6.072227, 41.938291], [-6.072281, 41.938121], [-6.072151, 41.937991], [-6.071836, 41.937904], [-6.071336, 41.937859], [-6.070802, 41.937906], [-6.070235, 41.938045], [-6.069634, 41.938277], [-6.069, 41.938601], [-6.068344, 41.938783], [-6.067665, 41.938821], [-6.066963, 41.938718], [-6.066239, 41.938472], [-6.065611, 41.938443], [-6.065078, 41.938632], [-6.064641, 41.939039], [-6.0643, 41.939663], [-6.064074, 41.940202], [-6.063962, 41.940654], [-6.063965, 41.941022], [-6.064083, 41.941303], [-6.064114, 41.941555], [-6.064057, 41.941777], [-6.063913, 41.941971], [-6.063681, 41.942135], [-6.063363, 41.942313], [-6.062958, 41.942505], [-6.062468, 41.942711], [-6.06189, 41.942931], [-6.061571, 41.943125], [-6.06151, 41.943293], [-6.061707, 41.943434], [-6.062163, 41.94355], [-6.062654, 41.943621], [-6.063181, 41.943646], [-6.063743, 41.943626], [-6.064341, 41.943561], [-6.064861, 41.943445]]]}}]}