{"type": "FeatureCollection", "name": "LASPENASDERIGLOS", "features": [{"type": "Feature", "properties": {"id": "616227", "FIREDATE": "2026-08-10T11:53:00", "FINALDATE": "2026-08-14T04:02:00", "LASTUPDATE": "2026-08-11 06:52:57.933684", "COUNTRY": "ES", "PROVINCE": "Huesca", "COMMUNE": "Peñas de Riglos, Las", "AREA_HA": 9724.0, "BROADLEA": 2.3019, "CONIFER": 33.717, "MIXED": 31.5795, "SCLEROPH": 11.4068, "TRANSIT": 4.6758, "OTHERNATLC": 12.825, "AGRIAREAS": 3.494, "ARTIFSURF": 0.0, "OTHERLC": 0.0, "PERCNA2K": 40.1617, "CLASS": "7DAYS", "AÑO": 2026, "LATITUD": 42.46567694173879, "LONGITUD": -0.7417277694176041}, "geometry": {"type": "Polygon", "coordinates": [[[-0.8055, 42.496221], [-0.808098, 42.498126], [-0.808262, 42.500935], [-0.807893, 42.503672], [-0.804894, 42.505279], [-0.801924, 42.506037], [-0.800558, 42.507822], [-0.795864, 42.509286], [-0.79156, 42.508148], [-0.788143, 42.505955], [-0.7867, 42.502752], [-0.784256, 42.499975], [-0.780107, 42.4985], [-0.775666, 42.498976], [-0.771054, 42.49851], [-0.76706, 42.496699], [-0.762941, 42.49538], [-0.758554, 42.493771], [-0.756049, 42.492704], [-0.753816, 42.493797], [-0.749374, 42.494272], [-0.745073, 42.493132], [-0.741292, 42.491297], [-0.737174, 42.489978], [-0.734309, 42.489559], [-0.734291, 42.489801], [-0.733231, 42.49041], [-0.73209, 42.491193], [-0.731651, 42.491952], [-0.73213, 42.492763], [-0.73226, 42.495291], [-0.73209, 42.497972], [-0.73254, 42.500466], [-0.735124, 42.502127], [-0.738594, 42.504177], [-0.740603, 42.506262], [-0.743763, 42.507498], [-0.747328, 42.50736], [-0.751011, 42.506966], [-0.754012, 42.508219], [-0.756735, 42.509743], [-0.759225, 42.511777], [-0.760658, 42.514287], [-0.762529, 42.516507], [-0.765253, 42.518031], [-0.768723, 42.518265], [-0.771447, 42.519789], [-0.774471, 42.52116], [-0.777473, 42.522412], [-0.780336, 42.5238], [-0.782048, 42.526037], [-0.783301, 42.528445], [-0.784554, 42.530853], [-0.784591, 42.533754], [-0.7839, 42.536248], [-0.780869, 42.537541], [-0.777505, 42.537902], [-0.774077, 42.537905], [-0.770532, 42.538164], [-0.767295, 42.537421], [-0.764058, 42.536678], [-0.762208, 42.534576], [-0.76209, 42.533585], [-0.761297, 42.533332], [-0.758699, 42.531425], [-0.75822, 42.528779], [-0.760235, 42.526508], [-0.761033, 42.525981], [-0.76084, 42.524313], [-0.759268, 42.521939], [-0.757284, 42.519881], [-0.754618, 42.519401], [-0.750504, 42.518685], [-0.746844, 42.518562], [-0.743297, 42.519069], [-0.739604, 42.51972], [-0.735842, 42.519993], [-0.732136, 42.519617], [-0.728951, 42.518287], [-0.725914, 42.516813], [-0.722355, 42.516293], [-0.718865, 42.514224], [-0.717051, 42.511848], [-0.715045, 42.509364], [-0.712155, 42.507745], [-0.708541, 42.507873], [-0.704904, 42.507874], [-0.70129, 42.508002], [-0.697744, 42.508507], [-0.694289, 42.509517], [-0.690833, 42.510526], [-0.687616, 42.511896], [-0.684205, 42.513157], [-0.680681, 42.513788], [-0.677135, 42.514293], [-0.67343, 42.513915], [-0.670031, 42.512349], [-0.66729, 42.510584], [-0.664844, 42.508532], [-0.66267, 42.506065], [-0.660712, 42.503832], [-0.659388, 42.501275], [-0.658891, 42.498501], [-0.660139, 42.4958], [-0.662349, 42.493639], [-0.665159, 42.491929], [-0.667561, 42.489876], [-0.669193, 42.487391], [-0.670802, 42.484779], [-0.673567, 42.482816], [-0.677066, 42.48206], [-0.68052, 42.481051], [-0.683544, 42.479573], [-0.686285, 42.477484], [-0.688301, 42.475214], [-0.690102, 42.472711], [-0.69137, 42.470135], [-0.692639, 42.46756], [-0.693907, 42.464985], [-0.695345, 42.462391], [-0.697553, 42.460229], [-0.700553, 42.458626], [-0.704096, 42.45812], [-0.707661, 42.45774], [-0.708597, 42.457641], [-0.709448, 42.455672], [-0.708221, 42.452444], [-0.706784, 42.449239], [-0.705346, 42.446033], [-0.704755, 42.442738], [-0.704346, 42.439263], [-0.704811, 42.435855], [-0.707262, 42.432715], [-0.709769, 42.42989], [-0.712459, 42.426884], [-0.713586, 42.423565], [-0.713416, 42.420225], [-0.714331, 42.416929], [-0.717077, 42.414237], [-0.720808, 42.41224], [-0.724244, 42.409794], [-0.728538, 42.408536], [-0.732889, 42.407592], [-0.735917, 42.407268], [-0.735992, 42.407128], [-0.736684, 42.405796], [-0.737297, 42.404582], [-0.737831, 42.403487], [-0.738273, 42.40226], [-0.738621, 42.400902], [-0.738802, 42.399703], [-0.738814, 42.398664], [-0.738774, 42.397741], [-0.738682, 42.396934], [-0.738558, 42.396415], [-0.738401, 42.396186], [-0.738348, 42.395986], [-0.7384, 42.395816], [-0.738546, 42.395711], [-0.738784, 42.395673], [-0.739175, 42.395613], [-0.739719, 42.395533], [-0.740298, 42.395448], [-0.740912, 42.39536], [-0.741559, 42.395272], [-0.742239, 42.395182], [-0.742805, 42.395112], [-0.743257, 42.395059], [-0.743659, 42.395018], [-0.744008, 42.394989], [-0.744231, 42.394977], [-0.744328, 42.394983], [-0.744535, 42.395023], [-0.744853, 42.395099], [-0.745213, 42.395193], [-0.745616, 42.395307], [-0.746116, 42.395454], [-0.746713, 42.395635], [-0.747279, 42.395812], [-0.747815, 42.395984], [-0.748474, 42.396206], [-0.749256, 42.396479], [-0.749993, 42.396744], [-0.750685, 42.397], [-0.751428, 42.397283], [-0.75222, 42.397593], [-0.752892, 42.397864], [-0.753444, 42.398095], [-0.754104, 42.398397], [-0.754874, 42.398771], [-0.755587, 42.399135], [-0.756243, 42.399491], [-0.756933, 42.399886], [-0.757656, 42.400322], [-0.758257, 42.400703], [-0.758737, 42.401031], [-0.759306, 42.401439], [-0.759966, 42.401926], [-0.760574, 42.402388], [-0.761131, 42.402825], [-0.761613, 42.403215], [-0.762022, 42.403557], [-0.762431, 42.403676], [-0.762839, 42.403572], [-0.763721, 42.403519], [-0.765075, 42.403518], [-0.766317, 42.403792], [-0.767449, 42.404342], [-0.768639, 42.404861], [-0.769888, 42.40535], [-0.77111, 42.405866], [-0.772304, 42.406409], [-0.773541, 42.406828], [-0.774819, 42.407122], [-0.776098, 42.407416], [-0.777377, 42.40771], [-0.778691, 42.408024], [-0.780042, 42.408359], [-0.781361, 42.408696], [-0.782648, 42.409037], [-0.783716, 42.409594], [-0.784565, 42.410365], [-0.7853, 42.411221], [-0.785921, 42.41216], [-0.786543, 42.4131], [-0.787164, 42.41404], [-0.787659, 42.414993], [-0.788028, 42.41596], [-0.788175, 42.41695], [-0.7881, 42.417965], [-0.787895, 42.418969], [-0.787558, 42.419964], [-0.787638, 42.420937], [-0.788133, 42.421891], [-0.788687, 42.422813], [-0.7893, 42.423706], [-0.789972, 42.424568], [-0.790703, 42.4254], [-0.791412, 42.426283], [-0.792097, 42.427216], [-0.792836, 42.428095], [-0.793631, 42.42892], [-0.794308, 42.429805], [-0.794866, 42.430752], [-0.795361, 42.431705], [-0.795793, 42.432665], [-0.796067, 42.433642], [-0.796182, 42.434636], [-0.796104, 42.435627], [-0.795831, 42.436614], [-0.795491, 42.437585], [-0.795083, 42.43854], [-0.794798, 42.439431], [-0.794636, 42.440258], [-0.794571, 42.440763], [-0.794604, 42.440944], [-0.794632, 42.441367], [-0.794655, 42.442034], [-0.794644, 42.44266], [-0.794597, 42.443248], [-0.794509, 42.443876], [-0.79438, 42.444544], [-0.794237, 42.44511], [-0.79408, 42.445573], [-0.793929, 42.445988], [-0.793782, 42.446356], [-0.793672, 42.446597], [-0.793598, 42.446712], [-0.79363, 42.447047], [-0.793767, 42.447603], [-0.793981, 42.448261], [-0.79427, 42.44902], [-0.794486, 42.449989], [-0.794627, 42.451169], [-0.794663, 42.452306], [-0.794595, 42.453401], [-0.794515, 42.454629], [-0.794423, 42.455992], [-0.794339, 42.457196], [-0.794262, 42.458242], [-0.794154, 42.459434], [-0.794014, 42.46077], [-0.793874, 42.461964], [-0.793732, 42.463018], [-0.793674, 42.464203], [-0.793701, 42.465521], [-0.793807, 42.46669], [-0.793991, 42.467708], [-0.794, 42.468322], [-0.794941, 42.468748], [-0.797786, 42.47113], [-0.798738, 42.474162], [-0.796177, 42.476676], [-0.79214, 42.477706], [-0.788656, 42.479572], [-0.786147, 42.481152], [-0.787517, 42.483472], [-0.790566, 42.486023], [-0.791798, 42.48925], [-0.791338, 42.492658], [-0.79512, 42.494491], [-0.799675, 42.494642], [-0.803978, 42.495779], [-0.804296, 42.49614], [-0.8055, 42.496221]]]}}]}