{"type": "FeatureCollection", "name": "LECINENA", "features": [{"type": "Feature", "properties": {"id": "549516", "FIREDATE": "2026-06-30T14:25:00", "FINALDATE": "2026-07-02T02:41:00", "LASTUPDATE": "2026-07-02 07:42:10.963031", "COUNTRY": "ES", "PROVINCE": "Zaragoza", "COMMUNE": "Leciñena", "AREA_HA": 2830.0, "BROADLEA": 0.0, "CONIFER": 33.2394, "MIXED": 0.0, "SCLEROPH": 8.4507, "TRANSIT": 5.1056, "OTHERNATLC": 0.0, "AGRIAREAS": 53.2042, "ARTIFSURF": 0.0, "OTHERLC": 0.0, "PERCNA2K": 92.5692, "CLASS": "30DAYS", "AÑO": 2026, "LATITUD": 41.85340953539126, "LONGITUD": -0.532962203472075}, "geometry": {"type": "Polygon", "coordinates": [[[-0.594762, 41.874639], [-0.594709, 41.874755], [-0.594606, 41.874946], [-0.594485, 41.875113], [-0.594347, 41.875256], [-0.594071, 41.875366], [-0.593656, 41.875442], [-0.59329, 41.875452], [-0.592971, 41.875396], [-0.592812, 41.875297], [-0.592812, 41.875156], [-0.592811, 41.87503], [-0.592811, 41.874922], [-0.592662, 41.874877], [-0.592366, 41.874895], [-0.591666, 41.874934], [-0.590563, 41.874993], [-0.589984, 41.875022], [-0.589927, 41.875019], [-0.589703, 41.875007], [-0.589309, 41.874987], [-0.588945, 41.875021], [-0.588609, 41.875108], [-0.588231, 41.875177], [-0.587812, 41.875228], [-0.587454, 41.875214], [-0.587158, 41.875136], [-0.586976, 41.874979], [-0.586909, 41.874742], [-0.586689, 41.874631], [-0.586314, 41.874645], [-0.586075, 41.87477], [-0.585971, 41.875006], [-0.585794, 41.875195], [-0.585545, 41.875337], [-0.585259, 41.875396], [-0.584938, 41.875372], [-0.584782, 41.87526], [-0.58479, 41.87506], [-0.584792, 41.874732], [-0.58479, 41.874277], [-0.584821, 41.873888], [-0.584884, 41.873567], [-0.584984, 41.873331], [-0.585121, 41.873182], [-0.584919, 41.873056], [-0.584379, 41.872952], [-0.584087, 41.872898], [-0.584045, 41.872894], [-0.583977, 41.873065], [-0.583883, 41.873412], [-0.583629, 41.873589], [-0.583213, 41.873595], [-0.582805, 41.873587], [-0.582404, 41.873562], [-0.581954, 41.873681], [-0.581454, 41.873942], [-0.581018, 41.87417], [-0.580645, 41.874366], [-0.580342, 41.874506], [-0.580109, 41.87459], [-0.579757, 41.874676], [-0.579286, 41.874763], [-0.578898, 41.874697], [-0.578592, 41.874476], [-0.5784, 41.874456], [-0.578322, 41.874635], [-0.577729, 41.874991], [-0.576623, 41.875525], [-0.575746, 41.875789], [-0.575101, 41.875783], [-0.574719, 41.875787], [-0.574602, 41.875799], [-0.57436, 41.875802], [-0.573992, 41.875797], [-0.573768, 41.875705], [-0.573687, 41.875528], [-0.573693, 41.875416], [-0.573784, 41.875369], [-0.574037, 41.875316], [-0.574453, 41.875257], [-0.574584, 41.875154], [-0.57443, 41.875007], [-0.574309, 41.874915], [-0.574224, 41.87488], [-0.574147, 41.874865], [-0.574079, 41.874873], [-0.573864, 41.874918], [-0.573501, 41.875001], [-0.573251, 41.875072], [-0.573112, 41.875131], [-0.572564, 41.875171], [-0.571605, 41.875191], [-0.570908, 41.875227], [-0.570471, 41.875281], [-0.570106, 41.875264], [-0.569813, 41.875176], [-0.56958, 41.875063], [-0.569407, 41.874925], [-0.569324, 41.874763], [-0.569331, 41.874576], [-0.569496, 41.87447], [-0.569819, 41.874443], [-0.570171, 41.874443], [-0.570552, 41.874469], [-0.570767, 41.874424], [-0.570817, 41.874307], [-0.570813, 41.874157], [-0.570758, 41.873972], [-0.570711, 41.873814], [-0.570671, 41.873681], [-0.570547, 41.873585], [-0.570338, 41.873525], [-0.57022, 41.873534], [-0.570194, 41.873611], [-0.570192, 41.87371], [-0.570213, 41.87383], [-0.57022, 41.873889], [-0.570215, 41.873889], [-0.570154, 41.873859], [-0.570039, 41.8738], [-0.569842, 41.873659], [-0.569565, 41.873438], [-0.569367, 41.873319], [-0.56925, 41.873303], [-0.569143, 41.873429], [-0.569046, 41.873697], [-0.568705, 41.873798], [-0.56812, 41.873731], [-0.567466, 41.873484], [-0.566742, 41.873059], [-0.566345, 41.872815], [-0.566277, 41.87275], [-0.566199, 41.872744], [-0.566113, 41.872796], [-0.56594, 41.872929], [-0.565681, 41.873143], [-0.565485, 41.873279], [-0.565352, 41.873336], [-0.565245, 41.873272], [-0.565165, 41.873087], [-0.565024, 41.872743], [-0.564822, 41.872241], [-0.564723, 41.871894], [-0.564728, 41.871702], [-0.564607, 41.871605], [-0.56436, 41.871605], [-0.564195, 41.871685], [-0.56411, 41.871846], [-0.564019, 41.871935], [-0.563919, 41.871953], [-0.563812, 41.871943], [-0.563698, 41.871905], [-0.563655, 41.871792], [-0.563684, 41.871605], [-0.563695, 41.871471], [-0.563688, 41.871392], [-0.56368, 41.871302], [-0.563671, 41.871202], [-0.563549, 41.871113], [-0.563315, 41.871034], [-0.56315, 41.870995], [-0.563055, 41.870997], [-0.56291, 41.870947], [-0.562717, 41.870846], [-0.562695, 41.870725], [-0.562844, 41.870583], [-0.562999, 41.870481], [-0.563157, 41.870416], [-0.563288, 41.870232], [-0.563391, 41.869929], [-0.563394, 41.869703], [-0.563297, 41.869554], [-0.563071, 41.869474], [-0.562715, 41.869464], [-0.56258, 41.869234], [-0.562664, 41.868784], [-0.562579, 41.868541], [-0.562325, 41.868504], [-0.562116, 41.868545], [-0.561952, 41.868663], [-0.561793, 41.868808], [-0.561639, 41.868978], [-0.561502, 41.869189], [-0.561383, 41.869441], [-0.561217, 41.869583], [-0.561003, 41.869616], [-0.560799, 41.8695], [-0.560604, 41.869234], [-0.560345, 41.868969], [-0.560023, 41.868706], [-0.559828, 41.868564], [-0.559761, 41.868545], [-0.559677, 41.868445], [-0.559574, 41.868264], [-0.559402, 41.868068], [-0.559159, 41.867854], [-0.559005, 41.868022], [-0.558937, 41.868571], [-0.558981, 41.868922], [-0.559135, 41.869076], [-0.559265, 41.86915], [-0.55937, 41.869144], [-0.559533, 41.869204], [-0.559753, 41.869329], [-0.559951, 41.869473], [-0.560128, 41.869635], [-0.560307, 41.869748], [-0.560489, 41.869814], [-0.560591, 41.869851], [-0.560613, 41.869859], [-0.560691, 41.869896], [-0.560823, 41.869962], [-0.561103, 41.869946], [-0.561532, 41.869847], [-0.5619, 41.869824], [-0.562206, 41.869877], [-0.562376, 41.869994], [-0.562407, 41.870177], [-0.562342, 41.870331], [-0.562178, 41.870458], [-0.562075, 41.87051], [-0.562031, 41.870487], [-0.561958, 41.870496], [-0.561855, 41.870537], [-0.56168, 41.870597], [-0.561434, 41.870675], [-0.561206, 41.870789], [-0.560997, 41.870939], [-0.560998, 41.871102], [-0.561209, 41.871278], [-0.561369, 41.871421], [-0.561478, 41.871529], [-0.561634, 41.871625], [-0.561839, 41.871709], [-0.561999, 41.871799], [-0.562116, 41.871895], [-0.562077, 41.871987], [-0.561883, 41.872075], [-0.561687, 41.872085], [-0.56149, 41.872016], [-0.561254, 41.871879], [-0.560978, 41.871676], [-0.560688, 41.871544], [-0.560382, 41.871482], [-0.56011, 41.871397], [-0.559871, 41.871288], [-0.559433, 41.871233], [-0.558795, 41.871234], [-0.558103, 41.871274], [-0.557358, 41.871353], [-0.556531, 41.871372], [-0.555622, 41.871332], [-0.555143, 41.871308], [-0.555093, 41.8713], [-0.554926, 41.871274], [-0.554643, 41.871229], [-0.554452, 41.871225], [-0.554354, 41.871259], [-0.554293, 41.871297], [-0.554267, 41.871339], [-0.554245, 41.871383], [-0.554226, 41.871429], [-0.554176, 41.871551], [-0.554095, 41.871749], [-0.554044, 41.871973], [-0.554022, 41.872224], [-0.553999, 41.872404], [-0.553972, 41.872514], [-0.554007, 41.872678], [-0.554104, 41.872896], [-0.554225, 41.873124], [-0.55437, 41.873362], [-0.554475, 41.873592], [-0.554539, 41.873814], [-0.554626, 41.874016], [-0.554736, 41.874199], [-0.554807, 41.874384], [-0.55484, 41.87457], [-0.554651, 41.874678], [-0.554241, 41.874706], [-0.553983, 41.874663], [-0.553879, 41.874548], [-0.553714, 41.874346], [-0.553489, 41.874058], [-0.553347, 41.873892], [-0.553289, 41.873845], [-0.55326, 41.873823], [-0.553094, 41.873764], [-0.552761, 41.873646], [-0.552414, 41.873522], [-0.552053, 41.873393], [-0.551795, 41.873187], [-0.551638, 41.872902], [-0.551403, 41.87283], [-0.551088, 41.872971], [-0.550807, 41.87307], [-0.550559, 41.87313], [-0.550275, 41.87316], [-0.549954, 41.873161], [-0.549702, 41.873248], [-0.549518, 41.873421], [-0.549345, 41.873603], [-0.549182, 41.873794], [-0.549045, 41.873955], [-0.548934, 41.874087], [-0.548735, 41.874222], [-0.548447, 41.87436], [-0.548268, 41.874439], [-0.548199, 41.874462], [-0.547941, 41.874679], [-0.547496, 41.875091], [-0.547185, 41.875335], [-0.547009, 41.87541], [-0.546856, 41.875374], [-0.546728, 41.875224], [-0.546692, 41.875086], [-0.546751, 41.87496], [-0.546829, 41.874845], [-0.546926, 41.874741], [-0.547032, 41.874603], [-0.547144, 41.87443], [-0.547248, 41.874232], [-0.547343, 41.874008], [-0.547447, 41.87389], [-0.547561, 41.873878], [-0.547771, 41.873829], [-0.548077, 41.873744], [-0.548195, 41.873654], [-0.548125, 41.873561], [-0.547959, 41.873428], [-0.547698, 41.873256], [-0.547515, 41.873101], [-0.547411, 41.872965], [-0.547373, 41.872722], [-0.547401, 41.872371], [-0.547376, 41.871996], [-0.547297, 41.871597], [-0.547062, 41.871217], [-0.54667, 41.870857], [-0.546426, 41.870713], [-0.546331, 41.870783], [-0.546267, 41.87085], [-0.546234, 41.870914], [-0.546177, 41.871097], [-0.546096, 41.871399], [-0.546055, 41.871731], [-0.546056, 41.872092], [-0.545981, 41.872458], [-0.545832, 41.872828], [-0.545826, 41.873129], [-0.545965, 41.873362], [-0.546032, 41.873545], [-0.546029, 41.873679], [-0.546053, 41.873947], [-0.546105, 41.87435], [-0.546027, 41.874615], [-0.545817, 41.874744], [-0.545537, 41.874671], [-0.545186, 41.874393], [-0.544678, 41.874216], [-0.544014, 41.87414], [-0.543607, 41.874079], [-0.543457, 41.874035], [-0.543364, 41.874112], [-0.543329, 41.87431], [-0.543289, 41.874394], [-0.543245, 41.874362], [-0.543184, 41.874375], [-0.543106, 41.874432], [-0.54301, 41.874513], [-0.542894, 41.874619], [-0.54282, 41.874781], [-0.542786, 41.874998], [-0.542792, 41.875261], [-0.542837, 41.875571], [-0.542789, 41.875883], [-0.542648, 41.876199], [-0.542474, 41.876355], [-0.542268, 41.87635], [-0.542114, 41.876306], [-0.54201, 41.876223], [-0.541961, 41.876121], [-0.541967, 41.876], [-0.54207, 41.875799], [-0.542271, 41.875517], [-0.542352, 41.875291], [-0.542313, 41.875122], [-0.542177, 41.874751], [-0.541945, 41.874181], [-0.541656, 41.873854], [-0.541312, 41.87377], [-0.54107, 41.873762], [-0.54093, 41.87383], [-0.540753, 41.873863], [-0.540538, 41.873859], [-0.540448, 41.873801], [-0.540482, 41.873691], [-0.540701, 41.87349], [-0.541106, 41.8732], [-0.541332, 41.872916], [-0.541382, 41.872636], [-0.541393, 41.872394], [-0.541367, 41.87219], [-0.541371, 41.871918], [-0.541406, 41.871579], [-0.541403, 41.87137], [-0.541364, 41.871291], [-0.541345, 41.871251], [-0.541346, 41.87125], [-0.54147, 41.871041], [-0.541717, 41.870624], [-0.541871, 41.87035], [-0.541931, 41.870219], [-0.541882, 41.870038], [-0.541723, 41.869806], [-0.541443, 41.869591], [-0.541041, 41.869394], [-0.540735, 41.869235], [-0.540525, 41.869115], [-0.540255, 41.868957], [-0.539925, 41.868761], [-0.539249, 41.868722], [-0.538227, 41.868839], [-0.537214, 41.869177], [-0.536209, 41.869736], [-0.535634, 41.870072], [-0.535488, 41.870185], [-0.53537, 41.870278], [-0.53528, 41.87035], [-0.534974, 41.870402], [-0.534454, 41.870431], [-0.534137, 41.870304], [-0.534023, 41.870021], [-0.533866, 41.869815], [-0.533664, 41.869686], [-0.533179, 41.86963], [-0.532411, 41.869648], [-0.531661, 41.869707], [-0.530928, 41.869808], [-0.530433, 41.869813], [-0.530174, 41.869721], [-0.529777, 41.869502], [-0.529241, 41.869155], [-0.528686, 41.868876], [-0.528111, 41.868668], [-0.527667, 41.868453], [-0.527354, 41.868233], [-0.527145, 41.868156], [-0.527041, 41.868222], [-0.526847, 41.868476], [-0.526565, 41.868918], [-0.526313, 41.86923], [-0.526091, 41.869412], [-0.5257, 41.869564], [-0.52514, 41.869686], [-0.524844, 41.869836], [-0.524812, 41.870014], [-0.524884, 41.870129], [-0.525063, 41.870182], [-0.525286, 41.870194], [-0.525556, 41.870165], [-0.525737, 41.870206], [-0.52583, 41.870315], [-0.525909, 41.870441], [-0.525974, 41.870586], [-0.525978, 41.870712], [-0.525921, 41.870819], [-0.525926, 41.871031], [-0.525992, 41.871349], [-0.526038, 41.871646], [-0.526064, 41.871922], [-0.526022, 41.872062], [-0.525913, 41.872066], [-0.525517, 41.871988], [-0.524832, 41.871831], [-0.524384, 41.871746], [-0.524174, 41.871736], [-0.524024, 41.871704], [-0.523932, 41.871652], [-0.523604, 41.871527], [-0.523038, 41.871327], [-0.522669, 41.871192], [-0.522498, 41.871119], [-0.52222, 41.871083], [-0.521836, 41.871082], [-0.521622, 41.871078], [-0.521577, 41.871071], [-0.521158, 41.870772], [-0.520365, 41.870181], [-0.519851, 41.869806], [-0.519616, 41.869646], [-0.519468, 41.869577], [-0.519407, 41.869599], [-0.519174, 41.869699], [-0.518769, 41.869878], [-0.518475, 41.870035], [-0.518289, 41.87017], [-0.517949, 41.870325], [-0.517453, 41.870499], [-0.51706, 41.870772], [-0.516771, 41.871143], [-0.516436, 41.871328], [-0.516055, 41.871327], [-0.515288, 41.871224], [-0.514137, 41.871019], [-0.51319, 41.870867], [-0.512447, 41.870769], [-0.511599, 41.87064], [-0.510647, 41.870482], [-0.510038, 41.870373], [-0.509774, 41.870312], [-0.509634, 41.870242], [-0.509621, 41.870161], [-0.509481, 41.870061], [-0.509215, 41.869939], [-0.509005, 41.869883], [-0.508853, 41.869892], [-0.508608, 41.869894], [-0.508272, 41.869889], [-0.507947, 41.869875], [-0.507635, 41.869854], [-0.507442, 41.869785], [-0.507367, 41.869671], [-0.507338, 41.869582], [-0.507355, 41.869519], [-0.507462, 41.869484], [-0.50766, 41.869477], [-0.507938, 41.869485], [-0.508296, 41.869508], [-0.508975, 41.86942], [-0.509974, 41.869219], [-0.510583, 41.869118], [-0.5108, 41.869115], [-0.511006, 41.869046], [-0.5112, 41.86891], [-0.511487, 41.868815], [-0.511868, 41.868761], [-0.512086, 41.868711], [-0.512141, 41.868664], [-0.512321, 41.868523], [-0.512625, 41.868287], [-0.513077, 41.868229], [-0.513679, 41.868349], [-0.514051, 41.86846], [-0.514196, 41.86856], [-0.51433, 41.8686], [-0.514453, 41.868581], [-0.514525, 41.868525], [-0.514546, 41.868435], [-0.514612, 41.868292], [-0.514723, 41.868096], [-0.514886, 41.867991], [-0.515101, 41.867975], [-0.515599, 41.867997], [-0.516381, 41.868058], [-0.51698, 41.868165], [-0.517397, 41.868318], [-0.517662, 41.868433], [-0.517775, 41.868509], [-0.517863, 41.868572], [-0.517925, 41.868619], [-0.518034, 41.8687], [-0.51819, 41.868813], [-0.518522, 41.868818], [-0.519031, 41.868717], [-0.519641, 41.868629], [-0.520354, 41.868554], [-0.520844, 41.868448], [-0.52111, 41.868311], [-0.521241, 41.86822], [-0.521236, 41.868176], [-0.521176, 41.86812], [-0.521062, 41.868053], [-0.520959, 41.868021], [-0.520869, 41.868024], [-0.520792, 41.867915], [-0.520728, 41.867693], [-0.520666, 41.86751], [-0.520604, 41.867366], [-0.520485, 41.867204], [-0.520308, 41.867024], [-0.520126, 41.866896], [-0.51994, 41.86682], [-0.519486, 41.866755], [-0.518766, 41.866701], [-0.518257, 41.866687], [-0.517961, 41.866711], [-0.517792, 41.866763], [-0.517751, 41.866843], [-0.517832, 41.866913], [-0.518034, 41.866974], [-0.518246, 41.867013], [-0.518467, 41.86703], [-0.518713, 41.867107], [-0.518983, 41.867243], [-0.519155, 41.867423], [-0.519231, 41.867647], [-0.519202, 41.867797], [-0.519069, 41.867873], [-0.518964, 41.867894], [-0.518885, 41.867862], [-0.518732, 41.867714], [-0.518504, 41.86745], [-0.518317, 41.867357], [-0.518171, 41.867433], [-0.518077, 41.867458], [-0.518035, 41.867433], [-0.517874, 41.867437], [-0.517593, 41.86747], [-0.517256, 41.867507], [-0.516862, 41.867548], [-0.516396, 41.867567], [-0.515857, 41.867562], [-0.515127, 41.867557], [-0.514205, 41.867551], [-0.513695, 41.867503], [-0.513597, 41.86741], [-0.513428, 41.867326], [-0.513186, 41.867249], [-0.513081, 41.867297], [-0.513111, 41.867472], [-0.512845, 41.867565], [-0.512281, 41.867576], [-0.511644, 41.867579], [-0.510931, 41.867572], [-0.510396, 41.867693], [-0.510039, 41.867943], [-0.509422, 41.868196], [-0.508545, 41.868452], [-0.50808, 41.86858], [-0.508025, 41.868579], [-0.507912, 41.868532], [-0.507741, 41.868441], [-0.507483, 41.868294], [-0.507138, 41.868091], [-0.507146, 41.867902], [-0.507508, 41.867727], [-0.507732, 41.867625], [-0.507818, 41.867595], [-0.507908, 41.867507], [-0.508001, 41.867361], [-0.508011, 41.867182], [-0.507938, 41.866971], [-0.507878, 41.866782], [-0.507831, 41.866616], [-0.507946, 41.866522], [-0.508225, 41.8665], [-0.508588, 41.866492], [-0.509036, 41.8665], [-0.509481, 41.866408], [-0.509922, 41.866218], [-0.510182, 41.866034], [-0.51026, 41.865854], [-0.51043, 41.865707], [-0.510693, 41.86559], [-0.51085, 41.865525], [-0.510902, 41.865513], [-0.51094, 41.865399], [-0.510962, 41.865183], [-0.510879, 41.865033], [-0.510691, 41.864951], [-0.510608, 41.864785], [-0.510629, 41.864536], [-0.510712, 41.864359], [-0.510858, 41.864255], [-0.511096, 41.864285], [-0.511426, 41.864448], [-0.511765, 41.864611], [-0.512112, 41.864773], [-0.512318, 41.864851], [-0.51238, 41.864844], [-0.512533, 41.864777], [-0.512776, 41.864649], [-0.512912, 41.864585], [-0.512942, 41.864586], [-0.512928, 41.864575], [-0.512871, 41.864552], [-0.512882, 41.864514], [-0.51296, 41.864463], [-0.513171, 41.864378], [-0.513516, 41.864259], [-0.513891, 41.864155], [-0.514295, 41.864064], [-0.514719, 41.863903], [-0.515163, 41.863671], [-0.515465, 41.863495], [-0.515627, 41.863376], [-0.515796, 41.863217], [-0.515972, 41.863021], [-0.516183, 41.862923], [-0.51643, 41.862925], [-0.516596, 41.862958], [-0.51668, 41.863025], [-0.516825, 41.863044], [-0.51703, 41.863015], [-0.51714, 41.862935], [-0.517153, 41.862804], [-0.51714, 41.862624], [-0.517101, 41.862395], [-0.517051, 41.862243], [-0.516993, 41.862167], [-0.516864, 41.862084], [-0.516666, 41.861996], [-0.516502, 41.86189], [-0.516371, 41.861767], [-0.516224, 41.861631], [-0.516062, 41.861484], [-0.515917, 41.861441], [-0.515791, 41.861502], [-0.51571, 41.86159], [-0.515675, 41.861703], [-0.515698, 41.861865], [-0.515781, 41.862075], [-0.51583, 41.862231], [-0.515848, 41.862332], [-0.515712, 41.862445], [-0.515424, 41.862572], [-0.515266, 41.862633], [-0.515238, 41.862629], [-0.515209, 41.862598], [-0.515181, 41.862539], [-0.515203, 41.862352], [-0.515276, 41.862036], [-0.515263, 41.861829], [-0.515164, 41.861729], [-0.51508, 41.861748], [-0.515013, 41.861886], [-0.514858, 41.862073], [-0.514616, 41.862311], [-0.514256, 41.862551], [-0.513778, 41.862793], [-0.513346, 41.86275], [-0.51296, 41.862421], [-0.512608, 41.862262], [-0.512291, 41.862275], [-0.511986, 41.862307], [-0.511694, 41.862359], [-0.511565, 41.862482], [-0.511598, 41.862677], [-0.511385, 41.862895], [-0.510925, 41.863135], [-0.510657, 41.863342], [-0.510583, 41.863516], [-0.510514, 41.86359], [-0.510451, 41.863564], [-0.510399, 41.863565], [-0.510357, 41.863594], [-0.510183, 41.863651], [-0.509879, 41.863738], [-0.509565, 41.863799], [-0.509242, 41.863833], [-0.508951, 41.863836], [-0.50869, 41.863809], [-0.508287, 41.863718], [-0.507739, 41.863563], [-0.507217, 41.863471], [-0.506718, 41.863441], [-0.506351, 41.863377], [-0.506115, 41.863279], [-0.505996, 41.863168], [-0.505993, 41.863045], [-0.506105, 41.862879], [-0.506334, 41.86267], [-0.50665, 41.862489], [-0.507054, 41.862336], [-0.507367, 41.862217], [-0.507588, 41.862133], [-0.507786, 41.862014], [-0.50796, 41.861858], [-0.508043, 41.861706], [-0.508035, 41.861556], [-0.508002, 41.86147], [-0.507944, 41.861449], [-0.507897, 41.861441], [-0.507861, 41.861444], [-0.507505, 41.861579], [-0.506829, 41.861844], [-0.506423, 41.862003], [-0.506287, 41.862056], [-0.506016, 41.862077], [-0.505613, 41.862065], [-0.505249, 41.862072], [-0.504925, 41.862099], [-0.504363, 41.862179], [-0.503565, 41.862311], [-0.502979, 41.862397], [-0.502607, 41.862436], [-0.502419, 41.86247], [-0.502413, 41.862499], [-0.501925, 41.862777], [-0.500953, 41.863302], [-0.500447, 41.863567], [-0.500407, 41.863571], [-0.500136, 41.863492], [-0.499633, 41.863331], [-0.499368, 41.863239], [-0.49934, 41.863217], [-0.499206, 41.863271], [-0.498967, 41.863401], [-0.498788, 41.863548], [-0.49867, 41.863714], [-0.498459, 41.863678], [-0.498156, 41.86344], [-0.497893, 41.863336], [-0.497669, 41.863366], [-0.497277, 41.863462], [-0.496716, 41.863625], [-0.496299, 41.863835], [-0.496024, 41.864091], [-0.49536, 41.864151], [-0.494307, 41.864017], [-0.493696, 41.86382], [-0.493529, 41.863562], [-0.493422, 41.863319], [-0.493374, 41.863091], [-0.49336, 41.862795], [-0.493378, 41.862431], [-0.493282, 41.862181], [-0.49307, 41.862043], [-0.492925, 41.86201], [-0.492847, 41.862079], [-0.49272, 41.862215], [-0.492542, 41.862418], [-0.492411, 41.862606], [-0.492327, 41.862781], [-0.49225, 41.862878], [-0.49218, 41.862898], [-0.492058, 41.862904], [-0.491885, 41.862898], [-0.491746, 41.862848], [-0.49164, 41.862755], [-0.491625, 41.862671], [-0.491702, 41.862595], [-0.491838, 41.862461], [-0.492034, 41.862269], [-0.492007, 41.862112], [-0.491757, 41.861991], [-0.491516, 41.861851], [-0.491284, 41.861691], [-0.491095, 41.861638], [-0.490949, 41.86169], [-0.490761, 41.861719], [-0.490534, 41.861724], [-0.490331, 41.861804], [-0.490153, 41.861958], [-0.490012, 41.862086], [-0.489907, 41.862189], [-0.489764, 41.862213], [-0.489583, 41.862159], [-0.489438, 41.862103], [-0.48933, 41.862047], [-0.489007, 41.861928], [-0.488469, 41.861745], [-0.488057, 41.861586], [-0.487772, 41.861451], [-0.487667, 41.861296], [-0.487744, 41.861122], [-0.487845, 41.861047], [-0.487972, 41.861071], [-0.488154, 41.861128], [-0.48839, 41.86122], [-0.488698, 41.861301], [-0.489079, 41.861371], [-0.489602, 41.861326], [-0.490269, 41.861163], [-0.490641, 41.861048], [-0.490719, 41.860978], [-0.490714, 41.860831], [-0.490627, 41.860608], [-0.490573, 41.860425], [-0.490555, 41.860282], [-0.490523, 41.86018], [-0.490478, 41.860117], [-0.490547, 41.860069], [-0.490729, 41.860034], [-0.491088, 41.860047], [-0.491623, 41.860109], [-0.491886, 41.86012], [-0.49188, 41.860082], [-0.49185, 41.860002], [-0.491798, 41.859882], [-0.491649, 41.859839], [-0.491404, 41.859873], [-0.491232, 41.859879], [-0.491134, 41.859858], [-0.490937, 41.859717], [-0.49064, 41.859458], [-0.490441, 41.859247], [-0.49034, 41.859084], [-0.490146, 41.858873], [-0.48986, 41.858612], [-0.489611, 41.858414], [-0.489399, 41.85828], [-0.489276, 41.858143], [-0.489242, 41.858005], [-0.489316, 41.857946], [-0.489497, 41.857967], [-0.48965, 41.858002], [-0.489774, 41.858052], [-0.490092, 41.858167], [-0.490606, 41.858349], [-0.490866, 41.858369], [-0.490873, 41.858227], [-0.490787, 41.858063], [-0.490608, 41.857877], [-0.490401, 41.857683], [-0.490167, 41.85748], [-0.489976, 41.857343], [-0.489827, 41.857272], [-0.489779, 41.857171], [-0.489829, 41.85704], [-0.489965, 41.856974], [-0.490185, 41.856975], [-0.490421, 41.857036], [-0.490672, 41.857159], [-0.490942, 41.857355], [-0.491229, 41.857623], [-0.49148, 41.857892], [-0.491694, 41.85816], [-0.492062, 41.858322], [-0.492585, 41.858377], [-0.492958, 41.858471], [-0.49318, 41.858605], [-0.493523, 41.85886], [-0.493986, 41.859235], [-0.49431, 41.859414], [-0.494495, 41.859394], [-0.494659, 41.859341], [-0.494801, 41.859256], [-0.494899, 41.859065], [-0.494953, 41.858768], [-0.495025, 41.858462], [-0.495117, 41.858146], [-0.495251, 41.85801], [-0.495426, 41.858054], [-0.495671, 41.858139], [-0.495986, 41.858263], [-0.496227, 41.85841], [-0.496392, 41.858581], [-0.496443, 41.858694], [-0.496379, 41.858748], [-0.496299, 41.858917], [-0.496201, 41.859203], [-0.496256, 41.859397], [-0.496463, 41.859501], [-0.496732, 41.859634], [-0.497064, 41.859796], [-0.497247, 41.859946], [-0.497281, 41.860083], [-0.497389, 41.860194], [-0.497571, 41.860277], [-0.497681, 41.86032], [-0.497718, 41.860324], [-0.497844, 41.860267], [-0.49806, 41.860151], [-0.498194, 41.86009], [-0.498245, 41.860084], [-0.49839, 41.860104], [-0.498628, 41.86015], [-0.498881, 41.860245], [-0.499147, 41.86039], [-0.499481, 41.860508], [-0.499885, 41.860599], [-0.500242, 41.860542], [-0.500552, 41.860337], [-0.500659, 41.860015], [-0.500562, 41.859577], [-0.500135, 41.859319], [-0.499377, 41.859242], [-0.498719, 41.85895], [-0.49816, 41.858443], [-0.497643, 41.858179], [-0.497168, 41.858158], [-0.49681, 41.858117], [-0.496569, 41.858056], [-0.496394, 41.857984], [-0.496285, 41.857901], [-0.49597, 41.857773], [-0.495447, 41.8576], [-0.495138, 41.857439], [-0.495041, 41.85729], [-0.495142, 41.857236], [-0.49544, 41.857278], [-0.495787, 41.857293], [-0.496183, 41.857283], [-0.496403, 41.857248], [-0.496445, 41.857189], [-0.496461, 41.857132], [-0.496452, 41.857078], [-0.496276, 41.856998], [-0.495933, 41.856893], [-0.495712, 41.85683], [-0.495614, 41.856808], [-0.495303, 41.856766], [-0.494779, 41.856704], [-0.494513, 41.856618], [-0.494504, 41.856509], [-0.494543, 41.85634], [-0.494629, 41.85611], [-0.494915, 41.856037], [-0.495401, 41.85612], [-0.49586, 41.856201], [-0.496293, 41.856281], [-0.496701, 41.856458], [-0.497083, 41.856732], [-0.497372, 41.856887], [-0.497567, 41.856921], [-0.497656, 41.856833], [-0.497641, 41.856623], [-0.497629, 41.856404], [-0.497621, 41.856177], [-0.497653, 41.856059], [-0.497725, 41.856052], [-0.497899, 41.856085], [-0.498173, 41.856158], [-0.498524, 41.856251], [-0.498952, 41.856363], [-0.499334, 41.856421], [-0.49967, 41.856425], [-0.499907, 41.856372], [-0.500046, 41.856263], [-0.499948, 41.85612], [-0.499613, 41.855943], [-0.499315, 41.855826], [-0.499053, 41.855767], [-0.498861, 41.855653], [-0.498738, 41.855485], [-0.498527, 41.855417], [-0.498228, 41.855449], [-0.498019, 41.855325], [-0.497897, 41.855047], [-0.497809, 41.854903], [-0.497755, 41.854893], [-0.497693, 41.854986], [-0.497622, 41.855182], [-0.497366, 41.855245], [-0.496924, 41.855173], [-0.496676, 41.855046], [-0.496624, 41.854863], [-0.496679, 41.854696], [-0.496841, 41.854545], [-0.496958, 41.854376], [-0.497031, 41.854187], [-0.497081, 41.854039], [-0.497109, 41.853931], [-0.497389, 41.853905], [-0.49792, 41.853963], [-0.498216, 41.854022], [-0.498278, 41.854083], [-0.498411, 41.854189], [-0.498616, 41.85434], [-0.498801, 41.854373], [-0.498966, 41.854289], [-0.498996, 41.854171], [-0.498893, 41.854018], [-0.498814, 41.853931], [-0.498759, 41.853908], [-0.498656, 41.853832], [-0.498506, 41.853704], [-0.498625, 41.853576], [-0.499012, 41.853449], [-0.499264, 41.853423], [-0.499379, 41.853497], [-0.499532, 41.853533], [-0.499724, 41.853532], [-0.499895, 41.853596], [-0.500045, 41.853724], [-0.500158, 41.853895], [-0.500233, 41.854108], [-0.500316, 41.854329], [-0.500407, 41.85456], [-0.500584, 41.854612], [-0.500845, 41.854485], [-0.500991, 41.854506], [-0.50102, 41.854674], [-0.501067, 41.854818], [-0.501133, 41.854937], [-0.501407, 41.855105], [-0.501892, 41.855322], [-0.502344, 41.855513], [-0.502764, 41.855679], [-0.503223, 41.855651], [-0.503721, 41.855431], [-0.504098, 41.855287], [-0.504354, 41.855218], [-0.50489, 41.855086], [-0.505705, 41.854891], [-0.506204, 41.854805], [-0.506387, 41.854828], [-0.506593, 41.854986], [-0.506823, 41.855281], [-0.507129, 41.855466], [-0.507511, 41.855543], [-0.507844, 41.855563], [-0.508128, 41.855525], [-0.508366, 41.855512], [-0.508558, 41.855525], [-0.508695, 41.855607], [-0.508777, 41.855758], [-0.508818, 41.855867], [-0.508819, 41.855934], [-0.508704, 41.856013], [-0.508474, 41.856104], [-0.508084, 41.856271], [-0.507534, 41.856513], [-0.507269, 41.856726], [-0.507289, 41.856908], [-0.50738, 41.857108], [-0.50754, 41.857326], [-0.507746, 41.857384], [-0.507996, 41.857282], [-0.508585, 41.857035], [-0.509512, 41.856644], [-0.510019, 41.856285], [-0.510108, 41.855957], [-0.510215, 41.855736], [-0.51034, 41.855622], [-0.510481, 41.855469], [-0.510638, 41.855277], [-0.510671, 41.855143], [-0.510579, 41.855069], [-0.510488, 41.854991], [-0.510395, 41.854908], [-0.510197, 41.854795], [-0.509893, 41.854651], [-0.509733, 41.854438], [-0.509717, 41.854154], [-0.509731, 41.853943], [-0.509774, 41.853805], [-0.509969, 41.853709], [-0.510318, 41.853655], [-0.510668, 41.853614], [-0.511021, 41.853585], [-0.511313, 41.853563], [-0.511545, 41.853547], [-0.511891, 41.853581], [-0.512353, 41.853667], [-0.51277, 41.853753], [-0.513143, 41.853839], [-0.513562, 41.853908], [-0.514029, 41.85396], [-0.514557, 41.854072], [-0.515146, 41.854244], [-0.515837, 41.854331], [-0.51663, 41.854331], [-0.51757, 41.854341], [-0.518657, 41.85436], [-0.519322, 41.854357], [-0.519563, 41.854332], [-0.519915, 41.854299], [-0.520377, 41.854258], [-0.520559, 41.854114], [-0.520459, 41.853864], [-0.520274, 41.853729], [-0.520002, 41.853707], [-0.519806, 41.853703], [-0.519685, 41.853715], [-0.518766, 41.853636], [-0.51705, 41.853465], [-0.515252, 41.853055], [-0.513375, 41.852407], [-0.51173, 41.85176], [-0.510317, 41.851115], [-0.509583, 41.850608], [-0.50953, 41.850239], [-0.509323, 41.850012], [-0.508962, 41.849925], [-0.508604, 41.849996], [-0.508247, 41.850226], [-0.507941, 41.850378], [-0.507685, 41.850453], [-0.506935, 41.850407], [-0.505691, 41.850241], [-0.504228, 41.85014], [-0.502546, 41.850106], [-0.500651, 41.849908], [-0.498541, 41.849544], [-0.497014, 41.849403], [-0.496068, 41.849483], [-0.495407, 41.849433], [-0.49503, 41.849251], [-0.494838, 41.849065], [-0.494831, 41.848874], [-0.494163, 41.848637], [-0.492835, 41.848355], [-0.491905, 41.84838], [-0.491375, 41.848715], [-0.491042, 41.849009], [-0.490907, 41.849263], [-0.490767, 41.849364], [-0.490623, 41.849313], [-0.490446, 41.84925], [-0.490236, 41.849176], [-0.49013, 41.849035], [-0.490129, 41.848829], [-0.490054, 41.848628], [-0.489906, 41.848432], [-0.489665, 41.848424], [-0.48933, 41.848604], [-0.488803, 41.848898], [-0.488083, 41.849306], [-0.486759, 41.849561], [-0.484831, 41.849662], [-0.48359, 41.849728], [-0.483036, 41.849757], [-0.482418, 41.850024], [-0.481734, 41.85053], [-0.481199, 41.85089], [-0.480812, 41.851104], [-0.480405, 41.851313], [-0.479978, 41.851517], [-0.479598, 41.851492], [-0.479265, 41.851238], [-0.478737, 41.851192], [-0.478014, 41.851355], [-0.477546, 41.851501], [-0.477334, 41.851631], [-0.477167, 41.851713], [-0.477045, 41.851748], [-0.476922, 41.851776], [-0.476799, 41.851796], [-0.476685, 41.851806], [-0.476579, 41.851806], [-0.476483, 41.851796], [-0.476395, 41.851776], [-0.476315, 41.85175], [-0.476243, 41.851719], [-0.476179, 41.851682], [-0.476123, 41.851639], [-0.476075, 41.851591], [-0.476034, 41.851536], [-0.476002, 41.851476], [-0.475978, 41.851411], [-0.475931, 41.851352], [-0.475862, 41.851301], [-0.475771, 41.851257], [-0.475658, 41.85122], [-0.475522, 41.851191], [-0.475364, 41.851168], [-0.475183, 41.851153], [-0.474981, 41.851145], [-0.474823, 41.851103], [-0.474711, 41.851027], [-0.474644, 41.850917], [-0.474623, 41.850774], [-0.474646, 41.850596], [-0.474715, 41.850384], [-0.47483, 41.850138], [-0.474989, 41.849858], [-0.475149, 41.849606], [-0.47531, 41.849382], [-0.475472, 41.849186], [-0.475634, 41.849018], [-0.475798, 41.848878], [-0.475962, 41.848766], [-0.476127, 41.848682], [-0.476292, 41.848625], [-0.476464, 41.848572], [-0.476642, 41.848523], [-0.476827, 41.848478], [-0.477018, 41.848436], [-0.477215, 41.848397], [-0.477418, 41.848363], [-0.477628, 41.848331], [-0.477844, 41.848304], [-0.47803, 41.848268], [-0.478186, 41.848225], [-0.478313, 41.848174], [-0.47841, 41.848115], [-0.478477, 41.848049], [-0.478515, 41.847974], [-0.478522, 41.847892], [-0.4785, 41.847801], [-0.478466, 41.847712], [-0.47842, 41.847625], [-0.478362, 41.847538], [-0.478292, 41.847453], [-0.478211, 41.847369], [-0.478117, 41.847286], [-0.478011, 41.847205], [-0.477893, 41.847125], [-0.477833, 41.847048], [-0.47783, 41.846974], [-0.477884, 41.846903], [-0.477996, 41.846835], [-0.478165, 41.84677], [-0.478391, 41.846709], [-0.478675, 41.84665], [-0.479016, 41.846595], [-0.479324, 41.846525], [-0.4796, 41.84644], [-0.479843, 41.84634], [-0.480054, 41.846225], [-0.480232, 41.846096], [-0.480378, 41.845951], [-0.480491, 41.845792], [-0.480571, 41.845618], [-0.480659, 41.845454], [-0.480756, 41.8453], [-0.480861, 41.845156], [-0.480974, 41.845023], [-0.481096, 41.844899], [-0.481226, 41.844786], [-0.481364, 41.844682], [-0.48151, 41.844589], [-0.481636, 41.844488], [-0.481742, 41.844379], [-0.481828, 41.844263], [-0.481895, 41.844139], [-0.481941, 41.844008], [-0.481967, 41.843868], [-0.481974, 41.843722], [-0.48196, 41.843567], [-0.481921, 41.843432], [-0.481857, 41.843317], [-0.481769, 41.843222], [-0.481655, 41.843146], [-0.481516, 41.84309], [-0.481353, 41.843054], [-0.481164, 41.843037], [-0.48095, 41.84304], [-0.480746, 41.843022], [-0.480553, 41.842982], [-0.48037, 41.842922], [-0.480197, 41.84284], [-0.480034, 41.842737], [-0.479881, 41.842613], [-0.479738, 41.842468], [-0.479605, 41.842302], [-0.479508, 41.842156], [-0.479446, 41.842031], [-0.479419, 41.841927], [-0.479427, 41.841843], [-0.479471, 41.84178], [-0.479549, 41.841738], [-0.479663, 41.841716], [-0.479812, 41.841715], [-0.479913, 41.841695], [-0.479964, 41.841655], [-0.479967, 41.841596], [-0.479921, 41.841518], [-0.479827, 41.841421], [-0.479683, 41.841305], [-0.479491, 41.841169], [-0.47925, 41.841014], [-0.479075, 41.840864], [-0.478967, 41.840718], [-0.478926, 41.840577], [-0.478951, 41.84044], [-0.479043, 41.840308], [-0.479201, 41.840181], [-0.479426, 41.840058], [-0.479717, 41.83994], [-0.479923, 41.83983], [-0.480043, 41.83973], [-0.480079, 41.839638], [-0.480029, 41.839556], [-0.479893, 41.839483], [-0.479673, 41.839418], [-0.479367, 41.839362], [-0.478976, 41.839316], [-0.478624, 41.839268], [-0.47831, 41.83922], [-0.478036, 41.83917], [-0.4778, 41.839119], [-0.477602, 41.839067], [-0.477444, 41.839015], [-0.477324, 41.838961], [-0.477243, 41.838906], [-0.477165, 41.838839], [-0.47709, 41.838759], [-0.477017, 41.838667], [-0.476947, 41.838562], [-0.47688, 41.838445], [-0.476815, 41.838315], [-0.476753, 41.838173], [-0.476694, 41.838019], [-0.476632, 41.837876], [-0.476568, 41.837747], [-0.476501, 41.83763], [-0.476431, 41.837525], [-0.476358, 41.837433], [-0.476282, 41.837353], [-0.476204, 41.837286], [-0.476123, 41.837231], [-0.476075, 41.837162], [-0.476059, 41.837078], [-0.476075, 41.83698], [-0.476124, 41.836868], [-0.476205, 41.836741], [-0.476319, 41.8366], [-0.476465, 41.836445], [-0.476643, 41.836275], [-0.476832, 41.836127], [-0.477031, 41.836002], [-0.47724, 41.835898], [-0.47746, 41.835816], [-0.47769, 41.835757], [-0.47793, 41.83572], [-0.47818, 41.835704], [-0.478441, 41.835711], [-0.478713, 41.835706], [-0.478996, 41.835688], [-0.479289, 41.835658], [-0.479593, 41.835617], [-0.479909, 41.835563], [-0.480235, 41.835497], [-0.480572, 41.835419], [-0.48092, 41.835329], [-0.481227, 41.835242], [-0.481493, 41.835158], [-0.481719, 41.835077], [-0.481903, 41.834999], [-0.482047, 41.834924], [-0.48215, 41.834852], [-0.482212, 41.834784], [-0.482233, 41.834718], [-0.482221, 41.834665], [-0.482177, 41.834623], [-0.482099, 41.834593], [-0.481989, 41.834576], [-0.481846, 41.83457], [-0.48167, 41.834576], [-0.481462, 41.834595], [-0.48122, 41.834625], [-0.480997, 41.834643], [-0.480792, 41.834648], [-0.480605, 41.834642], [-0.480436, 41.834623], [-0.480286, 41.834592], [-0.480153, 41.834549], [-0.480039, 41.834493], [-0.479943, 41.834425], [-0.47984, 41.834367], [-0.479731, 41.834319], [-0.479616, 41.834281], [-0.479494, 41.834252], [-0.479366, 41.834233], [-0.479231, 41.834224], [-0.47909, 41.834225], [-0.478943, 41.834236], [-0.478808, 41.834227], [-0.478686, 41.834198], [-0.478577, 41.83415], [-0.478481, 41.834082], [-0.478398, 41.833995], [-0.478328, 41.833887], [-0.47827, 41.833761], [-0.478225, 41.833614], [-0.478198, 41.833476], [-0.478189, 41.833345], [-0.478197, 41.833223], [-0.478222, 41.833108], [-0.478266, 41.833001], [-0.478326, 41.832902], [-0.478405, 41.832811], [-0.478501, 41.832728], [-0.478574, 41.832648], [-0.478624, 41.832571], [-0.478651, 41.832497], [-0.478655, 41.832426], [-0.478636, 41.832358], [-0.478594, 41.832293], [-0.478529, 41.832231], [-0.47844, 41.832172], [-0.478338, 41.832116], [-0.47822, 41.832064], [-0.478087, 41.832015], [-0.47794, 41.83197], [-0.477778, 41.831928], [-0.477601, 41.831889], [-0.477409, 41.831854], [-0.477202, 41.831822], [-0.477017, 41.831806], [-0.476853, 41.831806], [-0.47671, 41.831822], [-0.476589, 41.831855], [-0.47649, 41.831903], [-0.476412, 41.831967], [-0.476355, 41.832047], [-0.47632, 41.832144], [-0.476282, 41.83223], [-0.476242, 41.832308], [-0.476199, 41.832376], [-0.476154, 41.832434], [-0.476106, 41.832483], [-0.476056, 41.832522], [-0.476004, 41.832552], [-0.475949, 41.832572], [-0.475881, 41.832601], [-0.4758, 41.832639], [-0.475706, 41.832686], [-0.475598, 41.832741], [-0.475478, 41.832804], [-0.475344, 41.832877], [-0.475198, 41.832958], [-0.475038, 41.833048], [-0.474907, 41.833142], [-0.474805, 41.833239], [-0.474733, 41.833339], [-0.474689, 41.833444], [-0.474675, 41.833552], [-0.474689, 41.833664], [-0.474732, 41.833779], [-0.474805, 41.833898], [-0.474836, 41.834013], [-0.474826, 41.834122], [-0.474774, 41.834227], [-0.474681, 41.834327], [-0.474546, 41.834422], [-0.47437, 41.834512], [-0.474153, 41.834598], [-0.473894, 41.834678], [-0.473638, 41.834757], [-0.473383, 41.834834], [-0.473131, 41.834908], [-0.47288, 41.834981], [-0.472632, 41.835051], [-0.472386, 41.83512], [-0.472142, 41.835186], [-0.4719, 41.835251], [-0.471677, 41.835302], [-0.471475, 41.83534], [-0.471292, 41.835366], [-0.471128, 41.835378], [-0.470984, 41.835377], [-0.47086, 41.835364], [-0.470756, 41.835337], [-0.470671, 41.835297], [-0.470577, 41.835266], [-0.470475, 41.835244], [-0.470363, 41.835231], [-0.470242, 41.835226], [-0.470112, 41.835231], [-0.469973, 41.835244], [-0.469825, 41.835266], [-0.469668, 41.835298], [-0.46949, 41.835338], [-0.469289, 41.835389], [-0.469066, 41.835448], [-0.468822, 41.835518], [-0.468556, 41.835597], [-0.468268, 41.835686], [-0.467957, 41.835784], [-0.467626, 41.835892], [-0.467323, 41.835977], [-0.46705, 41.836038], [-0.466805, 41.836077], [-0.466591, 41.836092], [-0.466405, 41.836084], [-0.466249, 41.836053], [-0.466122, 41.835999], [-0.466024, 41.835921], [-0.46592, 41.835852], [-0.465808, 41.83579], [-0.46569, 41.835737], [-0.465566, 41.835692], [-0.465434, 41.835654], [-0.465296, 41.835625], [-0.465151, 41.835604], [-0.465, 41.83559], [-0.464879, 41.835569], [-0.464788, 41.835541], [-0.464727, 41.835506], [-0.464697, 41.835462], [-0.464697, 41.835412], [-0.464728, 41.835354], [-0.464789, 41.835288], [-0.46488, 41.835216], [-0.464951, 41.835129], [-0.465002, 41.835029], [-0.465033, 41.834915], [-0.465043, 41.834787], [-0.465033, 41.834645], [-0.465003, 41.83449], [-0.464953, 41.834321], [-0.464883, 41.834139], [-0.464842, 41.833973], [-0.464831, 41.833824], [-0.464849, 41.833693], [-0.464898, 41.833578], [-0.464976, 41.83348], [-0.465084, 41.8334], [-0.465221, 41.833336], [-0.465388, 41.833289], [-0.465527, 41.833229], [-0.465636, 41.833157], [-0.465716, 41.833072], [-0.465767, 41.832974], [-0.46579, 41.832863], [-0.465783, 41.83274], [-0.465747, 41.832603], [-0.465683, 41.832454], [-0.465619, 41.832319], [-0.465555, 41.832196], [-0.465493, 41.832087], [-0.465431, 41.831991], [-0.465369, 41.831909], [-0.465309, 41.83184], [-0.465249, 41.831784], [-0.46519, 41.831741], [-0.465132, 41.831678], [-0.465075, 41.831595], [-0.46502, 41.831492], [-0.464966, 41.831369], [-0.464914, 41.831225], [-0.464863, 41.831061], [-0.464814, 41.830877], [-0.464765, 41.830673], [-0.464773, 41.830488], [-0.464837, 41.830323], [-0.464957, 41.830177], [-0.465134, 41.830052], [-0.465366, 41.829946], [-0.465655, 41.829859], [-0.465999, 41.829793], [-0.4664, 41.829746], [-0.466782, 41.8297], [-0.467146, 41.829654], [-0.467491, 41.829609], [-0.467818, 41.829565], [-0.468126, 41.829522], [-0.468416, 41.829479], [-0.468687, 41.829438], [-0.468939, 41.829396], [-0.469208, 41.829359], [-0.469493, 41.829326], [-0.469793, 41.829296], [-0.47011, 41.82927], [-0.470443, 41.829248], [-0.470792, 41.829229], [-0.471157, 41.829215], [-0.471538, 41.829204], [-0.471874, 41.829191], [-0.472165, 41.829175], [-0.472411, 41.829156], [-0.472612, 41.829135], [-0.472768, 41.829111], [-0.472878, 41.829085], [-0.472944, 41.829056], [-0.472964, 41.829025], [-0.472982, 41.828987], [-0.472997, 41.828943], [-0.47301, 41.828892], [-0.473019, 41.828835], [-0.473026, 41.828772], [-0.47303, 41.828702], [-0.473032, 41.828626], [-0.473031, 41.828543], [-0.473026, 41.828463], [-0.473017, 41.828386], [-0.473005, 41.828312], [-0.47299, 41.82824], [-0.472971, 41.828172], [-0.472948, 41.828106], [-0.472922, 41.828043], [-0.472892, 41.827983], [-0.472884, 41.827923], [-0.472898, 41.827864], [-0.472934, 41.827806], [-0.472993, 41.827749], [-0.473073, 41.827693], [-0.473175, 41.827637], [-0.4733, 41.827582], [-0.473446, 41.827527], [-0.473614, 41.827483], [-0.473802, 41.827449], [-0.474012, 41.827424], [-0.474243, 41.82741], [-0.474496, 41.827405], [-0.474769, 41.82741], [-0.475064, 41.827426], [-0.47538, 41.827451], [-0.475664, 41.827481], [-0.475917, 41.827515], [-0.476138, 41.827554], [-0.476327, 41.827597], [-0.476484, 41.827645], [-0.47661, 41.827698], [-0.476705, 41.827755], [-0.476767, 41.827817], [-0.476814, 41.827877], [-0.476845, 41.827936], [-0.476861, 41.827993], [-0.476861, 41.828049], [-0.476845, 41.828104], [-0.476814, 41.828157], [-0.476767, 41.828209], [-0.476704, 41.828259], [-0.476655, 41.828317], [-0.476621, 41.828381], [-0.476601, 41.828453], [-0.476595, 41.828531], [-0.476603, 41.828617], [-0.476626, 41.82871], [-0.476663, 41.828809], [-0.476713, 41.828916], [-0.476754, 41.829014], [-0.476784, 41.829104], [-0.476804, 41.829184], [-0.476813, 41.829256], [-0.476811, 41.82932], [-0.4768, 41.829375], [-0.476778, 41.829421], [-0.476745, 41.829458], [-0.476717, 41.829506], [-0.476693, 41.829565], [-0.476673, 41.829634], [-0.476658, 41.829714], [-0.476647, 41.829804], [-0.47664, 41.829904], [-0.476637, 41.830015], [-0.476639, 41.830137], [-0.476672, 41.830252], [-0.476738, 41.830361], [-0.476836, 41.830463], [-0.476966, 41.830559], [-0.477128, 41.830649], [-0.477323, 41.830732], [-0.47755, 41.830809], [-0.477808, 41.830879], [-0.478062, 41.830934], [-0.478311, 41.830973], [-0.478554, 41.830998], [-0.478793, 41.831007], [-0.479026, 41.831001], [-0.479254, 41.830979], [-0.479478, 41.830942], [-0.479696, 41.83089], [-0.479929, 41.830842], [-0.480176, 41.830799], [-0.480438, 41.830761], [-0.480714, 41.830727], [-0.481005, 41.830698], [-0.481311, 41.830673], [-0.481631, 41.830652], [-0.481966, 41.830637], [-0.48228, 41.830629], [-0.482574, 41.83063], [-0.482848, 41.830639], [-0.483101, 41.830656], [-0.483333, 41.830682], [-0.483545, 41.830716], [-0.483736, 41.830758], [-0.483907, 41.830808], [-0.484062, 41.830833], [-0.4842, 41.830833], [-0.484321, 41.830808], [-0.484426, 41.830758], [-0.484515, 41.830683], [-0.484586, 41.830583], [-0.484642, 41.830458], [-0.484681, 41.830307], [-0.484732, 41.830171], [-0.484795, 41.830047], [-0.48487, 41.829937], [-0.484957, 41.82984], [-0.485056, 41.829756], [-0.485168, 41.829686], [-0.485291, 41.82963], [-0.485426, 41.829586], [-0.485582, 41.82956], [-0.485759, 41.829553], [-0.485958, 41.829563], [-0.486177, 41.829591], [-0.486417, 41.829637], [-0.486678, 41.829701], [-0.486959, 41.829783], [-0.487262, 41.829883], [-0.487541, 41.829972], [-0.487797, 41.830051], [-0.488029, 41.83012], [-0.488237, 41.830178], [-0.488421, 41.830227], [-0.488582, 41.830264], [-0.488719, 41.830292], [-0.488832, 41.830309], [-0.488948, 41.830331], [-0.489066, 41.830356], [-0.489186, 41.830385], [-0.489309, 41.830419], [-0.489434, 41.830456], [-0.489561, 41.830498], [-0.48969, 41.830543], [-0.489822, 41.830593], [-0.489921, 41.830641], [-0.489986, 41.830687], [-0.490017, 41.830733], [-0.490015, 41.830777], [-0.489979, 41.83082], [-0.48991, 41.830861], [-0.489807, 41.830901], [-0.489671, 41.83094], [-0.489552, 41.830982], [-0.48945, 41.831028], [-0.489364, 41.831078], [-0.489296, 41.831131], [-0.489244, 41.831189], [-0.489209, 41.83125], [-0.489191, 41.831314], [-0.48919, 41.831383], [-0.489205, 41.831446], [-0.489236, 41.831503], [-0.489283, 41.831555], [-0.489346, 41.831602], [-0.489425, 41.831644], [-0.489521, 41.83168], [-0.489633, 41.831711], [-0.48976, 41.831737], [-0.489874, 41.831766], [-0.489974, 41.831799], [-0.49006, 41.831837], [-0.490132, 41.831878], [-0.49019, 41.831923], [-0.490234, 41.831972], [-0.490264, 41.832025], [-0.490281, 41.832081], [-0.490286, 41.832142], [-0.490279, 41.832206], [-0.49026, 41.832274], [-0.490231, 41.832345], [-0.490189, 41.83242], [-0.490136, 41.832499], [-0.490072, 41.832581], [-0.489996, 41.832667], [-0.489944, 41.832745], [-0.489915, 41.832816], [-0.489911, 41.83288], [-0.48993, 41.832937], [-0.489974, 41.832986], [-0.490041, 41.833027], [-0.490132, 41.833062], [-0.490247, 41.833089], [-0.490369, 41.833094], [-0.490498, 41.833078], [-0.490633, 41.833041], [-0.490776, 41.832982], [-0.490925, 41.832902], [-0.491081, 41.8328], [-0.491244, 41.832677], [-0.491414, 41.832532], [-0.491548, 41.832395], [-0.491647, 41.832265], [-0.491711, 41.832143], [-0.49174, 41.832028], [-0.491734, 41.83192], [-0.491692, 41.83182], [-0.491615, 41.831727], [-0.491503, 41.831641], [-0.491445, 41.831573], [-0.491441, 41.831524], [-0.491492, 41.831492], [-0.491597, 41.831479], [-0.491756, 41.831483], [-0.491969, 41.831506], [-0.492236, 41.831547], [-0.492558, 41.831605], [-0.492844, 41.831672], [-0.493093, 41.831745], [-0.493307, 41.831826], [-0.493485, 41.831915], [-0.493626, 41.832011], [-0.493732, 41.832114], [-0.493801, 41.832225], [-0.493835, 41.832343], [-0.493893, 41.832447], [-0.493977, 41.832537], [-0.494086, 41.832613], [-0.49422, 41.832674], [-0.494379, 41.832721], [-0.494563, 41.832754], [-0.494772, 41.832773], [-0.495007, 41.832778], [-0.495215, 41.832794], [-0.495396, 41.832821], [-0.495551, 41.832859], [-0.49568, 41.832909], [-0.495782, 41.83297], [-0.495858, 41.833042], [-0.495908, 41.833126], [-0.495931, 41.833221], [-0.496006, 41.833307], [-0.496135, 41.833384], [-0.496316, 41.833451], [-0.49655, 41.833509], [-0.496837, 41.833558], [-0.497176, 41.833598], [-0.497569, 41.833629], [-0.498014, 41.83365], [-0.498424, 41.833685], [-0.498799, 41.833733], [-0.499139, 41.833795], [-0.499444, 41.83387], [-0.499714, 41.833958], [-0.499949, 41.83406], [-0.500149, 41.834175], [-0.500315, 41.834304], [-0.500517, 41.834436], [-0.500756, 41.834572], [-0.501032, 41.834711], [-0.501346, 41.834853], [-0.501697, 41.834999], [-0.502084, 41.835148], [-0.502509, 41.835301], [-0.502971, 41.835457], [-0.503421, 41.835583], [-0.503858, 41.835681], [-0.504283, 41.83575], [-0.504695, 41.835789], [-0.505095, 41.835799], [-0.505483, 41.83578], [-0.505859, 41.835732], [-0.506222, 41.835655], [-0.506558, 41.835601], [-0.506868, 41.835569], [-0.50715, 41.835561], [-0.507406, 41.835575], [-0.507635, 41.835613], [-0.507837, 41.835673], [-0.508012, 41.835756], [-0.50816, 41.835862], [-0.508309, 41.835937], [-0.50846, 41.835981], [-0.508611, 41.835994], [-0.508764, 41.835975], [-0.508918, 41.835926], [-0.509072, 41.835845], [-0.509228, 41.835733], [-0.509385, 41.83559], [-0.509535, 41.835467], [-0.509678, 41.835366], [-0.509814, 41.835285], [-0.509944, 41.835225], [-0.510066, 41.835186], [-0.510181, 41.835168], [-0.51029, 41.83517], [-0.510391, 41.835194], [-0.510488, 41.835205], [-0.51058, 41.835205], [-0.510668, 41.835194], [-0.510752, 41.83517], [-0.510831, 41.835135], [-0.510906, 41.835088], [-0.510976, 41.83503], [-0.511042, 41.834959], [-0.511088, 41.834886], [-0.511116, 41.83481], [-0.511124, 41.834732], [-0.511113, 41.83465], [-0.511083, 41.834565], [-0.511034, 41.834478], [-0.510965, 41.834388], [-0.510878, 41.834295], [-0.510802, 41.834205], [-0.510739, 41.834118], [-0.510687, 41.834033], [-0.510647, 41.833952], [-0.510619, 41.833874], [-0.510602, 41.833799], [-0.510598, 41.833727], [-0.510605, 41.833658], [-0.510598, 41.833598], [-0.510576, 41.833545], [-0.510539, 41.833501], [-0.510488, 41.833465], [-0.510421, 41.833437], [-0.51034, 41.833418], [-0.510244, 41.833407], [-0.510133, 41.833404], [-0.510038, 41.833417], [-0.509959, 41.833448], [-0.509895, 41.833494], [-0.509848, 41.833558], [-0.509816, 41.833638], [-0.509801, 41.833735], [-0.509801, 41.833848], [-0.509817, 41.833978], [-0.509816, 41.834092], [-0.5098, 41.834192], [-0.509766, 41.834275], [-0.509716, 41.834344], [-0.50965, 41.834397], [-0.509567, 41.834435], [-0.509468, 41.834458], [-0.509353, 41.834465], [-0.509235, 41.834465], [-0.509115, 41.834459], [-0.508994, 41.834445], [-0.50887, 41.834423], [-0.508744, 41.834395], [-0.508616, 41.83436], [-0.508496, 41.834321], [-0.508382, 41.834279], [-0.508259, 41.834302], [-0.508126, 41.834391], [-0.507965, 41.834465], [-0.507774, 41.834522], [-0.507588, 41.834546], [-0.507406, 41.834535], [-0.507309, 41.834496], [-0.507298, 41.83443], [-0.50732, 41.834356], [-0.507376, 41.834275], [-0.507445, 41.834211], [-0.507527, 41.834165], [-0.507591, 41.834042], [-0.507637, 41.833841], [-0.507712, 41.833728], [-0.507818, 41.833702], [-0.507935, 41.833662], [-0.508065, 41.833609], [-0.508135, 41.833569], [-0.508147, 41.833544], [-0.508149, 41.833486], [-0.508141, 41.833393], [-0.508103, 41.83331], [-0.508035, 41.833236], [-0.507937, 41.833173], [-0.507809, 41.833119], [-0.507652, 41.833076], [-0.507464, 41.833042], [-0.507294, 41.833021], [-0.507142, 41.833014], [-0.507007, 41.833021], [-0.506891, 41.83304], [-0.506792, 41.833073], [-0.506711, 41.833119], [-0.506647, 41.833179], [-0.506601, 41.833252], [-0.50656, 41.833334], [-0.506522, 41.833426], [-0.506488, 41.833527], [-0.506459, 41.833637], [-0.506433, 41.833757], [-0.506412, 41.833886], [-0.506394, 41.834024], [-0.506381, 41.834172], [-0.506349, 41.834309], [-0.5063, 41.834436], [-0.506232, 41.834553], [-0.506147, 41.834659], [-0.506044, 41.834755], [-0.505922, 41.834841], [-0.505783, 41.834917], [-0.505625, 41.834982], [-0.505493, 41.83501], [-0.505386, 41.835001], [-0.505304, 41.834954], [-0.505247, 41.83487], [-0.505215, 41.834748], [-0.505209, 41.834589], [-0.505228, 41.834393], [-0.505272, 41.83416], [-0.505301, 41.833955], [-0.505316, 41.833779], [-0.505317, 41.833632], [-0.505303, 41.833514], [-0.505275, 41.833425], [-0.505232, 41.833365], [-0.505174, 41.833334], [-0.505103, 41.833332], [-0.505051, 41.833313], [-0.505018, 41.833278], [-0.505006, 41.833225], [-0.505014, 41.833156], [-0.505041, 41.833071], [-0.505088, 41.832968], [-0.505155, 41.832849], [-0.505242, 41.832713], [-0.505306, 41.832588], [-0.505346, 41.832473], [-0.505363, 41.832368], [-0.505356, 41.832274], [-0.505326, 41.83219], [-0.505273, 41.832116], [-0.505196, 41.832053], [-0.505096, 41.832], [-0.505028, 41.831948], [-0.504991, 41.831896], [-0.504986, 41.831844], [-0.505013, 41.831792], [-0.505071, 41.831741], [-0.505162, 41.83169], [-0.505283, 41.831639], [-0.505437, 41.831589], [-0.50559, 41.831552], [-0.505741, 41.831527], [-0.505892, 41.831516], [-0.506041, 41.831517], [-0.50619, 41.831531], [-0.506337, 41.831558], [-0.506484, 41.831598], [-0.506629, 41.831651], [-0.506774, 41.831703], [-0.50692, 41.831753], [-0.507064, 41.831803], [-0.507209, 41.831851], [-0.507353, 41.831898], [-0.507498, 41.831943], [-0.507642, 41.831988], [-0.507786, 41.832031], [-0.507929, 41.832065], [-0.508071, 41.832091], [-0.508212, 41.832107], [-0.508353, 41.832114], [-0.508472, 41.832113], [-0.50857, 41.832106], [-0.508661, 41.832144], [-0.508745, 41.832227], [-0.508875, 41.832286], [-0.509051, 41.83232], [-0.509233, 41.832267], [-0.509419, 41.832127], [-0.509593, 41.832037], [-0.509757, 41.831997], [-0.510001, 41.83196], [-0.510326, 41.831926], [-0.510554, 41.831874], [-0.510686, 41.831805], [-0.510856, 41.831716], [-0.511064, 41.831606], [-0.511297, 41.831519], [-0.511556, 41.831454], [-0.511964, 41.831468], [-0.512519, 41.83156], [-0.513004, 41.831641], [-0.513418, 41.831709], [-0.513733, 41.831722], [-0.513948, 41.831678], [-0.514142, 41.831639], [-0.514314, 41.831604], [-0.514494, 41.831584], [-0.514684, 41.831579], [-0.514795, 41.831643], [-0.514828, 41.831775], [-0.514843, 41.831874], [-0.514839, 41.831941], [-0.514882, 41.832001], [-0.514971, 41.832055], [-0.515095, 41.832168], [-0.515254, 41.832339], [-0.515308, 41.832455], [-0.515259, 41.832517], [-0.515212, 41.832605], [-0.515169, 41.83272], [-0.515125, 41.832863], [-0.515081, 41.833033], [-0.515225, 41.833109], [-0.515557, 41.833093], [-0.515843, 41.833078], [-0.516084, 41.833066], [-0.516272, 41.833053], [-0.516406, 41.833039], [-0.516726, 41.832981], [-0.517234, 41.832881], [-0.517493, 41.83283], [-0.517503, 41.832829], [-0.5176, 41.832842], [-0.517784, 41.83287], [-0.517916, 41.832757], [-0.517998, 41.832504], [-0.518059, 41.832246], [-0.518097, 41.831982], [-0.518236, 41.831845], [-0.518476, 41.831835], [-0.518616, 41.831845], [-0.518656, 41.831874], [-0.518771, 41.831923], [-0.51896, 41.831992], [-0.519062, 41.832069], [-0.519077, 41.832153], [-0.519217, 41.832339], [-0.519483, 41.832625], [-0.519633, 41.832795], [-0.519668, 41.832849], [-0.51981, 41.833006], [-0.520058, 41.833266], [-0.520293, 41.833451], [-0.520516, 41.833561], [-0.520659, 41.833655], [-0.520724, 41.833734], [-0.52099, 41.833802], [-0.521457, 41.833857], [-0.52178, 41.833962], [-0.521959, 41.834114], [-0.52211, 41.834323], [-0.522232, 41.834586], [-0.52239, 41.834732], [-0.522586, 41.834759], [-0.522889, 41.834713], [-0.5233, 41.834593], [-0.523547, 41.834438], [-0.523628, 41.834248], [-0.523763, 41.834143], [-0.52395, 41.834124], [-0.524117, 41.834211], [-0.524265, 41.834405], [-0.524251, 41.83454], [-0.524073, 41.834616], [-0.523955, 41.834777], [-0.523896, 41.835021], [-0.523762, 41.835169], [-0.523555, 41.835219], [-0.523399, 41.835307], [-0.523293, 41.835433], [-0.523251, 41.83559], [-0.523271, 41.835779], [-0.523311, 41.835884], [-0.523372, 41.835904], [-0.523382, 41.835856], [-0.523343, 41.835737], [-0.523481, 41.835671], [-0.523796, 41.835657], [-0.523997, 41.835607], [-0.524084, 41.835521], [-0.52421, 41.835403], [-0.524374, 41.835252], [-0.524463, 41.835066], [-0.524475, 41.834846], [-0.524692, 41.834632], [-0.525114, 41.834425], [-0.525306, 41.83421], [-0.525267, 41.833985], [-0.525439, 41.833804], [-0.525822, 41.833669], [-0.526355, 41.833555], [-0.527038, 41.833464], [-0.527532, 41.83334], [-0.527835, 41.833184], [-0.528362, 41.833071], [-0.529112, 41.833002], [-0.529535, 41.832876], [-0.529631, 41.832694], [-0.529718, 41.832575], [-0.529798, 41.832519], [-0.529992, 41.832394], [-0.530301, 41.832199], [-0.530531, 41.832093], [-0.530681, 41.832078], [-0.530931, 41.832089], [-0.531281, 41.832129], [-0.531531, 41.832179], [-0.531681, 41.832239], [-0.531826, 41.832271], [-0.531967, 41.832276], [-0.532133, 41.832244], [-0.532325, 41.832176], [-0.532618, 41.832255], [-0.533013, 41.83248], [-0.533128, 41.832668], [-0.532964, 41.832819], [-0.533004, 41.833015], [-0.533249, 41.833256], [-0.53365, 41.833333], [-0.534207, 41.833246], [-0.534691, 41.83329], [-0.535103, 41.833466], [-0.535527, 41.833564], [-0.535963, 41.833585], [-0.536301, 41.833592], [-0.536541, 41.833586], [-0.536772, 41.833561], [-0.536993, 41.833519], [-0.537296, 41.833577], [-0.53768, 41.833737], [-0.538165, 41.833824], [-0.538752, 41.833839], [-0.539197, 41.833839], [-0.5395, 41.833826], [-0.539676, 41.833851], [-0.539725, 41.833912], [-0.539557, 41.834044], [-0.539173, 41.834247], [-0.538899, 41.834391], [-0.538736, 41.834475], [-0.538732, 41.834589], [-0.538889, 41.834734], [-0.539009, 41.834748], [-0.539091, 41.834632], [-0.539292, 41.834557], [-0.539611, 41.834524], [-0.539895, 41.834499], [-0.540142, 41.834482], [-0.540404, 41.834548], [-0.54068, 41.834697], [-0.54107, 41.834787], [-0.541576, 41.834818], [-0.541841, 41.834832], [-0.541866, 41.83483], [-0.541932, 41.834813], [-0.542039, 41.834783], [-0.542388, 41.834742], [-0.542979, 41.834689], [-0.543476, 41.834777], [-0.543878, 41.835006], [-0.544285, 41.835259], [-0.544696, 41.835535], [-0.54503, 41.835837], [-0.545287, 41.836167], [-0.5454, 41.836493], [-0.545368, 41.836815], [-0.545342, 41.837024], [-0.545321, 41.83712], [-0.545302, 41.837259], [-0.545283, 41.837439], [-0.54546, 41.837556], [-0.545832, 41.837611], [-0.546259, 41.837589], [-0.546743, 41.837491], [-0.547037, 41.83746], [-0.547144, 41.837495], [-0.547391, 41.837549], [-0.547778, 41.837621], [-0.548086, 41.837809], [-0.548314, 41.838113], [-0.548447, 41.838517], [-0.548484, 41.83902], [-0.548685, 41.83935], [-0.549051, 41.839509], [-0.54933, 41.839498], [-0.549524, 41.839318], [-0.549846, 41.839227], [-0.550296, 41.839227], [-0.550727, 41.839402], [-0.551138, 41.839752], [-0.551316, 41.839991], [-0.551262, 41.840118], [-0.551265, 41.840238], [-0.551323, 41.840352], [-0.551523, 41.840427], [-0.551865, 41.840463], [-0.552154, 41.840519], [-0.55239, 41.840595], [-0.552598, 41.840567], [-0.552776, 41.840437], [-0.552901, 41.840295], [-0.552971, 41.840142], [-0.55304, 41.840023], [-0.553107, 41.839938], [-0.553178, 41.839897], [-0.553253, 41.8399], [-0.553295, 41.839926], [-0.553303, 41.839976], [-0.553426, 41.839999], [-0.553664, 41.839996], [-0.553878, 41.839985], [-0.554068, 41.839965], [-0.554235, 41.839916], [-0.554378, 41.83984], [-0.554509, 41.839801], [-0.554628, 41.839799], [-0.554697, 41.839834], [-0.554717, 41.839904], [-0.554591, 41.840035], [-0.554319, 41.840226], [-0.554056, 41.840388], [-0.553804, 41.840521], [-0.553597, 41.840699], [-0.553434, 41.840923], [-0.553253, 41.841121], [-0.553052, 41.841294], [-0.553033, 41.841508], [-0.553197, 41.841764], [-0.553416, 41.841929], [-0.553689, 41.842], [-0.554061, 41.842045], [-0.554534, 41.842062], [-0.554886, 41.842161], [-0.555119, 41.842344], [-0.55524, 41.842568], [-0.555249, 41.842836], [-0.555233, 41.84302], [-0.55519, 41.843123], [-0.555197, 41.843183], [-0.555252, 41.843203], [-0.555289, 41.843252], [-0.555309, 41.84333], [-0.555288, 41.843429], [-0.555224, 41.843549], [-0.555119, 41.84369], [-0.554972, 41.843852], [-0.554821, 41.844014], [-0.554666, 41.844178], [-0.554507, 41.844343], [-0.554344, 41.844509], [-0.554178, 41.844676], [-0.554007, 41.844844], [-0.55388, 41.844968], [-0.553795, 41.845048], [-0.553767, 41.845107], [-0.553794, 41.845144], [-0.553985, 41.845213], [-0.55434, 41.845313], [-0.554604, 41.845418], [-0.554776, 41.845526], [-0.554809, 41.845759], [-0.554702, 41.846116], [-0.554641, 41.846389], [-0.554624, 41.846579], [-0.554663, 41.846708], [-0.554758, 41.846778], [-0.554856, 41.846853], [-0.554958, 41.846935], [-0.555027, 41.846992], [-0.555063, 41.847026], [-0.554957, 41.847202], [-0.554708, 41.847523], [-0.554378, 41.847872], [-0.553968, 41.848249], [-0.553498, 41.848506], [-0.55297, 41.848643], [-0.552511, 41.848611], [-0.552123, 41.84841], [-0.551795, 41.848335], [-0.551528, 41.848387], [-0.551368, 41.848438], [-0.551316, 41.84849], [-0.550972, 41.848635], [-0.550339, 41.848875], [-0.549889, 41.849027], [-0.549624, 41.849089], [-0.54951, 41.849228], [-0.549547, 41.849443], [-0.549734, 41.84955], [-0.550072, 41.849549], [-0.550399, 41.849531], [-0.550716, 41.849498], [-0.550942, 41.849566], [-0.551079, 41.849736], [-0.551319, 41.849923], [-0.551662, 41.850129], [-0.552035, 41.850245], [-0.552439, 41.850271], [-0.55267, 41.850316], [-0.552727, 41.850379], [-0.552866, 41.85052], [-0.553088, 41.850738], [-0.553207, 41.850933], [-0.553221, 41.851104], [-0.553255, 41.851343], [-0.553308, 41.851648], [-0.553458, 41.851937], [-0.553705, 41.852211], [-0.553968, 41.85231], [-0.554247, 41.852234], [-0.554498, 41.852046], [-0.554722, 41.851746], [-0.554802, 41.851496], [-0.554736, 41.851295], [-0.554574, 41.851117], [-0.554317, 41.85096], [-0.554184, 41.850859], [-0.554176, 41.850813], [-0.554239, 41.850599], [-0.554372, 41.850217], [-0.554305, 41.849924], [-0.55404, 41.849722], [-0.553687, 41.849633], [-0.553246, 41.849656], [-0.55296, 41.849606], [-0.552831, 41.849481], [-0.552957, 41.849364], [-0.553337, 41.849255], [-0.553799, 41.849085], [-0.554342, 41.848855], [-0.554702, 41.848632], [-0.55488, 41.848418], [-0.555084, 41.848137], [-0.555316, 41.84779], [-0.555506, 41.847587], [-0.555654, 41.847527], [-0.555747, 41.847507], [-0.555785, 41.847525], [-0.555907, 41.847576], [-0.556113, 41.847659], [-0.556344, 41.847746], [-0.5566, 41.847835], [-0.556839, 41.847925], [-0.557061, 41.848015], [-0.557229, 41.848087], [-0.557344, 41.848143], [-0.557448, 41.848084], [-0.55754, 41.847912], [-0.557648, 41.847739], [-0.557771, 41.847565], [-0.55782, 41.847404], [-0.557794, 41.847257], [-0.557658, 41.847179], [-0.557411, 41.847171], [-0.557371, 41.847031], [-0.557539, 41.84676], [-0.55773, 41.846578], [-0.557944, 41.846487], [-0.558227, 41.84652], [-0.558577, 41.846679], [-0.558865, 41.846792], [-0.559092, 41.84686], [-0.559338, 41.84695], [-0.559602, 41.84706], [-0.559809, 41.847188], [-0.559957, 41.847333], [-0.560227, 41.847518], [-0.560619, 41.847741], [-0.560785, 41.847989], [-0.560725, 41.84826], [-0.560295, 41.84857], [-0.559496, 41.84892], [-0.558975, 41.849105], [-0.558731, 41.849125], [-0.558628, 41.849165], [-0.558664, 41.849226], [-0.558712, 41.849312], [-0.558771, 41.849421], [-0.558838, 41.849546], [-0.558911, 41.849687], [-0.558991, 41.849844], [-0.559078, 41.850016], [-0.559171, 41.850204], [-0.559272, 41.850408], [-0.559329, 41.850594], [-0.559342, 41.850763], [-0.559338, 41.850867], [-0.559317, 41.850904], [-0.559357, 41.850936], [-0.559459, 41.850961], [-0.559603, 41.85096], [-0.559789, 41.850935], [-0.559946, 41.850843], [-0.560071, 41.850687], [-0.560168, 41.850579], [-0.560234, 41.85052], [-0.560369, 41.850486], [-0.560574, 41.850475], [-0.56087, 41.850395], [-0.561257, 41.850245], [-0.561468, 41.850246], [-0.561502, 41.850397], [-0.56146, 41.850531], [-0.561343, 41.850647], [-0.561205, 41.850733], [-0.561046, 41.85079], [-0.56083, 41.850865], [-0.560555, 41.850957], [-0.560378, 41.851019], [-0.560299, 41.85105], [-0.560209, 41.851126], [-0.560108, 41.851245], [-0.55986, 41.851386], [-0.559468, 41.851549], [-0.559194, 41.851646], [-0.559039, 41.85168], [-0.559004, 41.851721], [-0.559089, 41.85177], [-0.559229, 41.851824], [-0.559423, 41.851883], [-0.559548, 41.851939], [-0.559606, 41.851989], [-0.559696, 41.852068], [-0.55982, 41.852177], [-0.559896, 41.852252], [-0.559927, 41.852295], [-0.560041, 41.852355], [-0.560238, 41.852432], [-0.560539, 41.852449], [-0.560945, 41.852406], [-0.561173, 41.852287], [-0.561223, 41.852092], [-0.561232, 41.851939], [-0.5612, 41.851829], [-0.561187, 41.851774], [-0.561192, 41.851773], [-0.561234, 41.851771], [-0.561311, 41.851766], [-0.561358, 41.851772], [-0.561374, 41.851788], [-0.561537, 41.851849], [-0.561846, 41.851954], [-0.562176, 41.852028], [-0.562528, 41.852071], [-0.562814, 41.852087], [-0.563034, 41.852075], [-0.563199, 41.852032], [-0.563308, 41.851957], [-0.563267, 41.851852], [-0.563075, 41.851718], [-0.562927, 41.851616], [-0.562823, 41.851546], [-0.562677, 41.85143], [-0.562487, 41.851266], [-0.562366, 41.85114], [-0.562313, 41.85105], [-0.56227, 41.850977], [-0.562236, 41.850921], [-0.562288, 41.850825], [-0.562425, 41.85069], [-0.562525, 41.850628], [-0.562588, 41.850639], [-0.56271, 41.85066], [-0.562892, 41.850692], [-0.563108, 41.850721], [-0.563357, 41.850746], [-0.563513, 41.850761], [-0.563575, 41.850766], [-0.5636, 41.850717], [-0.563589, 41.850615], [-0.563583, 41.850555], [-0.563581, 41.850539], [-0.563526, 41.850421], [-0.563419, 41.850203], [-0.563443, 41.850074], [-0.563597, 41.850035], [-0.563795, 41.850051], [-0.564037, 41.850123], [-0.564354, 41.850276], [-0.564747, 41.85051], [-0.564984, 41.850661], [-0.565064, 41.85073], [-0.56519, 41.850837], [-0.565361, 41.850983], [-0.565508, 41.851124], [-0.565632, 41.85126], [-0.565769, 41.851343], [-0.565919, 41.851373], [-0.566026, 41.851325], [-0.566088, 41.851198], [-0.566131, 41.851056], [-0.566155, 41.850899], [-0.566217, 41.850839], [-0.566317, 41.850877], [-0.566445, 41.85094], [-0.566602, 41.851027], [-0.566769, 41.851131], [-0.566946, 41.851254], [-0.567098, 41.851364], [-0.567224, 41.851461], [-0.567259, 41.851568], [-0.567202, 41.851684], [-0.567184, 41.851844], [-0.567205, 41.852045], [-0.567306, 41.852227], [-0.567488, 41.85239], [-0.567649, 41.85251], [-0.567788, 41.852589], [-0.567945, 41.852564], [-0.56812, 41.852436], [-0.568228, 41.852368], [-0.568267, 41.852362], [-0.568328, 41.852353], [-0.56841, 41.852341], [-0.568495, 41.852374], [-0.568582, 41.852453], [-0.568666, 41.852573], [-0.568745, 41.852736], [-0.568786, 41.852822], [-0.568789, 41.852834], [-0.568817, 41.852955], [-0.568872, 41.853185], [-0.56892, 41.853422], [-0.568962, 41.853665], [-0.56909, 41.853933], [-0.569302, 41.854224], [-0.569498, 41.854339], [-0.569677, 41.854278], [-0.569829, 41.854226], [-0.569955, 41.854183], [-0.570232, 41.854277], [-0.570661, 41.854507], [-0.570882, 41.854639], [-0.570894, 41.854674], [-0.570901, 41.854692], [-0.570903, 41.854691], [-0.570916, 41.85469], [-0.57094, 41.854687], [-0.571029, 41.854767], [-0.571183, 41.854929], [-0.571349, 41.855132], [-0.571529, 41.855376], [-0.571721, 41.855688], [-0.571926, 41.85607], [-0.572031, 41.856354], [-0.572039, 41.856541], [-0.571967, 41.856845], [-0.571815, 41.857264], [-0.571838, 41.857543], [-0.572038, 41.857681], [-0.572173, 41.857774], [-0.572244, 41.857824], [-0.572352, 41.857861], [-0.572498, 41.857886], [-0.572633, 41.857909], [-0.572758, 41.85793], [-0.57301, 41.857912], [-0.573387, 41.857853], [-0.573736, 41.857881], [-0.574057, 41.857998], [-0.574308, 41.858187], [-0.574492, 41.858449], [-0.574699, 41.858774], [-0.574929, 41.859163], [-0.575154, 41.859556], [-0.575374, 41.859955], [-0.575451, 41.86024], [-0.575385, 41.860411], [-0.575356, 41.860503], [-0.575364, 41.860516], [-0.575444, 41.860583], [-0.575597, 41.860703], [-0.575771, 41.860792], [-0.575966, 41.860849], [-0.576182, 41.860875], [-0.57642, 41.860869], [-0.576679, 41.860832], [-0.576959, 41.860763], [-0.577227, 41.860697], [-0.577482, 41.860635], [-0.577725, 41.860576], [-0.577956, 41.86052], [-0.578174, 41.860467], [-0.57838, 41.860417], [-0.578573, 41.86037], [-0.578754, 41.860327], [-0.578943, 41.860282], [-0.579141, 41.860235], [-0.579328, 41.860191], [-0.579504, 41.860151], [-0.579868, 41.860201], [-0.580421, 41.860343], [-0.580704, 41.86043], [-0.580719, 41.860463], [-0.580759, 41.860558], [-0.580823, 41.860716], [-0.580935, 41.860837], [-0.581096, 41.860923], [-0.581225, 41.860906], [-0.581323, 41.860786], [-0.581345, 41.860595], [-0.58129, 41.860334], [-0.581308, 41.860151], [-0.581399, 41.860045], [-0.58157, 41.859953], [-0.58182, 41.859874], [-0.58195, 41.859832], [-0.581959, 41.859829], [-0.58213, 41.859786], [-0.582462, 41.859703], [-0.582708, 41.859719], [-0.582868, 41.859833], [-0.582952, 41.859893], [-0.582959, 41.859898], [-0.582991, 41.859962], [-0.583049, 41.860086], [-0.583075, 41.860261], [-0.583069, 41.860488], [-0.583184, 41.860725], [-0.583419, 41.860974], [-0.58362, 41.861052], [-0.583786, 41.860959], [-0.583827, 41.860828], [-0.583743, 41.860659], [-0.583632, 41.860445], [-0.583496, 41.860186], [-0.583596, 41.860004], [-0.583934, 41.8599], [-0.584198, 41.859793], [-0.584389, 41.859684], [-0.584513, 41.859581], [-0.584569, 41.859486], [-0.584603, 41.859406], [-0.584614, 41.85934], [-0.584653, 41.859289], [-0.584717, 41.859253], [-0.584799, 41.859201], [-0.584898, 41.859132], [-0.584999, 41.859073], [-0.585102, 41.859026], [-0.585209, 41.858989], [-0.585318, 41.858963], [-0.58543, 41.858947], [-0.585544, 41.858942], [-0.585661, 41.858948], [-0.585781, 41.858965], [-0.585904, 41.858983], [-0.586029, 41.859002], [-0.586157, 41.859024], [-0.586287, 41.859046], [-0.586421, 41.85907], [-0.586557, 41.859096], [-0.586669, 41.859118], [-0.586759, 41.859136], [-0.586812, 41.859132], [-0.586829, 41.859105], [-0.586915, 41.859042], [-0.587071, 41.858944], [-0.587278, 41.858901], [-0.587536, 41.858915], [-0.587767, 41.858931], [-0.587971, 41.858951], [-0.58821, 41.859038], [-0.588484, 41.859194], [-0.588634, 41.859327], [-0.588661, 41.859436], [-0.588711, 41.859499], [-0.588782, 41.859518], [-0.5889, 41.859558], [-0.589064, 41.859621], [-0.589213, 41.859691], [-0.589348, 41.859768], [-0.589469, 41.859852], [-0.589576, 41.859943], [-0.589695, 41.860021], [-0.589827, 41.860085], [-0.58997, 41.860135], [-0.590126, 41.860172], [-0.590294, 41.860196], [-0.590475, 41.860206], [-0.590667, 41.860203], [-0.590872, 41.860186], [-0.591073, 41.860182], [-0.59127, 41.860192], [-0.591462, 41.860214], [-0.59165, 41.86025], [-0.591781, 41.860281], [-0.591854, 41.860307], [-0.59201, 41.860328], [-0.59225, 41.860344], [-0.592529, 41.860456], [-0.592848, 41.860662], [-0.593066, 41.860868], [-0.593185, 41.861074], [-0.593249, 41.861191], [-0.593258, 41.861218], [-0.593299, 41.861267], [-0.59337, 41.86134], [-0.59348, 41.861466], [-0.593628, 41.861645], [-0.593772, 41.86181], [-0.593912, 41.861962], [-0.594049, 41.862101], [-0.594181, 41.862225], [-0.594309, 41.862337], [-0.594433, 41.862434], [-0.594517, 41.862496], [-0.59456, 41.862523], [-0.594688, 41.862549], [-0.594899, 41.862575], [-0.595032, 41.862658], [-0.595086, 41.862797], [-0.595127, 41.862891], [-0.595154, 41.862942], [-0.595185, 41.862999], [-0.59522, 41.863064], [-0.595259, 41.863109], [-0.595301, 41.863133], [-0.595325, 41.863147], [-0.595331, 41.86315], [-0.595367, 41.86317], [-0.595432, 41.863208], [-0.595552, 41.863237], [-0.595724, 41.86326], [-0.595903, 41.863214], [-0.596088, 41.863099], [-0.596214, 41.862973], [-0.59628, 41.862835], [-0.59636, 41.862649], [-0.596455, 41.862415], [-0.596508, 41.862285], [-0.596518, 41.862259], [-0.596559, 41.862226], [-0.596631, 41.862187], [-0.596704, 41.862157], [-0.596778, 41.862135], [-0.596894, 41.862109], [-0.597052, 41.862079], [-0.597225, 41.86207], [-0.597415, 41.862081], [-0.597552, 41.862089], [-0.597636, 41.862094], [-0.597719, 41.862085], [-0.597799, 41.862063], [-0.597837, 41.862036], [-0.597831, 41.862005], [-0.597848, 41.861966], [-0.597886, 41.861919], [-0.597941, 41.861852], [-0.598011, 41.861766], [-0.598049, 41.86172], [-0.598055, 41.861715], [-0.59809, 41.861661], [-0.598157, 41.861559], [-0.598246, 41.861464], [-0.598357, 41.861375], [-0.598496, 41.861329], [-0.598664, 41.861325], [-0.598778, 41.861356], [-0.598838, 41.861422], [-0.59888, 41.86151], [-0.598906, 41.86162], [-0.5989, 41.861691], [-0.598863, 41.861722], [-0.59883, 41.861748], [-0.598801, 41.861771], [-0.598732, 41.861823], [-0.598623, 41.861906], [-0.598567, 41.862006], [-0.598563, 41.862124], [-0.598567, 41.8623], [-0.598577, 41.862534], [-0.598679, 41.862752], [-0.598871, 41.862953], [-0.599051, 41.863105], [-0.59922, 41.863209], [-0.599419, 41.863293], [-0.599649, 41.863357], [-0.599773, 41.863392], [-0.59979, 41.863396], [-0.599849, 41.86343], [-0.59995, 41.863491], [-0.60001, 41.863559], [-0.600029, 41.863634], [-0.60004, 41.863678], [-0.600043, 41.863691], [-0.600062, 41.863781], [-0.600097, 41.86395], [-0.600191, 41.864063], [-0.600345, 41.864121], [-0.600435, 41.864167], [-0.60046, 41.864202], [-0.60051, 41.864279], [-0.600585, 41.864398], [-0.600652, 41.864519], [-0.600712, 41.864639], [-0.600765, 41.864764], [-0.60081, 41.864895], [-0.600849, 41.86503], [-0.60088, 41.865171], [-0.600904, 41.865316], [-0.60092, 41.865466], [-0.60093, 41.865622], [-0.600932, 41.865783], [-0.600924, 41.865885], [-0.600908, 41.86593], [-0.600972, 41.866001], [-0.601117, 41.866098], [-0.601246, 41.866294], [-0.60136, 41.866592], [-0.601329, 41.866796], [-0.601152, 41.866908], [-0.601005, 41.866893], [-0.600887, 41.86675], [-0.600811, 41.866581], [-0.600777, 41.866383], [-0.600513, 41.866353], [-0.600021, 41.86649], [-0.599721, 41.866586], [-0.599611, 41.86664], [-0.599568, 41.866693], [-0.599592, 41.866747], [-0.599614, 41.866813], [-0.599635, 41.866891], [-0.599649, 41.866974], [-0.599658, 41.867061], [-0.599661, 41.867152], [-0.599658, 41.867247], [-0.599649, 41.867346], [-0.599635, 41.86745], [-0.599582, 41.86755], [-0.599492, 41.867645], [-0.599363, 41.867735], [-0.599196, 41.867821], [-0.599032, 41.86789], [-0.598869, 41.867941], [-0.598788, 41.867974], [-0.598788, 41.867988], [-0.598718, 41.868033], [-0.598576, 41.86811], [-0.598491, 41.868208], [-0.59846, 41.868328], [-0.598519, 41.868424], [-0.598668, 41.868498], [-0.598759, 41.868542], [-0.59879, 41.868558], [-0.598884, 41.868631], [-0.599041, 41.868761], [-0.599121, 41.868834], [-0.599124, 41.868849], [-0.599063, 41.868914], [-0.598938, 41.869028], [-0.598829, 41.869055], [-0.598736, 41.868995], [-0.598684, 41.868964], [-0.598673, 41.868962], [-0.598445, 41.868929], [-0.598001, 41.868863], [-0.597578, 41.868863], [-0.597177, 41.868928], [-0.596925, 41.869048], [-0.596821, 41.869222], [-0.596938, 41.86936], [-0.597276, 41.869463], [-0.597646, 41.869548], [-0.59805, 41.869613], [-0.598327, 41.869636], [-0.598478, 41.869615], [-0.598509, 41.869854], [-0.598421, 41.870351], [-0.598516, 41.87063], [-0.598794, 41.870689], [-0.598914, 41.870786], [-0.598875, 41.87092], [-0.598782, 41.871084], [-0.598635, 41.871277], [-0.598495, 41.87157], [-0.598362, 41.871965], [-0.598255, 41.872286], [-0.598174, 41.872534], [-0.597956, 41.87268], [-0.597602, 41.872723], [-0.597208, 41.872769], [-0.596774, 41.872818], [-0.596436, 41.872857], [-0.596197, 41.872884], [-0.596043, 41.872964], [-0.595976, 41.873096], [-0.595716, 41.873158], [-0.595263, 41.873148], [-0.59485, 41.873135], [-0.594479, 41.873117], [-0.594249, 41.873134], [-0.594161, 41.873185], [-0.594096, 41.873249], [-0.594054, 41.873326], [-0.594147, 41.873423], [-0.594376, 41.87354], [-0.594585, 41.873622], [-0.594774, 41.873669], [-0.594984, 41.87372], [-0.595216, 41.873773], [-0.595357, 41.873804], [-0.595409, 41.873811], [-0.595505, 41.873824], [-0.595646, 41.873843], [-0.595734, 41.873898], [-0.595771, 41.873988], [-0.595645, 41.874121], [-0.595356, 41.874298], [-0.5951, 41.874433], [-0.594876, 41.874528], [-0.594764, 41.874597], [-0.594762, 41.874639]], [[-0.545791, 41.859032], [-0.546222, 41.858945], [-0.54648, 41.858931], [-0.546792, 41.858689], [-0.547946, 41.858595], [-0.54864, 41.858522], [-0.548981, 41.858235], [-0.549145, 41.857896], [-0.549022, 41.857617], [-0.548731, 41.857438], [-0.5484, 41.857138], [-0.547942, 41.857284], [-0.547553, 41.857507], [-0.546853, 41.857651], [-0.546597, 41.857678], [-0.546305, 41.857709], [-0.546131, 41.857992], [-0.54569, 41.857913], [-0.545295, 41.857676], [-0.544916, 41.857632], [-0.54481, 41.857881], [-0.544845, 41.858184], [-0.544875, 41.858362], [-0.545372, 41.858756], [-0.545791, 41.859032]], [[-0.551445, 41.855647], [-0.55191, 41.855744], [-0.552334, 41.855378], [-0.552338, 41.854953], [-0.552081, 41.854483], [-0.55137, 41.854207], [-0.55045, 41.853631], [-0.550724, 41.853412], [-0.550784, 41.85342], [-0.551017, 41.85319], [-0.550655, 41.853126], [-0.550504, 41.853157], [-0.55022, 41.852982], [-0.549729, 41.852961], [-0.549435, 41.853065], [-0.548963, 41.853042], [-0.548673, 41.853058], [-0.548598, 41.853183], [-0.548671, 41.85338], [-0.548963, 41.853715], [-0.549065, 41.853851], [-0.549377, 41.853964], [-0.55003, 41.854465], [-0.550273, 41.85463], [-0.550611, 41.854331], [-0.550712, 41.854349], [-0.551276, 41.854568], [-0.551544, 41.854759], [-0.551367, 41.855202], [-0.551445, 41.855647]], [[-0.548134, 41.862466], [-0.548461, 41.862206], [-0.54911, 41.862395], [-0.549297, 41.862483], [-0.549556, 41.862241], [-0.549304, 41.861945], [-0.548743, 41.861607], [-0.548123, 41.861253], [-0.547638, 41.8611], [-0.547405, 41.860996], [-0.547173, 41.860977], [-0.547069, 41.860956], [-0.546675, 41.860837], [-0.546381, 41.860792], [-0.546176, 41.860932], [-0.54611, 41.861208], [-0.546373, 41.861653], [-0.546431, 41.861905], [-0.54652, 41.861917], [-0.546541, 41.86171], [-0.546546, 41.861409], [-0.546611, 41.86137], [-0.546866, 41.86144], [-0.547049, 41.86142], [-0.547464, 41.861419], [-0.547857, 41.862109], [-0.548134, 41.862466]], [[-0.537019, 41.841438], [-0.537877, 41.841325], [-0.538585, 41.841136], [-0.539333, 41.841001], [-0.539632, 41.841502], [-0.540028, 41.841869], [-0.540871, 41.842018], [-0.541418, 41.842119], [-0.541663, 41.841787], [-0.541681, 41.841456], [-0.541247, 41.8414], [-0.540189, 41.841489], [-0.539933, 41.841062], [-0.540171, 41.840776], [-0.540475, 41.840437], [-0.540194, 41.839604], [-0.54053, 41.839444], [-0.540621, 41.839185], [-0.540466, 41.839076], [-0.540149, 41.839166], [-0.539829, 41.839677], [-0.539619, 41.839949], [-0.539249, 41.839908], [-0.5389, 41.8399], [-0.538716, 41.839715], [-0.538624, 41.839532], [-0.53845, 41.839403], [-0.538181, 41.83942], [-0.538047, 41.839434], [-0.537952, 41.83958], [-0.537799, 41.839835], [-0.537875, 41.840269], [-0.537899, 41.840585], [-0.537451, 41.8407], [-0.537283, 41.840695], [-0.537143, 41.840846], [-0.537115, 41.84086], [-0.536953, 41.840968], [-0.536924, 41.841062], [-0.536887, 41.841111], [-0.536656, 41.841612], [-0.537019, 41.841438]], [[-0.483935, 41.838809], [-0.484612, 41.839], [-0.484978, 41.838804], [-0.485628, 41.838736], [-0.486478, 41.83832], [-0.487065, 41.838089], [-0.487788, 41.838143], [-0.488726, 41.837731], [-0.489144, 41.83753], [-0.490131, 41.8371], [-0.490461, 41.836595], [-0.490639, 41.836315], [-0.49111, 41.836017], [-0.491569, 41.835251], [-0.491249, 41.835115], [-0.490896, 41.835282], [-0.490472, 41.83585], [-0.489845, 41.836151], [-0.48923, 41.836019], [-0.489168, 41.83566], [-0.488894, 41.835584], [-0.488887, 41.835846], [-0.48898, 41.836385], [-0.487924, 41.836614], [-0.487612, 41.836621], [-0.487545, 41.836641], [-0.486551, 41.837032], [-0.486243, 41.83696], [-0.486013, 41.837141], [-0.485952, 41.837187], [-0.485554, 41.837203], [-0.485398, 41.837206], [-0.485309, 41.837398], [-0.484756, 41.837522], [-0.484308, 41.837543], [-0.484088, 41.837683], [-0.484034, 41.837872], [-0.484135, 41.838253], [-0.484234, 41.838425], [-0.484188, 41.838561], [-0.483832, 41.838415], [-0.483663, 41.838041], [-0.483418, 41.837832], [-0.483501, 41.837405], [-0.483407, 41.837167], [-0.483159, 41.837036], [-0.482934, 41.837047], [-0.482781, 41.837168], [-0.482864, 41.837747], [-0.48295, 41.837842], [-0.482698, 41.837999], [-0.482424, 41.838224], [-0.482324, 41.838352], [-0.482491, 41.839014], [-0.483935, 41.838809]]]}}]}