{"type": "FeatureCollection", "name": "LUESIA", "features": [{"type": "Feature", "properties": {"id": "561527", "FIREDATE": "2026-07-15T09:11:00", "FINALDATE": "2026-07-18T14:05:00", "LASTUPDATE": "2026-07-16 07:12:22.736698", "COUNTRY": "ES", "PROVINCE": "Zaragoza", "COMMUNE": "Luesia", "AREA_HA": 15158.0, "BROADLEA": 2.7442, "CONIFER": 1.7613, "MIXED": 7.6588, "SCLEROPH": 39.0065, "TRANSIT": 9.6708, "OTHERNATLC": 5.9107, "AGRIAREAS": 33.241, "ARTIFSURF": 0.0066, "OTHERLC": 0.0, "PERCNA2K": 1.4865, "CLASS": "30DAYS", "AÑO": 2026, "LATITUD": 42.3239314692901, "LONGITUD": -1.0829324349820524}, "geometry": {"type": "Polygon", "coordinates": [[[-1.157183, 42.375303], [-1.157308, 42.375026], [-1.157861, 42.374668], [-1.157757, 42.374351], [-1.157319, 42.374136], [-1.157682, 42.373471], [-1.15813, 42.373027], [-1.159098, 42.372524], [-1.159561, 42.372637], [-1.159076, 42.373119], [-1.159056, 42.373483], [-1.159353, 42.373417], [-1.159406, 42.373937], [-1.160305, 42.373772], [-1.160863, 42.373446], [-1.161144, 42.373053], [-1.161951, 42.372635], [-1.162239, 42.373228], [-1.162739, 42.373534], [-1.1636, 42.373405], [-1.163976, 42.373758], [-1.164264, 42.374351], [-1.163489, 42.37447], [-1.163493, 42.374963], [-1.163615, 42.375377], [-1.163161, 42.375789], [-1.163017, 42.37597], [-1.163525, 42.375847], [-1.164112, 42.376144], [-1.163813, 42.37644], [-1.164088, 42.377199], [-1.16362, 42.378008], [-1.163041, 42.378697], [-1.162767, 42.378892], [-1.162533, 42.380003], [-1.161305, 42.380304], [-1.160888, 42.38068], [-1.160321, 42.381433], [-1.16025, 42.382], [-1.159919, 42.382596], [-1.159651, 42.383054], [-1.159382, 42.383511], [-1.158941, 42.383758], [-1.158773, 42.384039], [-1.159085, 42.384761], [-1.158944, 42.385665], [-1.158682, 42.385924], [-1.158531, 42.386533], [-1.158221, 42.387013], [-1.157978, 42.388075], [-1.1576, 42.388182], [-1.157219, 42.388751], [-1.156881, 42.389545], [-1.156508, 42.389685], [-1.156575, 42.390039], [-1.156546, 42.390832], [-1.156148, 42.391074], [-1.155707, 42.39132], [-1.1556, 42.391694], [-1.154974, 42.391895], [-1.154621, 42.391901], [-1.153708, 42.391279], [-1.153367, 42.39135], [-1.152979, 42.392116], [-1.151789, 42.39238], [-1.151607, 42.392359], [-1.151651, 42.392593], [-1.152682, 42.393136], [-1.152443, 42.393985], [-1.151586, 42.394376], [-1.150681, 42.394509], [-1.150921, 42.396028], [-1.151204, 42.396359], [-1.150836, 42.396992], [-1.150605, 42.397182], [-1.150418, 42.397597], [-1.149648, 42.397979], [-1.148627, 42.39773], [-1.147759, 42.39753], [-1.147347, 42.397025], [-1.147027, 42.396848], [-1.146809, 42.397213], [-1.146813, 42.397234], [-1.146855, 42.397463], [-1.146785, 42.397542], [-1.146476, 42.397889], [-1.14622, 42.397747], [-1.145824, 42.397749], [-1.145599, 42.397639], [-1.145219, 42.398207], [-1.144363, 42.398368], [-1.143349, 42.398152], [-1.14318, 42.398434], [-1.143246, 42.398788], [-1.14197, 42.398831], [-1.140873, 42.399117], [-1.140265, 42.399185], [-1.13992, 42.398993], [-1.13988, 42.39949], [-1.139877, 42.399951], [-1.139843, 42.400481], [-1.139747, 42.40115], [-1.139312, 42.401428], [-1.139483, 42.40187], [-1.139012, 42.401955], [-1.138178, 42.402705], [-1.137732, 42.402689], [-1.137275, 42.402815], [-1.137304, 42.403123], [-1.136888, 42.403042], [-1.136809, 42.402807], [-1.136303, 42.402387], [-1.135736, 42.401956], [-1.135398, 42.401336], [-1.13477, 42.400814], [-1.134796, 42.400482], [-1.134656, 42.399971], [-1.134281, 42.3997], [-1.13417, 42.39985], [-1.133416, 42.399806], [-1.133302, 42.400117], [-1.132739, 42.400477], [-1.132441, 42.400723], [-1.13262, 42.40015], [-1.132606, 42.399768], [-1.131955, 42.399968], [-1.131642, 42.40013], [-1.131344, 42.400376], [-1.130718, 42.400403], [-1.130532, 42.400637], [-1.130498, 42.401067], [-1.129566, 42.401298], [-1.129403, 42.401656], [-1.12909, 42.401819], [-1.129002, 42.401658], [-1.129004, 42.40136], [-1.128105, 42.40146], [-1.127714, 42.401205], [-1.128213, 42.400809], [-1.128143, 42.400433], [-1.1284, 42.400277], [-1.12902, 42.39991], [-1.128669, 42.399565], [-1.128404, 42.39968], [-1.128154, 42.399878], [-1.128107, 42.399628], [-1.127681, 42.399803], [-1.127509, 42.400418], [-1.126508, 42.400273], [-1.126497, 42.400276], [-1.12633, 42.400549], [-1.125382, 42.400696], [-1.125316, 42.400525], [-1.12495, 42.400531], [-1.125016, 42.400268], [-1.125298, 42.400024], [-1.124864, 42.400072], [-1.124618, 42.399673], [-1.124058, 42.399437], [-1.123538, 42.399112], [-1.123821, 42.398782], [-1.123776, 42.398233], [-1.123634, 42.39778], [-1.124196, 42.397718], [-1.124711, 42.397406], [-1.124608, 42.397161], [-1.124249, 42.396775], [-1.124573, 42.396356], [-1.124679, 42.396003], [-1.124609, 42.395628], [-1.124795, 42.395394], [-1.124814, 42.394881], [-1.124943, 42.394654], [-1.125546, 42.394502], [-1.125978, 42.394667], [-1.125943, 42.395097], [-1.125868, 42.395616], [-1.125818, 42.395962], [-1.126267, 42.395913], [-1.126845, 42.395934], [-1.127108, 42.396118], [-1.126891, 42.396184], [-1.12632, 42.396503], [-1.126205, 42.397112], [-1.126526, 42.396991], [-1.126913, 42.396608], [-1.127476, 42.396444], [-1.12762, 42.396402], [-1.127885, 42.396287], [-1.127984, 42.395893], [-1.128466, 42.395712], [-1.128195, 42.395486], [-1.127755, 42.395279], [-1.128262, 42.394925], [-1.128368, 42.394572], [-1.127961, 42.394234], [-1.127543, 42.394451], [-1.127204, 42.394787], [-1.126923, 42.394818], [-1.126692, 42.394502], [-1.126566, 42.394133], [-1.126825, 42.393678], [-1.12678, 42.39313], [-1.126524, 42.392988], [-1.126195, 42.393067], [-1.126117, 42.392649], [-1.125626, 42.392227], [-1.125503, 42.392121], [-1.125963, 42.391516], [-1.125966, 42.391118], [-1.125754, 42.390696], [-1.125522, 42.390163], [-1.125054, 42.389557], [-1.125032, 42.389198], [-1.124556, 42.38902], [-1.12432, 42.389178], [-1.123478, 42.389173], [-1.122992, 42.389654], [-1.122706, 42.389784], [-1.122696, 42.389784], [-1.121809, 42.389719], [-1.121272, 42.38945], [-1.120791, 42.38901], [-1.120589, 42.388638], [-1.120393, 42.388297], [-1.120514, 42.387758], [-1.120672, 42.387459], [-1.120634, 42.38743], [-1.120225, 42.387395], [-1.12026, 42.387174], [-1.120347, 42.386625], [-1.12023, 42.386474], [-1.120442, 42.386187], [-1.120382, 42.385865], [-1.120222, 42.385718], [-1.119869, 42.385724], [-1.119609, 42.385753], [-1.119815, 42.385434], [-1.120292, 42.385382], [-1.120325, 42.385082], [-1.120364, 42.384815], [-1.12086, 42.384628], [-1.120738, 42.384214], [-1.120602, 42.383242], [-1.120666, 42.382874], [-1.120809, 42.382693], [-1.120755, 42.382403], [-1.120291, 42.38229], [-1.120169, 42.382106], [-1.120121, 42.381849], [-1.11983, 42.381716], [-1.119664, 42.381537], [-1.119462, 42.381165], [-1.11913, 42.380807], [-1.118958, 42.380596], [-1.119016, 42.381149], [-1.118984, 42.381448], [-1.119018, 42.381872], [-1.119449, 42.382285], [-1.119825, 42.382638], [-1.119886, 42.38273], [-1.119932, 42.383448], [-1.119447, 42.383699], [-1.119149, 42.383995], [-1.118758, 42.384039], [-1.118787, 42.38443], [-1.118413, 42.3848], [-1.118189, 42.385022], [-1.118396, 42.385657], [-1.117837, 42.385982], [-1.118386, 42.386316], [-1.118456, 42.38669], [-1.118367, 42.386693], [-1.118051, 42.38674], [-1.117996, 42.386754], [-1.117778, 42.386971], [-1.117199, 42.387248], [-1.116474, 42.387669], [-1.116176, 42.387915], [-1.115876, 42.387805], [-1.115714, 42.387895], [-1.115682, 42.387895], [-1.114965, 42.387912], [-1.114301, 42.38815], [-1.113848, 42.388331], [-1.113723, 42.388608], [-1.113388, 42.388711], [-1.11296, 42.388792], [-1.11276, 42.389143], [-1.112759, 42.389373], [-1.112602, 42.389719], [-1.112185, 42.390094], [-1.111935, 42.390418], [-1.111778, 42.390764], [-1.111566, 42.391132], [-1.111501, 42.391244], [-1.111016, 42.391297], [-1.110871, 42.391441], [-1.111159, 42.391835], [-1.111127, 42.391891], [-1.11114, 42.391965], [-1.111216, 42.392681], [-1.111077, 42.393165], [-1.111019, 42.393469], [-1.110336, 42.3938], [-1.109962, 42.393905], [-1.109401, 42.394875], [-1.108565, 42.394902], [-1.108253, 42.395364], [-1.108078, 42.395613], [-1.107882, 42.396227], [-1.107346, 42.396608], [-1.107397, 42.397107], [-1.107434, 42.397614], [-1.107006, 42.398087], [-1.106905, 42.397545], [-1.10662, 42.398173], [-1.106522, 42.398567], [-1.106551, 42.399032], [-1.106782, 42.399348], [-1.106674, 42.399998], [-1.106375, 42.400244], [-1.105949, 42.400419], [-1.105506, 42.400809], [-1.105202, 42.400715], [-1.104936, 42.400829], [-1.104756, 42.401403], [-1.104512, 42.400706], [-1.104001, 42.400139], [-1.104002, 42.400123], [-1.10387, 42.399414], [-1.103867, 42.3994], [-1.104199, 42.399335], [-1.104265, 42.399072], [-1.104218, 42.398822], [-1.104059, 42.398584], [-1.103627, 42.398419], [-1.103182, 42.398625], [-1.10319, 42.399081], [-1.102993, 42.399096], [-1.102715, 42.399371], [-1.101857, 42.399381], [-1.101535, 42.399502], [-1.101357, 42.399777], [-1.101074, 42.400106], [-1.100633, 42.400198], [-1.100241, 42.399943], [-1.099716, 42.400512], [-1.099623, 42.400011], [-1.099842, 42.399646], [-1.099751, 42.398847], [-1.099385, 42.398453], [-1.098538, 42.3986], [-1.098198, 42.398209], [-1.098007, 42.398103], [-1.097532, 42.398326], [-1.097755, 42.398599], [-1.09768, 42.398794], [-1.0976, 42.399], [-1.097013, 42.399235], [-1.096808, 42.399121], [-1.096757, 42.399093], [-1.096535, 42.398819], [-1.096, 42.39841], [-1.095986, 42.399263], [-1.095547, 42.399056], [-1.095196, 42.398711], [-1.094634, 42.398774], [-1.094857, 42.399047], [-1.095335, 42.399463], [-1.095742, 42.399801], [-1.095277, 42.399767], [-1.095119, 42.399529], [-1.094956, 42.399888], [-1.095072, 42.400359], [-1.094281, 42.40069], [-1.093325, 42.401026], [-1.092551, 42.400914], [-1.091763, 42.401199], [-1.090393, 42.400495], [-1.089702, 42.400111], [-1.089648, 42.399821], [-1.089781, 42.399346], [-1.089728, 42.398825], [-1.089327, 42.398574], [-1.089236, 42.398321], [-1.089207, 42.397929], [-1.088833, 42.397346], [-1.088236, 42.396754], [-1.087535, 42.396075], [-1.087092, 42.395597], [-1.086975, 42.395446], [-1.086712, 42.394982], [-1.086247, 42.395099], [-1.085813, 42.395147], [-1.082917, 42.394809], [-1.082733, 42.394533], [-1.081939, 42.394785], [-1.081654, 42.394685], [-1.081081, 42.394908], [-1.080741, 42.394755], [-1.08064, 42.394468], [-1.080717, 42.394163], [-1.080446, 42.393897], [-1.080528, 42.393625], [-1.080918, 42.393582], [-1.081657, 42.39327], [-1.082049, 42.392997], [-1.082125, 42.392693], [-1.082145, 42.392559], [-1.081687, 42.392478], [-1.08172, 42.392178], [-1.080921, 42.392168], [-1.080531, 42.392211], [-1.080111, 42.392093], [-1.080167, 42.391922], [-1.080405, 42.391534], [-1.080778, 42.391394], [-1.081273, 42.391438], [-1.081365, 42.391461], [-1.081548, 42.39135], [-1.081437, 42.390894], [-1.080633, 42.390851], [-1.080037, 42.390983], [-1.079473, 42.391045], [-1.078996, 42.391098], [-1.078495, 42.391021], [-1.078473, 42.390662], [-1.079001, 42.390406], [-1.079671, 42.390201], [-1.079735, 42.389832], [-1.079011, 42.389748], [-1.078498, 42.389607], [-1.077418, 42.389035], [-1.076869, 42.388701], [-1.076599, 42.388435], [-1.075867, 42.388549], [-1.075776, 42.388296], [-1.076261, 42.388045], [-1.076255, 42.388013], [-1.076045, 42.387838], [-1.07624, 42.387455], [-1.076596, 42.386988], [-1.076479, 42.386837], [-1.076362, 42.386685], [-1.07608, 42.386355], [-1.07618, 42.385762], [-1.076228, 42.385483], [-1.076033, 42.384913], [-1.076383, 42.384414], [-1.07654, 42.384068], [-1.076506, 42.383644], [-1.075912, 42.383545], [-1.075212, 42.383589], [-1.074822, 42.383632], [-1.074136, 42.383511], [-1.073392, 42.38356], [-1.073706, 42.383821], [-1.073741, 42.384245], [-1.073393, 42.384439], [-1.0733, 42.384491], [-1.073044, 42.384782], [-1.07306, 42.385109], [-1.073244, 42.385385], [-1.073678, 42.385337], [-1.074701, 42.386079], [-1.074927, 42.386581], [-1.075043, 42.387686], [-1.073114, 42.38826], [-1.072942, 42.388049], [-1.0729, 42.387824], [-1.072498, 42.387802], [-1.071923, 42.38757], [-1.071237, 42.387448], [-1.070751, 42.387929], [-1.070193, 42.388023], [-1.06971, 42.388044], [-1.069412, 42.388109], [-1.069122, 42.387977], [-1.068581, 42.387445], [-1.068086, 42.387401], [-1.067945, 42.38712], [-1.067156, 42.386681], [-1.067042, 42.386069], [-1.066611, 42.385656], [-1.066148, 42.385542], [-1.065711, 42.385097], [-1.065541, 42.384656], [-1.065029, 42.384284], [-1.064974, 42.384225], [-1.064854, 42.384534], [-1.064679, 42.384783], [-1.06485, 42.385225], [-1.065037, 42.385994], [-1.064252, 42.385817], [-1.064117, 42.385569], [-1.063976, 42.385288], [-1.063748, 42.385248], [-1.063481, 42.385244], [-1.063076, 42.385684], [-1.062074, 42.385531], [-1.062115, 42.385033], [-1.062258, 42.384853], [-1.062309, 42.38465], [-1.062368, 42.384249], [-1.062393, 42.384147], [-1.062365, 42.383756], [-1.062329, 42.383563], [-1.061871, 42.383481], [-1.061248, 42.383221], [-1.060997, 42.382821], [-1.061091, 42.382614], [-1.061544, 42.382432], [-1.062153, 42.382135], [-1.062805, 42.381833], [-1.06311, 42.381569], [-1.062716, 42.382073], [-1.062984, 42.3828], [-1.063395, 42.383346], [-1.063841, 42.383363], [-1.063321, 42.382467], [-1.063403, 42.382195], [-1.063825, 42.382082], [-1.064031, 42.381764], [-1.063947, 42.381312], [-1.06401, 42.381174], [-1.064085, 42.3811], [-1.064649, 42.381038], [-1.065682, 42.381121], [-1.06569, 42.380923], [-1.064737, 42.380798], [-1.064273, 42.380685], [-1.063927, 42.380723], [-1.063251, 42.380896], [-1.062823, 42.380976], [-1.062328, 42.380932], [-1.062101, 42.380661], [-1.062108, 42.380463], [-1.06253, 42.380351], [-1.062685, 42.380235], [-1.062968, 42.379612], [-1.06383, 42.379484], [-1.064011, 42.379267], [-1.064334, 42.379099], [-1.065031, 42.379143], [-1.065095, 42.379147], [-1.065195, 42.378972], [-1.065689, 42.378292], [-1.066575, 42.378063], [-1.066279, 42.377898], [-1.065283, 42.377778], [-1.064812, 42.377863], [-1.064415, 42.378104], [-1.064262, 42.378361], [-1.063976, 42.378843], [-1.063124, 42.378542], [-1.062831, 42.37887], [-1.061804, 42.378819], [-1.061664, 42.379262], [-1.062357, 42.379416], [-1.062322, 42.379946], [-1.061857, 42.380063], [-1.061232, 42.380033], [-1.060429, 42.37976], [-1.06073, 42.380187], [-1.060956, 42.381412], [-1.059889, 42.380905], [-1.059219, 42.38111], [-1.058643, 42.381108], [-1.058875, 42.380687], [-1.058995, 42.380378], [-1.058978, 42.380051], [-1.05901, 42.379982], [-1.059759, 42.379965], [-1.059785, 42.379864], [-1.059439, 42.379672], [-1.059287, 42.379327], [-1.05889, 42.379337], [-1.058777, 42.379679], [-1.057998, 42.379534], [-1.057658, 42.379374], [-1.057999, 42.379304], [-1.058606, 42.379237], [-1.059308, 42.378963], [-1.059525, 42.378939], [-1.059631, 42.378795], [-1.060088, 42.378877], [-1.060564, 42.379054], [-1.060664, 42.378879], [-1.060277, 42.378461], [-1.059638, 42.378597], [-1.058879, 42.378319], [-1.05882, 42.37872], [-1.058132, 42.378829], [-1.05814, 42.378631], [-1.058487, 42.378593], [-1.058494, 42.378394], [-1.058236, 42.378193], [-1.057566, 42.378398], [-1.057282, 42.378298], [-1.057005, 42.377999], [-1.056827, 42.377756], [-1.056519, 42.377527], [-1.056298, 42.377288], [-1.05641, 42.377177], [-1.056614, 42.377319], [-1.057138, 42.377524], [-1.057651, 42.377665], [-1.057906, 42.377604], [-1.058378, 42.377289], [-1.058522, 42.377109], [-1.057722, 42.377329], [-1.057116, 42.377165], [-1.056765, 42.376941], [-1.056852, 42.376931], [-1.056983, 42.376686], [-1.056098, 42.376685], [-1.055635, 42.376572], [-1.055681, 42.37706], [-1.055095, 42.376763], [-1.054839, 42.377054], [-1.054565, 42.377249], [-1.054164, 42.376997], [-1.054063, 42.376449], [-1.054645, 42.376483], [-1.054869, 42.376261], [-1.055502, 42.376093], [-1.055657, 42.375977], [-1.056091, 42.37593], [-1.056414, 42.375762], [-1.057102, 42.375654], [-1.057117, 42.375258], [-1.057045, 42.374871], [-1.05714, 42.374757], [-1.057041, 42.374608], [-1.057277, 42.374451], [-1.057056, 42.374212], [-1.056648, 42.374158], [-1.055924, 42.374073], [-1.055504, 42.373955], [-1.055413, 42.373702], [-1.055667, 42.373641], [-1.05573, 42.373503], [-1.055187, 42.373201], [-1.054613, 42.372968], [-1.054362, 42.372568], [-1.054172, 42.37226], [-1.054204, 42.372191], [-1.054649, 42.372208], [-1.054842, 42.372055], [-1.054875, 42.371755], [-1.05475, 42.371079], [-1.054261, 42.371067], [-1.053711, 42.370963], [-1.052932, 42.370818], [-1.052893, 42.371086], [-1.05297, 42.371505], [-1.052635, 42.371607], [-1.052389, 42.37147], [-1.051918, 42.371555], [-1.051816, 42.371961], [-1.051535, 42.372353], [-1.051294, 42.372248], [-1.051121, 42.372267], [-1.05103, 42.372014], [-1.051372, 42.371714], [-1.05135, 42.371354], [-1.051064, 42.371484], [-1.050722, 42.371785], [-1.050529, 42.371938], [-1.050679, 42.372513], [-1.051185, 42.372852], [-1.051016, 42.373134], [-1.051534, 42.373307], [-1.052095, 42.373706], [-1.052044, 42.373909], [-1.051899, 42.374319], [-1.051797, 42.374725], [-1.051582, 42.374519], [-1.051087, 42.374475], [-1.050369, 42.374422], [-1.050282, 42.374432], [-1.050293, 42.374726], [-1.050688, 42.375669], [-1.050415, 42.375864], [-1.049712, 42.376369], [-1.049582, 42.375429], [-1.049268, 42.375168], [-1.048642, 42.375368], [-1.048467, 42.374664], [-1.048492, 42.374563], [-1.048632, 42.37412], [-1.048283, 42.374388], [-1.047675, 42.374686], [-1.047038, 42.374591], [-1.046646, 42.374865], [-1.046489, 42.375211], [-1.046238, 42.374811], [-1.045933, 42.374121], [-1.045543, 42.374164], [-1.044935, 42.374231], [-1.0449, 42.374037], [-1.044426, 42.373629], [-1.044558, 42.373384], [-1.045399, 42.37339], [-1.045797, 42.373149], [-1.046201, 42.37294], [-1.046605, 42.372732], [-1.047418, 42.372346], [-1.048094, 42.372173], [-1.04825, 42.372057], [-1.048654, 42.371848], [-1.048797, 42.371668], [-1.04917, 42.371529], [-1.049755, 42.371102], [-1.050203, 42.370658], [-1.050683, 42.370145], [-1.050853, 42.369863], [-1.051394, 42.369442], [-1.051681, 42.369082], [-1.050392, 42.369289], [-1.04954, 42.369942], [-1.049122, 42.370317], [-1.04865, 42.370632], [-1.048442, 42.371181], [-1.046836, 42.371588], [-1.046251, 42.372014], [-1.045168, 42.372857], [-1.0445, 42.372832], [-1.043782, 42.372779], [-1.04325, 42.372772], [-1.042678, 42.373032], [-1.04278, 42.37358], [-1.042334, 42.373563], [-1.041833, 42.373487], [-1.041277, 42.37335], [-1.04098, 42.373416], [-1.040949, 42.374209], [-1.040333, 42.374156], [-1.039983, 42.374249], [-1.039823, 42.374102], [-1.039435, 42.373915], [-1.038861, 42.373682], [-1.038419, 42.373928], [-1.038522, 42.374245], [-1.037866, 42.374285], [-1.037397, 42.374139], [-1.037014, 42.373984], [-1.036446, 42.373783], [-1.036237, 42.373609], [-1.036108, 42.373393], [-1.035619, 42.373381], [-1.034515, 42.37291], [-1.033576, 42.372619], [-1.033515, 42.372527], [-1.033832, 42.372327], [-1.033238, 42.372228], [-1.032473, 42.371918], [-1.032047, 42.371767], [-1.032551, 42.371383], [-1.033196, 42.371279], [-1.033611, 42.371135], [-1.033601, 42.37084], [-1.033219, 42.370685], [-1.03337, 42.370307], [-1.03336, 42.370012], [-1.033213, 42.369699], [-1.032464, 42.369715], [-1.032113, 42.369491], [-1.031855, 42.369289], [-1.031701, 42.369175], [-1.032316, 42.368944], [-1.032231, 42.368755], [-1.032702, 42.368638], [-1.032994, 42.368819], [-1.033379, 42.368734], [-1.033844, 42.368768], [-1.034035, 42.368406], [-1.033868, 42.368126], [-1.033491, 42.367635], [-1.033587, 42.367388], [-1.033646, 42.367235], [-1.033945, 42.366989], [-1.034279, 42.366782], [-1.03453, 42.366435], [-1.034488, 42.366056], [-1.034982, 42.365938], [-1.035206, 42.365445], [-1.034878, 42.365375], [-1.034597, 42.365405], [-1.034311, 42.365714], [-1.03432, 42.365457], [-1.034495, 42.365161], [-1.034067, 42.365016], [-1.033806, 42.365152], [-1.033921, 42.365309], [-1.034087, 42.365589], [-1.034077, 42.365846], [-1.033707, 42.365546], [-1.033681, 42.365251], [-1.033623, 42.364938], [-1.03348, 42.364783], [-1.033991, 42.36445], [-1.033634, 42.364532], [-1.0333, 42.364739], [-1.032937, 42.364949], [-1.032714, 42.364824], [-1.032466, 42.364724], [-1.03223, 42.364686], [-1.032104, 42.364934], [-1.031467, 42.364898], [-1.031107, 42.365278], [-1.030779, 42.365207], [-1.030969, 42.364995], [-1.031106, 42.36472], [-1.031116, 42.364702], [-1.031155, 42.364293], [-1.032818, 42.363216], [-1.033546, 42.363434], [-1.033684, 42.363099], [-1.033529, 42.362882], [-1.033102, 42.362737], [-1.032632, 42.362832], [-1.032268, 42.362723], [-1.031954, 42.362885], [-1.03178, 42.363181], [-1.031401, 42.363457], [-1.031002, 42.363777], [-1.030436, 42.363967], [-1.029967, 42.36453], [-1.029963, 42.364978], [-1.029963, 42.365024], [-1.029961, 42.365025], [-1.029269, 42.364871], [-1.028919, 42.364416], [-1.028417, 42.36457], [-1.028172, 42.364202], [-1.027825, 42.36424], [-1.027746, 42.364052], [-1.027239, 42.363943], [-1.026885, 42.364179], [-1.026354, 42.363941], [-1.026127, 42.36367], [-1.026204, 42.363366], [-1.026069, 42.363118], [-1.025403, 42.362862], [-1.024912, 42.36308], [-1.025625, 42.362147], [-1.024968, 42.362186], [-1.025128, 42.361834], [-1.02545, 42.361789], [-1.026071, 42.361742], [-1.026103, 42.361292], [-1.025569, 42.36135], [-1.024496, 42.361277], [-1.024301, 42.361], [-1.024298, 42.360949], [-1.024415, 42.360866], [-1.024572, 42.36052], [-1.025195, 42.36078], [-1.02583, 42.360382], [-1.026301, 42.360297], [-1.027265, 42.360487], [-1.027499, 42.36056], [-1.027626, 42.361006], [-1.027953, 42.361102], [-1.02854, 42.360446], [-1.028666, 42.360169], [-1.028965, 42.359873], [-1.029579, 42.359608], [-1.030249, 42.359403], [-1.030103, 42.35909], [-1.028633, 42.359515], [-1.027989, 42.359618], [-1.027232, 42.359833], [-1.026765, 42.359457], [-1.02639, 42.359103], [-1.026573, 42.358656], [-1.02686, 42.358295], [-1.027094, 42.357645], [-1.02735, 42.358077], [-1.028032, 42.357936], [-1.028558, 42.357912], [-1.028641, 42.357639], [-1.028199, 42.357162], [-1.028074, 42.357128], [-1.028205, 42.356546], [-1.028268, 42.356262], [-1.027877, 42.356476], [-1.027656, 42.35667], [-1.027428, 42.356525], [-1.027403, 42.356517], [-1.027406, 42.35646], [-1.027476, 42.356123], [-1.027393, 42.355672], [-1.027395, 42.355441], [-1.028273, 42.354687], [-1.02845, 42.354481], [-1.028993, 42.354138], [-1.028975, 42.353858], [-1.029577, 42.35313], [-1.029705, 42.352623], [-1.029264, 42.351915], [-1.030101, 42.350935], [-1.030244, 42.351708], [-1.030807, 42.351646], [-1.03097, 42.351485], [-1.031192, 42.351469], [-1.031333, 42.351304], [-1.031544, 42.351047], [-1.031702, 42.350817], [-1.031816, 42.350506], [-1.031811, 42.350446], [-1.031889, 42.350434], [-1.032295, 42.350773], [-1.032385, 42.350486], [-1.03265, 42.350372], [-1.032673, 42.350028], [-1.03241, 42.349844], [-1.032372, 42.350104], [-1.032248, 42.350054], [-1.032124, 42.350004], [-1.031735, 42.35008], [-1.031637, 42.349844], [-1.03163, 42.349836], [-1.031648, 42.349735], [-1.031571, 42.349557], [-1.031598, 42.348742], [-1.031698, 42.348624], [-1.03213, 42.34864], [-1.03206, 42.348332], [-1.032892, 42.348326], [-1.033023, 42.348102], [-1.033088, 42.348087], [-1.033643, 42.347835], [-1.033897, 42.347509], [-1.034088, 42.347147], [-1.034093, 42.347024], [-1.034098, 42.34689], [-1.033772, 42.346521], [-1.033634, 42.346238], [-1.033715, 42.346208], [-1.03419, 42.346454], [-1.034436, 42.346704], [-1.034346, 42.346991], [-1.03434, 42.347008], [-1.034137, 42.347567], [-1.033883, 42.347894], [-1.033592, 42.348181], [-1.033201, 42.348544], [-1.033311, 42.34883], [-1.033492, 42.348724], [-1.033782, 42.348437], [-1.034133, 42.348164], [-1.034624, 42.347876], [-1.035017, 42.347833], [-1.034694, 42.348102], [-1.034099, 42.348445], [-1.033603, 42.348861], [-1.033742, 42.348995], [-1.034283, 42.34851], [-1.03454, 42.348354], [-1.035019, 42.348152], [-1.035331, 42.348139], [-1.034652, 42.34849], [-1.03457, 42.34867], [-1.035402, 42.348365], [-1.035634, 42.348382], [-1.035993, 42.34862], [-1.035761, 42.348603], [-1.0352, 42.348515], [-1.034781, 42.348881], [-1.034549, 42.348864], [-1.034309, 42.349273], [-1.034227, 42.349602], [-1.034092, 42.349958], [-1.034042, 42.350155], [-1.034354, 42.350291], [-1.034626, 42.350367], [-1.034796, 42.350668], [-1.034454, 42.350833], [-1.034766, 42.35097], [-1.034869, 42.351065], [-1.035277, 42.351254], [-1.035854, 42.351276], [-1.036194, 42.35126], [-1.036719, 42.351309], [-1.037148, 42.351304], [-1.037439, 42.351485], [-1.03772, 42.351454], [-1.037994, 42.351232], [-1.038044, 42.350886], [-1.038154, 42.350704], [-1.038488, 42.350496], [-1.038884, 42.350623], [-1.038377, 42.350828], [-1.038637, 42.350991], [-1.038418, 42.351356], [-1.038186, 42.351807], [-1.03872, 42.3516], [-1.038899, 42.351324], [-1.038945, 42.350957], [-1.039348, 42.350657], [-1.039487, 42.350323], [-1.039775, 42.350334], [-1.040001, 42.35016], [-1.040282, 42.350129], [-1.040632, 42.349856], [-1.041009, 42.349878], [-1.041219, 42.349621], [-1.04168, 42.349634], [-1.041889, 42.349526], [-1.040912, 42.349357], [-1.04101, 42.349112], [-1.041028, 42.348897], [-1.04058, 42.348797], [-1.040391, 42.34886], [-1.040306, 42.349019], [-1.040283, 42.349362], [-1.040062, 42.349407], [-1.03982, 42.349179], [-1.039417, 42.348861], [-1.039061, 42.348794], [-1.039136, 42.348423], [-1.039092, 42.34831], [-1.038971, 42.347994], [-1.038208, 42.347588], [-1.038406, 42.347417], [-1.038531, 42.347319], [-1.0388, 42.347225], [-1.039251, 42.347495], [-1.039271, 42.348068], [-1.039331, 42.348299], [-1.039368, 42.34844], [-1.039687, 42.348618], [-1.039954, 42.348823], [-1.040291, 42.348786], [-1.040361, 42.348544], [-1.040206, 42.348327], [-1.040454, 42.348427], [-1.040547, 42.348311], [-1.040558, 42.347907], [-1.040558, 42.347905], [-1.040566, 42.347905], [-1.041015, 42.347897], [-1.040953, 42.347563], [-1.040659, 42.34755], [-1.040634, 42.347133], [-1.041064, 42.347232], [-1.041227, 42.347341], [-1.041497, 42.347716], [-1.041678, 42.347611], [-1.041895, 42.347545], [-1.042188, 42.347427], [-1.042414, 42.347722], [-1.042609, 42.347999], [-1.043036, 42.348143], [-1.043184, 42.347701], [-1.042913, 42.347475], [-1.042883, 42.347159], [-1.042858, 42.346715], [-1.041851, 42.346996], [-1.041688, 42.346737], [-1.041225, 42.346554], [-1.041024, 42.346086], [-1.041545, 42.345965], [-1.041724, 42.34569], [-1.041376, 42.345515], [-1.040853, 42.345317], [-1.040555, 42.344945], [-1.040475, 42.344975], [-1.039698, 42.344954], [-1.039571, 42.344734], [-1.039539, 42.344688], [-1.039337, 42.344397], [-1.039069, 42.344342], [-1.038598, 42.344333], [-1.038465, 42.344174], [-1.038086, 42.343981], [-1.038133, 42.343614], [-1.038123, 42.34327], [-1.038178, 42.343396], [-1.038593, 42.343159], [-1.038622, 42.343007], [-1.038998, 42.343029], [-1.039405, 42.34275], [-1.040091, 42.34259], [-1.041025, 42.342529], [-1.041345, 42.34209], [-1.041475, 42.34172], [-1.041806, 42.341485], [-1.041653, 42.341202], [-1.041745, 42.340882], [-1.041751, 42.340742], [-1.042153, 42.340763], [-1.042298, 42.340353], [-1.042122, 42.339879], [-1.042276, 42.339993], [-1.04269, 42.340079], [-1.043606, 42.340012], [-1.044035, 42.339701], [-1.044748, 42.339491], [-1.045128, 42.339635], [-1.045442, 42.339466], [-1.045867, 42.339441], [-1.045724, 42.339755], [-1.045577, 42.339831], [-1.045411, 42.339917], [-1.044992, 42.340134], [-1.044782, 42.340391], [-1.044692, 42.340678], [-1.044562, 42.340905], [-1.044988, 42.34073], [-1.045078, 42.341061], [-1.045149, 42.341117], [-1.045413, 42.341322], [-1.045227, 42.341556], [-1.045054, 42.341611], [-1.045013, 42.341624], [-1.044713, 42.341719], [-1.044421, 42.341687], [-1.044241, 42.341735], [-1.044148, 42.34176], [-1.043963, 42.341844], [-1.044125, 42.342067], [-1.044193, 42.34216], [-1.043891, 42.342384], [-1.044006, 42.342542], [-1.044173, 42.342673], [-1.044212, 42.342882], [-1.044702, 42.342742], [-1.045146, 42.342821], [-1.044994, 42.343243], [-1.045203, 42.343284], [-1.045466, 42.343468], [-1.045624, 42.343706], [-1.045674, 42.343977], [-1.045658, 42.344097], [-1.046169, 42.34407], [-1.046104, 42.343716], [-1.046341, 42.343328], [-1.046883, 42.342907], [-1.047053, 42.342686], [-1.047394, 42.342744], [-1.047572, 42.342961], [-1.047139, 42.343339], [-1.047026, 42.34368], [-1.046936, 42.34415], [-1.046671, 42.34487], [-1.046988, 42.344878], [-1.047018, 42.345512], [-1.047204, 42.345278], [-1.04751, 42.345074], [-1.047747, 42.344963], [-1.048364, 42.344895], [-1.048543, 42.34462], [-1.04856, 42.344405], [-1.048534, 42.344263], [-1.048755, 42.34418], [-1.048496, 42.343979], [-1.049116, 42.343746], [-1.04919, 42.342949], [-1.049272, 42.342676], [-1.049668, 42.342666], [-1.050123, 42.342254], [-1.050428, 42.34199], [-1.050954, 42.341965], [-1.051618, 42.341728], [-1.052715, 42.341442], [-1.053357, 42.341569], [-1.054405, 42.341256], [-1.055445, 42.341142], [-1.056387, 42.340972], [-1.056733, 42.340934], [-1.056414, 42.34064], [-1.056879, 42.340523], [-1.057, 42.340542], [-1.056984, 42.340091], [-1.056775, 42.339581], [-1.056845, 42.339339], [-1.056967, 42.33907], [-1.057308, 42.338905], [-1.057436, 42.338976], [-1.057287, 42.339099], [-1.057072, 42.339485], [-1.057202, 42.339875], [-1.057284, 42.340164], [-1.057318, 42.34059], [-1.057379, 42.3406], [-1.057454, 42.340526], [-1.057857, 42.34127], [-1.058083, 42.340818], [-1.058056, 42.340196], [-1.058029, 42.340107], [-1.058488, 42.339861], [-1.059017, 42.339782], [-1.059329, 42.339918], [-1.059895, 42.339727], [-1.060505, 42.339618], [-1.061183, 42.339415], [-1.061429, 42.339196], [-1.061467, 42.338937], [-1.061046, 42.338983], [-1.060943, 42.338739], [-1.060792, 42.338542], [-1.06029, 42.338768], [-1.060136, 42.339019], [-1.059592, 42.339484], [-1.058887, 42.33954], [-1.058277, 42.33965], [-1.05793, 42.339776], [-1.057899, 42.339675], [-1.057745, 42.33956], [-1.057935, 42.339198], [-1.058395, 42.338743], [-1.05861, 42.338357], [-1.05884, 42.338204], [-1.059101, 42.338069], [-1.059286, 42.337984], [-1.059371, 42.337981], [-1.05957, 42.337974], [-1.059612, 42.337735], [-1.059488, 42.337685], [-1.059312, 42.337614], [-1.059241, 42.337585], [-1.059062, 42.337391], [-1.059054, 42.337386], [-1.058235, 42.337578], [-1.057412, 42.337669], [-1.057209, 42.337527], [-1.057107, 42.336979], [-1.056396, 42.336959], [-1.056143, 42.336789], [-1.055594, 42.336685], [-1.055526, 42.336561], [-1.055543, 42.335935], [-1.054851, 42.335781], [-1.054431, 42.335662], [-1.053994, 42.335448], [-1.053402, 42.335118], [-1.053117, 42.334294], [-1.052061, 42.334082], [-1.051629, 42.333899], [-1.051441, 42.334315], [-1.04964, 42.334381], [-1.04893, 42.335085], [-1.048335, 42.335216], [-1.047875, 42.335595], [-1.048164, 42.335728], [-1.048659, 42.335772], [-1.048871, 42.335486], [-1.049925, 42.335205], [-1.05023, 42.334941], [-1.051004, 42.334823], [-1.051605, 42.334724], [-1.051928, 42.334557], [-1.052574, 42.334946], [-1.053141, 42.335377], [-1.053272, 42.336086], [-1.05317, 42.336492], [-1.05259, 42.337181], [-1.052195, 42.336961], [-1.051632, 42.337023], [-1.051285, 42.337061], [-1.051296, 42.337356], [-1.052105, 42.337431], [-1.052407, 42.337628], [-1.051428, 42.337835], [-1.050784, 42.337939], [-1.050415, 42.337618], [-1.049967, 42.337108], [-1.049839, 42.336892], [-1.049592, 42.337066], [-1.049679, 42.337445], [-1.049671, 42.33746], [-1.050066, 42.33768], [-1.050295, 42.338144], [-1.049959, 42.338032], [-1.049627, 42.337941], [-1.049539, 42.337725], [-1.049532, 42.337738], [-1.049278, 42.337447], [-1.048918, 42.337359], [-1.048876, 42.337598], [-1.04879, 42.337905], [-1.048318, 42.337829], [-1.047675, 42.337602], [-1.048048, 42.337455], [-1.048588, 42.337294], [-1.048618, 42.337285], [-1.048727, 42.336916], [-1.048738, 42.336879], [-1.048739, 42.336684], [-1.04821, 42.336216], [-1.047617, 42.336117], [-1.047345, 42.336081], [-1.046698, 42.336646], [-1.046362, 42.336979], [-1.045958, 42.337188], [-1.045401, 42.337282], [-1.044081, 42.337559], [-1.043779, 42.337362], [-1.043609, 42.33692], [-1.043717, 42.336546], [-1.043911, 42.336163], [-1.043883, 42.335772], [-1.043644, 42.335436], [-1.043183, 42.335458], [-1.043075, 42.334871], [-1.043335, 42.334417], [-1.043523, 42.333885], [-1.043385, 42.333453], [-1.043111, 42.333206], [-1.043106, 42.333335], [-1.043107, 42.333803], [-1.042122, 42.333741], [-1.042184, 42.333926], [-1.04252, 42.334038], [-1.042486, 42.334319], [-1.042361, 42.334418], [-1.04215, 42.334206], [-1.041933, 42.334347], [-1.041881, 42.334325], [-1.041866, 42.334216], [-1.041739, 42.333996], [-1.041483, 42.334003], [-1.041161, 42.334124], [-1.041158, 42.334571], [-1.040968, 42.334784], [-1.040592, 42.334925], [-1.040537, 42.33489], [-1.040465, 42.334503], [-1.04028, 42.334458], [-1.039505, 42.334543], [-1.039146, 42.334218], [-1.038731, 42.333986], [-1.038693, 42.333628], [-1.038668, 42.333184], [-1.038407, 42.333319], [-1.038229, 42.333594], [-1.038005, 42.334088], [-1.037891, 42.334398], [-1.03802, 42.334789], [-1.038011, 42.334817], [-1.037432, 42.334837], [-1.036742, 42.334877], [-1.036504, 42.334487], [-1.035982, 42.334608], [-1.035892, 42.335096], [-1.035492, 42.335369], [-1.035447, 42.335582], [-1.036484, 42.335928], [-1.036754, 42.336194], [-1.037008, 42.336133], [-1.03706, 42.335986], [-1.037367, 42.335904], [-1.037267, 42.336447], [-1.037578, 42.336584], [-1.038042, 42.336767], [-1.038164, 42.336966], [-1.038216, 42.337], [-1.038213, 42.337152], [-1.038259, 42.33764], [-1.038024, 42.337567], [-1.03778, 42.3372], [-1.037255, 42.336994], [-1.036422, 42.33679], [-1.036783, 42.337309], [-1.036686, 42.338387], [-1.036597, 42.338411], [-1.036435, 42.338456], [-1.036124, 42.338261], [-1.035885, 42.338111], [-1.035768, 42.337635], [-1.035319, 42.337488], [-1.035106, 42.337329], [-1.034649, 42.337248], [-1.033405, 42.336497], [-1.032825, 42.336232], [-1.03235, 42.336054], [-1.032123, 42.335783], [-1.032046, 42.335364], [-1.032018, 42.334972], [-1.032077, 42.334571], [-1.032093, 42.334281], [-1.032098, 42.334207], [-1.032107, 42.333778], [-1.032073, 42.333355], [-1.031126, 42.332538], [-1.030734, 42.332088], [-1.030452, 42.331757], [-1.030261, 42.331679], [-1.030256, 42.332371], [-1.031165, 42.333224], [-1.031473, 42.334177], [-1.031377, 42.334559], [-1.031295, 42.334887], [-1.031272, 42.335482], [-1.031399, 42.335928], [-1.031724, 42.336254], [-1.031054, 42.336459], [-1.031299, 42.336827], [-1.031445, 42.33714], [-1.032267, 42.33728], [-1.032043, 42.337502], [-1.031406, 42.337407], [-1.031446, 42.337863], [-1.031043, 42.338072], [-1.030267, 42.33842], [-1.029635, 42.338588], [-1.029297, 42.338198], [-1.02922, 42.337779], [-1.02893, 42.337646], [-1.028739, 42.337569], [-1.028685, 42.337279], [-1.028978, 42.33695], [-1.028515, 42.336837], [-1.028332, 42.336561], [-1.028001, 42.336926], [-1.027874, 42.337434], [-1.027606, 42.33766], [-1.027759, 42.337052], [-1.027841, 42.336779], [-1.028005, 42.336466], [-1.027963, 42.33624], [-1.027299, 42.336477], [-1.025759, 42.336515], [-1.024955, 42.336472], [-1.024311, 42.336575], [-1.024047, 42.337065], [-1.023699, 42.337333], [-1.023554, 42.33679], [-1.023501, 42.3365], [-1.023359, 42.33645], [-1.022942, 42.336825], [-1.022549, 42.336374], [-1.022829, 42.336212], [-1.023467, 42.336076], [-1.023926, 42.335927], [-1.024144, 42.335673], [-1.024254, 42.335069], [-1.024622, 42.334667], [-1.025051, 42.334357], [-1.025364, 42.334618], [-1.025658, 42.33429], [-1.025507, 42.333715], [-1.025503, 42.333452], [-1.025558, 42.333411], [-1.02543, 42.333432], [-1.02571, 42.333097], [-1.025999, 42.333108], [-1.026153, 42.332856], [-1.025953, 42.332708], [-1.026361, 42.33228], [-1.026361, 42.331811], [-1.026554, 42.33162], [-1.027099, 42.331155], [-1.026766, 42.331213], [-1.026294, 42.331606], [-1.02612, 42.331902], [-1.025766, 42.332622], [-1.025552, 42.332859], [-1.025269, 42.333188], [-1.024714, 42.332972], [-1.02476, 42.332605], [-1.025058, 42.332508], [-1.025307, 42.33231], [-1.025306, 42.331991], [-1.025479, 42.331844], [-1.025541, 42.331561], [-1.025526, 42.331477], [-1.025755, 42.331324], [-1.025527, 42.331078], [-1.025626, 42.330934], [-1.026005, 42.330658], [-1.026239, 42.330377], [-1.026427, 42.329845], [-1.026482, 42.329519], [-1.026539, 42.329364], [-1.026089, 42.329563], [-1.026088, 42.329094], [-1.026315, 42.328771], [-1.026204, 42.328634], [-1.025521, 42.328965], [-1.025677, 42.329501], [-1.02525, 42.329825], [-1.024725, 42.330394], [-1.024225, 42.330321], [-1.024204, 42.330314], [-1.023829, 42.330194], [-1.023805, 42.330117], [-1.023759, 42.329968], [-1.024045, 42.329659], [-1.0246, 42.329407], [-1.025008, 42.328979], [-1.02497, 42.328621], [-1.024955, 42.328537], [-1.025461, 42.328332], [-1.025608, 42.328039], [-1.025336, 42.327963], [-1.025005, 42.327932], [-1.025057, 42.32768], [-1.024874, 42.327404], [-1.024836, 42.327347], [-1.024512, 42.327223], [-1.024462, 42.326951], [-1.024287, 42.326779], [-1.024233, 42.326487], [-1.024158, 42.326389], [-1.024305, 42.325946], [-1.024308, 42.32594], [-1.024193, 42.325868], [-1.023353, 42.325631], [-1.023234, 42.324987], [-1.022803, 42.324804], [-1.023041, 42.324416], [-1.022989, 42.324387], [-1.023288, 42.324312], [-1.023369, 42.324282], [-1.023566, 42.324111], [-1.023376, 42.323855], [-1.023434, 42.323551], [-1.02344, 42.323273], [-1.023061, 42.323062], [-1.023132, 42.322992], [-1.023176, 42.322626], [-1.022536, 42.322563], [-1.02281, 42.322341], [-1.022899, 42.322246], [-1.022445, 42.322146], [-1.022536, 42.321971], [-1.022608, 42.321833], [-1.022642, 42.321533], [-1.022575, 42.321409], [-1.022266, 42.320456], [-1.022091, 42.320413], [-1.02207, 42.320187], [-1.021837, 42.32017], [-1.021771, 42.320335], [-1.021526, 42.320274], [-1.02128, 42.320032], [-1.021164, 42.320244], [-1.021118, 42.320462], [-1.020757, 42.320522], [-1.020468, 42.320554], [-1.019809, 42.320792], [-1.019486, 42.320959], [-1.019244, 42.320697], [-1.019188, 42.320397], [-1.019005, 42.320332], [-1.018757, 42.320231], [-1.018581, 42.320208], [-1.0182, 42.320314], [-1.018014, 42.320547], [-1.017955, 42.320852], [-1.017724, 42.321303], [-1.017778, 42.32142], [-1.017205, 42.321538], [-1.016658, 42.321927], [-1.016742, 42.321974], [-1.017102, 42.322174], [-1.017409, 42.322404], [-1.017307, 42.32281], [-1.017451, 42.323353], [-1.016293, 42.323546], [-1.015232, 42.324024], [-1.014411, 42.324607], [-1.011956, 42.325436], [-1.011261, 42.325742], [-1.010413, 42.325704], [-1.009834, 42.325439], [-1.009804, 42.325277], [-1.00942, 42.324629], [-1.009118, 42.324432], [-1.008372, 42.324218], [-1.007514, 42.323884], [-1.007144, 42.323793], [-1.006622, 42.323357], [-1.006355, 42.32263], [-1.006229, 42.322184], [-1.005856, 42.3216], [-1.005564, 42.320974], [-1.005052, 42.320833], [-1.004061, 42.320251], [-1.002693, 42.319546], [-1.00201, 42.319194], [-1.001866, 42.319374], [-1.001074, 42.319395], [-1.000937, 42.318852], [-1.001178, 42.318759], [-1.001273, 42.318551], [-1.001245, 42.31816], [-1.001032, 42.317723], [-1.000904, 42.317556], [-1.000897, 42.317425], [-1.000787, 42.317355], [-1.000586, 42.316982], [-1.000572, 42.316425], [-1.000559, 42.316269], [-1.000538, 42.316001], [-1.000534, 42.315738], [-1.001326, 42.316441], [-1.001697, 42.316532], [-1.002031, 42.316429], [-1.002443, 42.316746], [-1.002746, 42.316712], [-1.003304, 42.316618], [-1.003231, 42.316462], [-1.003053, 42.316218], [-1.003333, 42.316056], [-1.003279, 42.315766], [-1.002645, 42.315441], [-1.00217, 42.315263], [-1.001782, 42.315075], [-1.001654, 42.314859], [-1.002113, 42.31471], [-1.001992, 42.314296], [-1.001829, 42.313886], [-1.00172, 42.313536], [-1.001383, 42.313146], [-1.001121, 42.313405], [-1.000798, 42.313572], [-1.000568, 42.313761], [-1.000929, 42.314281], [-1.000513, 42.314425], [-1.000512, 42.314656], [-1.000283, 42.314615], [-0.999944, 42.314455], [-0.999278, 42.314199], [-0.999053, 42.314095], [-0.998699, 42.313934], [-0.99886, 42.313685], [-0.998906, 42.313615], [-0.999223, 42.313416], [-0.999319, 42.312978], [-0.998583, 42.313003], [-0.998441, 42.313008], [-0.998199, 42.313133], [-0.997635, 42.313195], [-0.997161, 42.313017], [-0.995634, 42.312165], [-0.995986, 42.311436], [-0.995436, 42.311332], [-0.995501, 42.310963], [-0.996667, 42.310572], [-0.996678, 42.309931], [-0.997594, 42.309286], [-0.997979, 42.309201], [-0.998323, 42.309206], [-0.998625, 42.308981], [-0.99853, 42.30831], [-0.998347, 42.308245], [-0.9982, 42.30807], [-0.998183, 42.307667], [-0.998001, 42.307453], [-0.997947, 42.30716], [-0.997679, 42.307105], [-0.997229, 42.306835], [-0.996961, 42.306779], [-0.996446, 42.306622], [-0.996429, 42.306595], [-0.996323, 42.306423], [-0.996104, 42.306319], [-0.995897, 42.306129], [-0.996279, 42.305874], [-0.996777, 42.305777], [-0.997085, 42.305743], [-0.997136, 42.30548], [-0.996956, 42.305157], [-0.996951, 42.305148], [-0.996665, 42.304816], [-0.99636, 42.304758], [-0.99611, 42.304487], [-0.99646, 42.304272], [-0.996702, 42.304124], [-0.996955, 42.303947], [-0.997141, 42.303714], [-0.996917, 42.30327], [-0.99693, 42.303241], [-0.996998, 42.303091], [-0.997363, 42.303063], [-0.997619, 42.303044], [-0.997915, 42.303097], [-0.99862, 42.30304], [-0.998421, 42.302892], [-0.997919, 42.302649], [-0.997739, 42.302605], [-0.997612, 42.302384], [-0.997385, 42.30177], [-0.997323, 42.301703], [-0.997762, 42.301146], [-0.996705, 42.301163], [-0.99661, 42.300647], [-0.996848, 42.300259], [-0.996771, 42.29984], [-0.996792, 42.299476], [-0.996869, 42.299172], [-0.99715, 42.298779], [-0.997717, 42.29898], [-0.998241, 42.299186], [-0.998674, 42.299138], [-0.999135, 42.298759], [-0.999388, 42.297975], [-0.999571, 42.297527], [-0.999965, 42.297024], [-1.000443, 42.296741], [-1.000693, 42.296418], [-1.001068, 42.295817], [-1.00095, 42.295173], [-1.001146, 42.294559], [-1.001213, 42.29396], [-1.001175, 42.293273], [-1.001338, 42.29296], [-1.001618, 42.292797], [-1.002148, 42.293035], [-1.002251, 42.292399], [-1.002125, 42.291953], [-1.001956, 42.291511], [-1.001692, 42.291277], [-1.001193, 42.29097], [-1.001155, 42.290915], [-1.000817, 42.290846], [-1.000665, 42.290501], [-1.000894, 42.290304], [-1.000848, 42.290054], [-1.000868, 42.28992], [-1.001163, 42.289362], [-1.001235, 42.288795], [-1.00104, 42.288454], [-1.000652, 42.288267], [-1.000487, 42.288087], [-1.000423, 42.287502], [-1.0006, 42.287023], [-1.000714, 42.286681], [-1.000773, 42.28628], [-1.001025, 42.285726], [-1.001365, 42.285656], [-1.001733, 42.285254], [-1.001898, 42.28471], [-1.002452, 42.283399], [-1.002987, 42.282223], [-1.003068, 42.282181], [-1.003973, 42.281818], [-1.003796, 42.281575], [-1.003404, 42.281125], [-1.003696, 42.280871], [-1.004189, 42.280729], [-1.004674, 42.280569], [-1.004649, 42.280429], [-1.005143, 42.280375], [-1.005714, 42.280476], [-1.005625, 42.279993], [-1.005361, 42.279759], [-1.004858, 42.279572], [-1.004745, 42.27953], [-1.00475, 42.279325], [-1.004755, 42.279102], [-1.004565, 42.278794], [-1.004475, 42.278541], [-1.004582, 42.278329], [-1.004669, 42.278158], [-1.00487, 42.277807], [-1.004319, 42.277933], [-1.003937, 42.277777], [-1.003933, 42.277515], [-1.004502, 42.277485], [-1.004997, 42.277299], [-1.004497, 42.277223], [-1.004425, 42.277066], [-1.004686, 42.276807], [-1.004867, 42.27659], [-1.004629, 42.276255], [-1.004828, 42.276022], [-1.005275, 42.275903], [-1.005407, 42.275527], [-1.005399, 42.275462], [-1.005563, 42.27533], [-1.005468, 42.274814], [-1.005485, 42.274776], [-1.005573, 42.274721], [-1.005996, 42.274845], [-1.006169, 42.274698], [-1.006299, 42.274471], [-1.006624, 42.274371], [-1.006624, 42.273944], [-1.00717, 42.273739], [-1.007406, 42.273582], [-1.007514, 42.273626], [-1.007788, 42.273737], [-1.007835, 42.273659], [-1.008179, 42.273464], [-1.008411, 42.273044], [-1.008421, 42.273021], [-1.00891, 42.2728], [-1.009335, 42.272625], [-1.00931, 42.272358], [-1.009369, 42.272248], [-1.008969, 42.271996], [-1.008568, 42.271975], [-1.008676, 42.271601], [-1.008799, 42.271076], [-1.008968, 42.270666], [-1.008937, 42.270619], [-1.008817, 42.270165], [-1.009198, 42.27017], [-1.009542, 42.270175], [-1.00962, 42.269982], [-1.009708, 42.270008], [-1.010255, 42.269619], [-1.010263, 42.269421], [-1.010105, 42.269043], [-1.010368, 42.268554], [-1.01073, 42.26812], [-1.011299, 42.26809], [-1.011521, 42.268099], [-1.012221, 42.267824], [-1.012725, 42.26744], [-1.012963, 42.267052], [-1.013027, 42.266683], [-1.012988, 42.266227], [-1.013412, 42.265655], [-1.013687, 42.26523], [-1.013974, 42.264869], [-1.014218, 42.264514], [-1.014525, 42.26402], [-1.014769, 42.263664], [-1.014412, 42.263407], [-1.014717, 42.263143], [-1.015064, 42.263043], [-1.015328, 42.263065], [-1.015633, 42.262861], [-1.015851, 42.262646], [-1.016042, 42.262284], [-1.016049, 42.262205], [-1.016227, 42.261991], [-1.016569, 42.26169], [-1.017116, 42.261301], [-1.017153, 42.261264], [-1.017403, 42.261078], [-1.017556, 42.261031], [-1.017925, 42.260863], [-1.018147, 42.260668], [-1.018309, 42.260459], [-1.018259, 42.260431], [-1.018248, 42.260425], [-1.018149, 42.26037], [-1.017761, 42.260434], [-1.0176, 42.260494], [-1.017743, 42.26018], [-1.018058, 42.25972], [-1.018011, 42.259618], [-1.017501, 42.259802], [-1.017356, 42.259946], [-1.01716, 42.259955], [-1.017099, 42.259527], [-1.017679, 42.259562], [-1.017525, 42.258724], [-1.018655, 42.258863], [-1.018353, 42.257942], [-1.018205, 42.257496], [-1.018285, 42.257301], [-1.018699, 42.257181], [-1.018973, 42.256033], [-1.019252, 42.25587], [-1.019281, 42.255308], [-1.019537, 42.255017], [-1.020231, 42.25471], [-1.02032, 42.25447], [-1.020612, 42.254142], [-1.021344, 42.253799], [-1.021816, 42.253484], [-1.022083, 42.253257], [-1.02253, 42.253043], [-1.022862, 42.252448], [-1.023087, 42.251996], [-1.023782, 42.252412], [-1.024043, 42.25143], [-1.02466, 42.250704], [-1.024757, 42.250552], [-1.02531, 42.249679], [-1.025725, 42.249535], [-1.025647, 42.25007], [-1.025891, 42.250266], [-1.026114, 42.250446], [-1.026419, 42.250182], [-1.026563, 42.250088], [-1.026831, 42.250012], [-1.027256, 42.249695], [-1.027838, 42.249404], [-1.028033, 42.249122], [-1.028327, 42.248698], [-1.02837, 42.248636], [-1.027996, 42.247476], [-1.027762, 42.247403], [-1.028099, 42.24684], [-1.028952, 42.245957], [-1.029125, 42.245938], [-1.029779, 42.246129], [-1.029852, 42.246526], [-1.029891, 42.246741], [-1.030361, 42.246657], [-1.030133, 42.246129], [-1.030131, 42.246123], [-1.030139, 42.246121], [-1.030886, 42.245908], [-1.030536, 42.245684], [-1.03048, 42.245641], [-1.029866, 42.245166], [-1.029864, 42.244673], [-1.029816, 42.244415], [-1.030325, 42.243339], [-1.030903, 42.242881], [-1.031254, 42.242152], [-1.031647, 42.241648], [-1.031697, 42.240722], [-1.031824, 42.240214], [-1.031594, 42.239681], [-1.031595, 42.23945], [-1.03187, 42.239025], [-1.032114, 42.23867], [-1.032464, 42.238894], [-1.03309, 42.238694], [-1.03346, 42.239508], [-1.03333, 42.239522], [-1.033081, 42.239846], [-1.034164, 42.24006], [-1.034312, 42.240212], [-1.034576, 42.240098], [-1.034634, 42.239943], [-1.034518, 42.239729], [-1.034676, 42.239637], [-1.034811, 42.238932], [-1.035035, 42.23871], [-1.035583, 42.238649], [-1.03577, 42.238629], [-1.036353, 42.238433], [-1.036787, 42.238155], [-1.03736, 42.238388], [-1.037607, 42.238295], [-1.037971, 42.238353], [-1.038276, 42.23809], [-1.038771, 42.237904], [-1.038954, 42.237456], [-1.039522, 42.237426], [-1.03959, 42.236597], [-1.039126, 42.236713], [-1.038922, 42.236254], [-1.039148, 42.236156], [-1.03948, 42.236016], [-1.039765, 42.235904], [-1.040001, 42.235817], [-1.040132, 42.235775], [-1.040146, 42.235779], [-1.041129, 42.235605], [-1.041496, 42.235203], [-1.041586, 42.234732], [-1.041043, 42.234706], [-1.041232, 42.234425], [-1.041589, 42.233842], [-1.042142, 42.233915], [-1.042793, 42.233613], [-1.043298, 42.233721], [-1.044149, 42.233068], [-1.044731, 42.232873], [-1.04479, 42.232533], [-1.04486, 42.232135], [-1.045689, 42.231846], [-1.046544, 42.23241], [-1.046965, 42.232298], [-1.047266, 42.232495], [-1.047606, 42.232424], [-1.047647, 42.23265], [-1.04829, 42.232546], [-1.048536, 42.232683], [-1.049062, 42.232658], [-1.049276, 42.232865], [-1.0499, 42.232895], [-1.048988, 42.233456], [-1.048817, 42.233968], [-1.048696, 42.234508], [-1.048897, 42.23488], [-1.049222, 42.235206], [-1.049725, 42.235776], [-1.049536, 42.236191], [-1.049875, 42.236351], [-1.049877, 42.236844], [-1.049143, 42.237208], [-1.049109, 42.237225], [-1.048554, 42.237089], [-1.04873, 42.237563], [-1.048849, 42.237736], [-1.04875, 42.237893], [-1.048268, 42.238486], [-1.047938, 42.238605], [-1.047745, 42.238796], [-1.047756, 42.23903], [-1.047585, 42.239212], [-1.047428, 42.239396], [-1.047054, 42.23949], [-1.046594, 42.23987], [-1.046333, 42.240129], [-1.046477, 42.240672], [-1.046791, 42.240898], [-1.046834, 42.240929], [-1.047245, 42.241245], [-1.047281, 42.241439], [-1.047323, 42.241664], [-1.047455, 42.242143], [-1.047267, 42.242558], [-1.047326, 42.242881], [-1.047805, 42.243321], [-1.047846, 42.243547], [-1.047877, 42.244432], [-1.047906, 42.244591], [-1.047913, 42.244625], [-1.048197, 42.245449], [-1.048282, 42.24567], [-1.048634, 42.245664], [-1.04911, 42.245611], [-1.049287, 42.245855], [-1.049298, 42.24615], [-1.048869, 42.24646], [-1.048557, 42.246922], [-1.048542, 42.247318], [-1.049422, 42.24778], [-1.049704, 42.248111], [-1.049871, 42.24806], [-1.050218, 42.248745], [-1.050965, 42.248728], [-1.051339, 42.248358], [-1.051594, 42.248067], [-1.052219, 42.247867], [-1.052303, 42.247871], [-1.052304, 42.248087], [-1.052315, 42.248382], [-1.052318, 42.248582], [-1.052319, 42.248645], [-1.052325, 42.248677], [-1.05309, 42.248757], [-1.053615, 42.248732], [-1.053605, 42.248437], [-1.054372, 42.248287], [-1.054599, 42.247604], [-1.055222, 42.247864], [-1.055926, 42.247852], [-1.056308, 42.248008], [-1.0564, 42.248052], [-1.05663, 42.248923], [-1.056498, 42.249039], [-1.056196, 42.249796], [-1.056965, 42.249415], [-1.057018, 42.249705], [-1.055566, 42.250688], [-1.055594, 42.251079], [-1.055221, 42.251449], [-1.054763, 42.251598], [-1.054637, 42.251875], [-1.055084, 42.252385], [-1.055989, 42.252022], [-1.055683, 42.252516], [-1.0556, 42.252789], [-1.054944, 42.253058], [-1.054848, 42.253497], [-1.05463, 42.253751], [-1.054707, 42.25417], [-1.054601, 42.254313], [-1.054587, 42.254341], [-1.054006, 42.254675], [-1.054077, 42.255062], [-1.054098, 42.255093], [-1.054091, 42.255094], [-1.054445, 42.255383], [-1.054666, 42.255621], [-1.055644, 42.255415], [-1.055666, 42.255774], [-1.056685, 42.255793], [-1.057231, 42.255404], [-1.057392, 42.256275], [-1.057911, 42.256217], [-1.057922, 42.255558], [-1.058349, 42.255478], [-1.058515, 42.255657], [-1.058855, 42.255587], [-1.05863, 42.255086], [-1.058608, 42.254726], [-1.059102, 42.25477], [-1.059674, 42.255003], [-1.059652, 42.254644], [-1.060073, 42.254532], [-1.060431, 42.254558], [-1.060974, 42.25463], [-1.061339, 42.254688], [-1.061562, 42.254466], [-1.062224, 42.254459], [-1.062393, 42.2549], [-1.062886, 42.255175], [-1.063102, 42.255151], [-1.063465, 42.25544], [-1.063744, 42.255278], [-1.063229, 42.254644], [-1.062756, 42.254236], [-1.062457, 42.253808], [-1.062291, 42.253629], [-1.061737, 42.252539], [-1.06182, 42.252037], [-1.061859, 42.251769], [-1.061589, 42.251503], [-1.06086, 42.251616], [-1.060608, 42.251447], [-1.061024, 42.251072], [-1.06123, 42.250753], [-1.061247, 42.250127], [-1.06068, 42.249926], [-1.060364, 42.250125], [-1.060131, 42.249822], [-1.059745, 42.249404], [-1.060172, 42.248371], [-1.060169, 42.247877], [-1.059728, 42.2474], [-1.060371, 42.247296], [-1.060489, 42.247217], [-1.0605, 42.246558], [-1.060767, 42.246332], [-1.060982, 42.246538], [-1.060703, 42.2467], [-1.061059, 42.246957], [-1.061354, 42.247122], [-1.061417, 42.246983], [-1.061286, 42.246274], [-1.061619, 42.245448], [-1.061979, 42.245244], [-1.061215, 42.244934], [-1.060587, 42.244641], [-1.060862, 42.244216], [-1.061487, 42.244016], [-1.061532, 42.24378], [-1.06127, 42.243316], [-1.061261, 42.242791], [-1.061382, 42.242251], [-1.061751, 42.242572], [-1.062158, 42.242626], [-1.062273, 42.243008], [-1.06168, 42.242909], [-1.061506, 42.243158], [-1.061682, 42.243632], [-1.062217, 42.243902], [-1.062504, 42.243542], [-1.062459, 42.242823], [-1.062894, 42.242545], [-1.063312, 42.24194], [-1.062843, 42.241794], [-1.062354, 42.242012], [-1.062084, 42.241746], [-1.061122, 42.241556], [-1.061261, 42.241113], [-1.061608, 42.240845], [-1.061692, 42.240342], [-1.062263, 42.239128], [-1.063063, 42.238678], [-1.063694, 42.23851], [-1.063952, 42.238711], [-1.064732, 42.238395], [-1.064964, 42.237975], [-1.065167, 42.238117], [-1.0657, 42.238617], [-1.06552, 42.238834], [-1.064814, 42.239077], [-1.064909, 42.239592], [-1.065267, 42.239619], [-1.065902, 42.23899], [-1.065358, 42.239872], [-1.064778, 42.239837], [-1.064374, 42.239323], [-1.063491, 42.239322], [-1.063271, 42.239806], [-1.062728, 42.239735], [-1.06178, 42.241056], [-1.062038, 42.241258], [-1.062321, 42.241358], [-1.062648, 42.241454], [-1.06289, 42.241328], [-1.063055, 42.241507], [-1.063764, 42.241758], [-1.064082, 42.241328], [-1.06402, 42.240513], [-1.064334, 42.240544], [-1.064585, 42.23999], [-1.06493, 42.240182], [-1.065001, 42.240569], [-1.065865, 42.241658], [-1.066224, 42.241453], [-1.066493, 42.240996], [-1.066635, 42.241046], [-1.066941, 42.242229], [-1.067534, 42.242328], [-1.067567, 42.242029], [-1.06736, 42.241624], [-1.067138, 42.240662], [-1.067311, 42.240643], [-1.067563, 42.240812], [-1.068203, 42.241169], [-1.067564, 42.241536], [-1.067871, 42.241765], [-1.068217, 42.242681], [-1.067672, 42.242839], [-1.068096, 42.24322], [-1.068927, 42.242701], [-1.06954, 42.24339], [-1.069259, 42.243782], [-1.068375, 42.244012], [-1.069271, 42.244801], [-1.068854, 42.245176], [-1.069272, 42.245524], [-1.069915, 42.246374], [-1.069598, 42.246573], [-1.06967, 42.24696], [-1.070121, 42.247009], [-1.0696, 42.247297], [-1.070235, 42.247391], [-1.070044, 42.248267], [-1.069607, 42.248052], [-1.06895, 42.248322], [-1.069336, 42.24874], [-1.069144, 42.248893], [-1.068692, 42.248121], [-1.068389, 42.248154], [-1.06865, 42.248849], [-1.068662, 42.249867], [-1.068354, 42.249638], [-1.068328, 42.249016], [-1.068109, 42.248547], [-1.068085, 42.248557], [-1.068058, 42.24878], [-1.068076, 42.249034], [-1.068097, 42.249457], [-1.068056, 42.249576], [-1.068227, 42.250145], [-1.068623, 42.250134], [-1.069323, 42.251537], [-1.069692, 42.251858], [-1.069868, 42.252332], [-1.069717, 42.252711], [-1.070132, 42.252566], [-1.070305, 42.25278], [-1.070367, 42.252764], [-1.070622, 42.252906], [-1.070973, 42.253101], [-1.070581, 42.253412], [-1.070643, 42.253661], [-1.070382, 42.25392], [-1.070735, 42.254637], [-1.07062, 42.255209], [-1.070432, 42.255624], [-1.070386, 42.25609], [-1.069777, 42.256618], [-1.069396, 42.256824], [-1.070602, 42.25702], [-1.071135, 42.256797], [-1.071106, 42.256405], [-1.071117, 42.255746], [-1.071308, 42.255824], [-1.071399, 42.256077], [-1.072059, 42.2563], [-1.071618, 42.256546], [-1.072091, 42.256954], [-1.072506, 42.257763], [-1.072927, 42.257651], [-1.073411, 42.258124], [-1.073591, 42.258691], [-1.073835, 42.259458], [-1.074439, 42.259622], [-1.074906, 42.259998], [-1.075063, 42.259652], [-1.075359, 42.259816], [-1.075548, 42.260124], [-1.076344, 42.260319], [-1.077121, 42.26051], [-1.076799, 42.260677], [-1.076858, 42.260999], [-1.076617, 42.260892], [-1.076088, 42.260657], [-1.075096, 42.260306], [-1.07453, 42.260829], [-1.074534, 42.261091], [-1.074819, 42.260961], [-1.07551, 42.261115], [-1.075495, 42.261511], [-1.07554, 42.26223], [-1.075082, 42.262379], [-1.074328, 42.262364], [-1.07424, 42.262604], [-1.074628, 42.262791], [-1.074658, 42.262952], [-1.075062, 42.263467], [-1.074838, 42.263689], [-1.074549, 42.263556], [-1.074069, 42.26407], [-1.07415, 42.264508], [-1.074201, 42.264779], [-1.074248, 42.265991], [-1.073537, 42.26597], [-1.073609, 42.266357], [-1.074169, 42.266756], [-1.074197, 42.267147], [-1.074673, 42.267095], [-1.075085, 42.267411], [-1.07576, 42.267238], [-1.075566, 42.266667], [-1.075111, 42.266356], [-1.074997, 42.265743], [-1.074556, 42.265266], [-1.074596, 42.264768], [-1.075445, 42.264345], [-1.075651, 42.264027], [-1.075868, 42.263819], [-1.076777, 42.262948], [-1.076731, 42.263414], [-1.076738, 42.26347], [-1.07683, 42.264192], [-1.077422, 42.263568], [-1.077523, 42.263162], [-1.07778, 42.26264], [-1.078004, 42.262418], [-1.0781, 42.26198], [-1.078485, 42.261674], [-1.078742, 42.261153], [-1.078807, 42.261507], [-1.079259, 42.261326], [-1.079509, 42.261002], [-1.078928, 42.260968], [-1.078763, 42.260789], [-1.079289, 42.260533], [-1.079889, 42.260434], [-1.080452, 42.260372], [-1.080564, 42.260261], [-1.08103, 42.259913], [-1.08087, 42.258812], [-1.080278, 42.258714], [-1.079932, 42.258771], [-1.079799, 42.25892], [-1.079834, 42.259108], [-1.079647, 42.259349], [-1.079615, 42.259905], [-1.079245, 42.259814], [-1.079261, 42.259188], [-1.079617, 42.258721], [-1.079976, 42.258517], [-1.080342, 42.258345], [-1.080227, 42.257963], [-1.080824, 42.25737], [-1.081408, 42.256944], [-1.081951, 42.257016], [-1.082446, 42.256829], [-1.082888, 42.256353], [-1.083261, 42.255983], [-1.083502, 42.255134], [-1.084257, 42.254919], [-1.083546, 42.255853], [-1.083469, 42.256387], [-1.083363, 42.257484], [-1.08294, 42.257827], [-1.082806, 42.258533], [-1.083024, 42.259232], [-1.083419, 42.259221], [-1.083797, 42.259114], [-1.084009, 42.258827], [-1.083906, 42.25851], [-1.084148, 42.258384], [-1.084422, 42.257959], [-1.084677, 42.257668], [-1.084734, 42.257497], [-1.084588, 42.257184], [-1.085295, 42.256712], [-1.085774, 42.257152], [-1.085606, 42.257434], [-1.085431, 42.257683], [-1.085767, 42.258304], [-1.085543, 42.258526], [-1.085843, 42.258953], [-1.086231, 42.259141], [-1.086591, 42.258936], [-1.087126, 42.259206], [-1.087962, 42.259903], [-1.088132, 42.259391], [-1.088607, 42.259569], [-1.088747, 42.260803], [-1.088086, 42.26081], [-1.088189, 42.261128], [-1.088559, 42.261218], [-1.088569, 42.261513], [-1.086928, 42.262188], [-1.085662, 42.262986], [-1.084835, 42.262814], [-1.085184, 42.263269], [-1.085695, 42.26364], [-1.085417, 42.264526], [-1.08479, 42.264957], [-1.085029, 42.265292], [-1.084311, 42.26547], [-1.083684, 42.265902], [-1.082957, 42.265554], [-1.083482, 42.267437], [-1.083016, 42.267784], [-1.082375, 42.267658], [-1.082304, 42.267995], [-1.081981, 42.268392], [-1.081621, 42.268596], [-1.081072, 42.268493], [-1.081365, 42.268888], [-1.08187, 42.269227], [-1.081595, 42.269652], [-1.08105, 42.269811], [-1.080221, 42.269146], [-1.079818, 42.269355], [-1.07974, 42.26989], [-1.079596, 42.270465], [-1.080192, 42.270662], [-1.080683, 42.271167], [-1.080674, 42.271595], [-1.08096, 42.272188], [-1.081055, 42.271981], [-1.081068, 42.270861], [-1.080485, 42.270334], [-1.081047, 42.270271], [-1.081438, 42.269998], [-1.081916, 42.269715], [-1.082439, 42.269197], [-1.082395, 42.270155], [-1.082573, 42.270399], [-1.08214, 42.2714], [-1.082143, 42.271893], [-1.081862, 42.272286], [-1.081532, 42.272652], [-1.08105, 42.273626], [-1.081321, 42.273661], [-1.081398, 42.274311], [-1.081841, 42.273604], [-1.082222, 42.273036], [-1.082432, 42.27298], [-1.083019, 42.273046], [-1.083026, 42.272848], [-1.083665, 42.272481], [-1.083253, 42.272165], [-1.08367, 42.27179], [-1.083185, 42.271318], [-1.08318, 42.271055], [-1.08384, 42.270324], [-1.083345, 42.269557], [-1.084206, 42.269199], [-1.084306, 42.269023], [-1.084878, 42.268532], [-1.085696, 42.268179], [-1.086236, 42.268711], [-1.086284, 42.268969], [-1.085955, 42.269104], [-1.086354, 42.269586], [-1.087015, 42.269579], [-1.087569, 42.269945], [-1.087761, 42.268838], [-1.087221, 42.26926], [-1.087361, 42.268586], [-1.087887, 42.268561], [-1.088312, 42.268712], [-1.088642, 42.268346], [-1.089215, 42.267625], [-1.089754, 42.267434], [-1.090014, 42.267405], [-1.090623, 42.267831], [-1.090403, 42.268316], [-1.089608, 42.269029], [-1.090365, 42.268583], [-1.090063, 42.26934], [-1.089612, 42.270245], [-1.089444, 42.270527], [-1.089393, 42.27073], [-1.089173, 42.271215], [-1.089232, 42.271767], [-1.089696, 42.27165], [-1.090356, 42.272827], [-1.090057, 42.273123], [-1.090135, 42.273542], [-1.09022, 42.273763], [-1.090336, 42.273914], [-1.090778, 42.274392], [-1.090541, 42.27478], [-1.090453, 42.27502], [-1.090218, 42.275506], [-1.09029, 42.275566], [-1.09069, 42.275564], [-1.091354, 42.275597], [-1.091562, 42.275638], [-1.091832, 42.276013], [-1.091898, 42.276219], [-1.091693, 42.276348], [-1.091311, 42.276135], [-1.090733, 42.276262], [-1.091105, 42.276413], [-1.091222, 42.27689], [-1.090626, 42.276764], [-1.090498, 42.276842], [-1.091004, 42.277106], [-1.090942, 42.277389], [-1.090696, 42.277757], [-1.090566, 42.277985], [-1.090409, 42.278215], [-1.090519, 42.278501], [-1.090616, 42.278874], [-1.090511, 42.279077], [-1.090297, 42.279314], [-1.089704, 42.280125], [-1.08943, 42.280347], [-1.089174, 42.280371], [-1.088921, 42.280531], [-1.088615, 42.280735], [-1.088006, 42.281463], [-1.088159, 42.281978], [-1.087842, 42.28212], [-1.087208, 42.282871], [-1.087407, 42.283169], [-1.086735, 42.28433], [-1.086323, 42.284551], [-1.086534, 42.284629], [-1.086399, 42.285335], [-1.085849, 42.285419], [-1.085626, 42.285453], [-1.084996, 42.286345], [-1.083894, 42.286599], [-1.083883, 42.287258], [-1.084455, 42.286767], [-1.084488, 42.287421], [-1.085224, 42.28734], [-1.084894, 42.287705], [-1.085335, 42.288413], [-1.085612, 42.288481], [-1.08573, 42.289356], [-1.085224, 42.289247], [-1.085636, 42.289563], [-1.086578, 42.289725], [-1.087435, 42.289496], [-1.087483, 42.289754], [-1.088201, 42.289576], [-1.088703, 42.290375], [-1.089009, 42.290835], [-1.089551, 42.291137], [-1.090225, 42.291194], [-1.090892, 42.292172], [-1.091282, 42.292129], [-1.091482, 42.292732], [-1.091216, 42.293155], [-1.091445, 42.293239], [-1.091691, 42.292906], [-1.092161, 42.292821], [-1.0923, 42.292378], [-1.092575, 42.292907], [-1.093071, 42.292721], [-1.093322, 42.292167], [-1.093555, 42.29247], [-1.094433, 42.292439], [-1.094796, 42.292727], [-1.094984, 42.292312], [-1.095738, 42.292327], [-1.095759, 42.292917], [-1.096087, 42.292782], [-1.097477, 42.292891], [-1.097503, 42.29279], [-1.099053, 42.293046], [-1.099883, 42.29371], [-1.100065, 42.294216], [-1.100628, 42.294154], [-1.10109, 42.294497], [-1.101365, 42.295026], [-1.101083, 42.295649], [-1.100889, 42.296033], [-1.100887, 42.296263], [-1.101489, 42.296887], [-1.101628, 42.297398], [-1.101854, 42.298227], [-1.101906, 42.29842], [-1.100885, 42.298631], [-1.101361, 42.299532], [-1.100673, 42.299872], [-1.100286, 42.300408], [-1.100657, 42.300498], [-1.10139, 42.299924], [-1.101714, 42.30048], [-1.102501, 42.301149], [-1.103242, 42.30133], [-1.103562, 42.301624], [-1.102882, 42.301535], [-1.102013, 42.301138], [-1.101765, 42.301231], [-1.102233, 42.301607], [-1.102663, 42.302019], [-1.103154, 42.302524], [-1.103802, 42.302683], [-1.104149, 42.302644], [-1.104283, 42.302893], [-1.10368, 42.303453], [-1.103691, 42.303747], [-1.104336, 42.304367], [-1.104671, 42.304264], [-1.104724, 42.303603], [-1.104659, 42.303049], [-1.105253, 42.303014], [-1.105315, 42.302976], [-1.105689, 42.302605], [-1.106344, 42.302249], [-1.106371, 42.302234], [-1.106749, 42.302126], [-1.106801, 42.302271], [-1.107023, 42.302885], [-1.106934, 42.303125], [-1.10684, 42.303333], [-1.107236, 42.303322], [-1.107556, 42.303616], [-1.108108, 42.303258], [-1.109019, 42.302927], [-1.109544, 42.303132], [-1.110734, 42.302639], [-1.111126, 42.302464], [-1.111529, 42.302481], [-1.111735, 42.30249], [-1.112927, 42.301836], [-1.113019, 42.302089], [-1.113855, 42.301832], [-1.114043, 42.302371], [-1.1147, 42.3021], [-1.114788, 42.30186], [-1.115106, 42.301431], [-1.115361, 42.301139], [-1.115642, 42.300746], [-1.116206, 42.300453], [-1.116269, 42.300315], [-1.116432, 42.300001], [-1.116915, 42.29975], [-1.117101, 42.299795], [-1.117204, 42.300113], [-1.117238, 42.300536], [-1.117255, 42.300863], [-1.117976, 42.301178], [-1.118111, 42.301426], [-1.117935, 42.301906], [-1.118326, 42.302741], [-1.118375, 42.302844], [-1.118578, 42.302986], [-1.118657, 42.303175], [-1.11843, 42.303858], [-1.118646, 42.304064], [-1.118601, 42.304299], [-1.118172, 42.30461], [-1.117837, 42.304943], [-1.116828, 42.304989], [-1.116352, 42.305042], [-1.116264, 42.305282], [-1.117414, 42.305286], [-1.118095, 42.305145], [-1.118511, 42.30477], [-1.119157, 42.304435], [-1.119316, 42.304582], [-1.119339, 42.304941], [-1.119814, 42.305119], [-1.120241, 42.305038], [-1.120472, 42.304618], [-1.121691, 42.304516], [-1.122163, 42.3042], [-1.123035, 42.304137], [-1.123531, 42.30395], [-1.124397, 42.303854], [-1.125296, 42.303458], [-1.125816, 42.303401], [-1.126334, 42.303573], [-1.126815, 42.303783], [-1.127097, 42.304113], [-1.127349, 42.304513], [-1.127909, 42.304911], [-1.127913, 42.30422], [-1.128437, 42.304425], [-1.129044, 42.304358], [-1.129713, 42.304152], [-1.129837, 42.305059], [-1.130027, 42.306551], [-1.13039, 42.30684], [-1.130574, 42.307115], [-1.130932, 42.307141], [-1.131281, 42.307826], [-1.131657, 42.307949], [-1.131787, 42.307935], [-1.131664, 42.307751], [-1.131425, 42.307416], [-1.131374, 42.307289], [-1.131665, 42.307424], [-1.1319, 42.307611], [-1.132147, 42.307861], [-1.132405, 42.308173], [-1.132812, 42.308362], [-1.133007, 42.308639], [-1.133315, 42.308754], [-1.133061, 42.308313], [-1.13264, 42.307742], [-1.131241, 42.306965], [-1.131181, 42.306818], [-1.130897, 42.306718], [-1.130392, 42.306379], [-1.130774, 42.30558], [-1.131068, 42.305021], [-1.13112, 42.304588], [-1.131943, 42.304497], [-1.132045, 42.304339], [-1.132149, 42.304178], [-1.132107, 42.303952], [-1.132021, 42.303732], [-1.131346, 42.303905], [-1.131361, 42.303509], [-1.13095, 42.302962], [-1.130821, 42.302746], [-1.131102, 42.302353], [-1.131366, 42.302587], [-1.131719, 42.302581], [-1.132071, 42.302575], [-1.13242, 42.30326], [-1.132903, 42.303009], [-1.132715, 42.30247], [-1.133254, 42.302279], [-1.13342, 42.302458], [-1.133319, 42.302864], [-1.133801, 42.302843], [-1.134191, 42.3028], [-1.134192, 42.30257], [-1.134275, 42.302067], [-1.134319, 42.302062], [-1.135179, 42.301934], [-1.135298, 42.301625], [-1.134778, 42.301682], [-1.1339, 42.301714], [-1.133221, 42.301625], [-1.133123, 42.30134], [-1.13286, 42.300876], [-1.1329, 42.300378], [-1.132859, 42.299922], [-1.132384, 42.299744], [-1.132144, 42.299639], [-1.13206, 42.299188], [-1.131815, 42.298821], [-1.132286, 42.298505], [-1.132081, 42.298096], [-1.131691, 42.297879], [-1.131481, 42.297519], [-1.131406, 42.297272], [-1.131626, 42.296608], [-1.13166, 42.296328], [-1.131164, 42.296276], [-1.130745, 42.296025], [-1.130348, 42.29543], [-1.130404, 42.294806], [-1.130402, 42.294337], [-1.130525, 42.293919], [-1.130931, 42.29364], [-1.131563, 42.293655], [-1.13219, 42.293947], [-1.132507, 42.293931], [-1.132486, 42.293878], [-1.132864, 42.293771], [-1.133399, 42.29427], [-1.133839, 42.294024], [-1.134527, 42.293685], [-1.135023, 42.293498], [-1.134951, 42.293111], [-1.134281, 42.293548], [-1.133836, 42.293531], [-1.134252, 42.293156], [-1.13471, 42.293007], [-1.13455, 42.29286], [-1.133766, 42.292684], [-1.133602, 42.292274], [-1.132848, 42.292259], [-1.132249, 42.292129], [-1.1317, 42.292351], [-1.131573, 42.292631], [-1.131372, 42.292781], [-1.131097, 42.293302], [-1.130761, 42.293339], [-1.130447, 42.293502], [-1.130034, 42.29359], [-1.129952, 42.294068], [-1.129386, 42.294259], [-1.128921, 42.294374], [-1.128774, 42.294199], [-1.128992, 42.293834], [-1.128734, 42.293522], [-1.129192, 42.293215], [-1.129643, 42.292718], [-1.12989, 42.29235], [-1.130368, 42.291998], [-1.13075, 42.291743], [-1.130935, 42.291509], [-1.131125, 42.291297], [-1.131294, 42.29122], [-1.131346, 42.291078], [-1.130999, 42.290884], [-1.13083, 42.290946], [-1.130687, 42.290791], [-1.13085, 42.290283], [-1.131171, 42.290163], [-1.131493, 42.289893], [-1.131606, 42.289925], [-1.131774, 42.289813], [-1.132672, 42.290602], [-1.133326, 42.290792], [-1.133685, 42.290588], [-1.133675, 42.290293], [-1.134786, 42.290564], [-1.13518, 42.290783], [-1.135476, 42.290948], [-1.135742, 42.290951], [-1.136435, 42.290874], [-1.135517, 42.291404], [-1.135674, 42.292011], [-1.135252, 42.292354], [-1.135491, 42.29269], [-1.136134, 42.292585], [-1.136619, 42.292104], [-1.136961, 42.291803], [-1.137186, 42.29135], [-1.137138, 42.291092], [-1.137114, 42.290963], [-1.137559, 42.29098], [-1.137962, 42.290771], [-1.138174, 42.290484], [-1.138133, 42.290028], [-1.137726, 42.289975], [-1.137285, 42.290221], [-1.136846, 42.290237], [-1.136221, 42.290438], [-1.135593, 42.289915], [-1.134605, 42.289828], [-1.133151, 42.290088], [-1.132306, 42.28959], [-1.13252, 42.289073], [-1.131957, 42.289135], [-1.131861, 42.288619], [-1.131093, 42.28877], [-1.130984, 42.288421], [-1.129952, 42.288338], [-1.129632, 42.287091], [-1.130024, 42.286587], [-1.130732, 42.286113], [-1.130603, 42.285898], [-1.130539, 42.285819], [-1.130837, 42.285599], [-1.131055, 42.285383], [-1.130924, 42.285142], [-1.13078, 42.284977], [-1.130813, 42.284887], [-1.130834, 42.284523], [-1.13094, 42.28438], [-1.131374, 42.284102], [-1.132216, 42.283877], [-1.131593, 42.283617], [-1.131997, 42.283177], [-1.132098, 42.282771], [-1.1321, 42.282541], [-1.131582, 42.282368], [-1.13131, 42.282333], [-1.130843, 42.282911], [-1.130493, 42.282456], [-1.129857, 42.282362], [-1.129888, 42.281339], [-1.129617, 42.281073], [-1.129738, 42.280534], [-1.12909, 42.280375], [-1.128304, 42.279476], [-1.128202, 42.278928], [-1.12836, 42.278351], [-1.128417, 42.278181], [-1.128629, 42.277894], [-1.128134, 42.27785], [-1.127686, 42.276387], [-1.127359, 42.276292], [-1.126991, 42.27574], [-1.126325, 42.275485], [-1.125552, 42.275604], [-1.125104, 42.275095], [-1.124883, 42.273672], [-1.124422, 42.274282], [-1.123985, 42.274068], [-1.123894, 42.273815], [-1.124143, 42.273491], [-1.123422, 42.273176], [-1.122607, 42.273069], [-1.122998, 42.272796], [-1.123183, 42.272775], [-1.123013, 42.272601], [-1.122757, 42.272459], [-1.122609, 42.272433], [-1.122197, 42.272521], [-1.122, 42.272692], [-1.121805, 42.272415], [-1.121613, 42.272458], [-1.121703, 42.272789], [-1.121526, 42.272915], [-1.121315, 42.272704], [-1.120923, 42.272748], [-1.121122, 42.272278], [-1.121352, 42.271827], [-1.12141, 42.271612], [-1.121355, 42.271564], [-1.121213, 42.270969], [-1.121427, 42.27069], [-1.121233, 42.270413], [-1.121189, 42.270397], [-1.121202, 42.270265], [-1.120681, 42.270001], [-1.120626, 42.269458], [-1.12039, 42.269587], [-1.12036, 42.269536], [-1.120314, 42.269518], [-1.119996, 42.269762], [-1.119553, 42.269534], [-1.119584, 42.269211], [-1.119592, 42.269125], [-1.119449, 42.268971], [-1.119403, 42.268976], [-1.119056, 42.269014], [-1.11881, 42.268765], [-1.118588, 42.268342], [-1.11836, 42.268346], [-1.117924, 42.268309], [-1.117985, 42.267557], [-1.11796, 42.266963], [-1.118145, 42.266879], [-1.118324, 42.267072], [-1.11853, 42.267411], [-1.118794, 42.267446], [-1.118928, 42.267364], [-1.11861, 42.26654], [-1.118795, 42.265631], [-1.119211, 42.265256], [-1.119269, 42.264855], [-1.11885, 42.264737], [-1.119565, 42.264066], [-1.11993, 42.263894], [-1.120055, 42.263617], [-1.120752, 42.263802], [-1.120928, 42.263322], [-1.12064, 42.26296], [-1.12047, 42.262518], [-1.120232, 42.261952], [-1.120025, 42.261548], [-1.11915, 42.262072], [-1.118227, 42.26257], [-1.118004, 42.262561], [-1.118114, 42.261727], [-1.117716, 42.261245], [-1.117441, 42.260716], [-1.116846, 42.259894], [-1.117249, 42.259685], [-1.117134, 42.259303], [-1.116879, 42.258641], [-1.117495, 42.257914], [-1.117877, 42.258069], [-1.11849, 42.257804], [-1.118723, 42.258107], [-1.119168, 42.258123], [-1.119207, 42.25881], [-1.119074, 42.259285], [-1.119938, 42.259419], [-1.12008, 42.258516], [-1.120108, 42.257953], [-1.120153, 42.257718], [-1.121803, 42.257568], [-1.122131, 42.257433], [-1.123049, 42.257857], [-1.123687, 42.258675], [-1.123629, 42.258122], [-1.123946, 42.257692], [-1.124236, 42.257824], [-1.125318, 42.257704], [-1.126091, 42.257585], [-1.127164, 42.257894], [-1.127555, 42.258574], [-1.12706, 42.258761], [-1.127275, 42.258967], [-1.12783, 42.259103], [-1.127662, 42.259385], [-1.126805, 42.259052], [-1.126839, 42.259476], [-1.126962, 42.25966], [-1.126479, 42.259911], [-1.126101, 42.260018], [-1.126031, 42.260355], [-1.125369, 42.260593], [-1.125955, 42.260659], [-1.126106, 42.261235], [-1.126201, 42.261981], [-1.126135, 42.26258], [-1.126651, 42.263214], [-1.127334, 42.263565], [-1.128326, 42.264613], [-1.128488, 42.264641], [-1.128522, 42.264647], [-1.128722, 42.264683], [-1.128873, 42.264879], [-1.129103, 42.265194], [-1.129289, 42.265578], [-1.129238, 42.265725], [-1.129279, 42.265948], [-1.130471, 42.267131], [-1.131369, 42.266735], [-1.132241, 42.266671], [-1.13225, 42.266243], [-1.132637, 42.26666], [-1.133515, 42.266398], [-1.134844, 42.266415], [-1.134593, 42.266016], [-1.134335, 42.265814], [-1.134183, 42.265239], [-1.134858, 42.265065], [-1.135175, 42.264635], [-1.135056, 42.263991], [-1.135998, 42.264544], [-1.136052, 42.264834], [-1.136446, 42.265053], [-1.136045, 42.265986], [-1.136744, 42.265941], [-1.136841, 42.266226], [-1.136568, 42.266421], [-1.136888, 42.266714], [-1.137592, 42.266702], [-1.138115, 42.267137], [-1.137976, 42.26758], [-1.138179, 42.267722], [-1.138529, 42.268177], [-1.138765, 42.268019], [-1.138791, 42.267687], [-1.139406, 42.267191], [-1.139572, 42.26737], [-1.139051, 42.267658], [-1.139154, 42.267976], [-1.14012, 42.267704], [-1.14014, 42.268524], [-1.139827, 42.269217], [-1.139869, 42.269442], [-1.140472, 42.27102], [-1.141218, 42.271233], [-1.141338, 42.271877], [-1.141173, 42.272652], [-1.141612, 42.272636], [-1.141914, 42.271649], [-1.141575, 42.270535], [-1.142977, 42.269524], [-1.143928, 42.269649], [-1.144031, 42.269966], [-1.143985, 42.270432], [-1.144941, 42.270819], [-1.145683, 42.270769], [-1.145073, 42.270344], [-1.144803, 42.270078], [-1.145114, 42.269616], [-1.145325, 42.269559], [-1.145848, 42.269995], [-1.145844, 42.269502], [-1.146272, 42.269191], [-1.147635, 42.268678], [-1.148741, 42.268686], [-1.149296, 42.268822], [-1.14938, 42.269273], [-1.150341, 42.269923], [-1.150369, 42.270314], [-1.150843, 42.270722], [-1.151303, 42.271296], [-1.151828, 42.2715], [-1.152146, 42.272024], [-1.150806, 42.272897], [-1.151089, 42.273227], [-1.151325, 42.273069], [-1.151667, 42.273722], [-1.151995, 42.273587], [-1.152385, 42.273544], [-1.152215, 42.274056], [-1.152174, 42.274784], [-1.151408, 42.274705], [-1.151869, 42.275279], [-1.151175, 42.275586], [-1.151582, 42.276823], [-1.152195, 42.276558], [-1.152265, 42.277405], [-1.152812, 42.277969], [-1.154449, 42.277031], [-1.154718, 42.277527], [-1.154013, 42.27754], [-1.153666, 42.277809], [-1.153695, 42.2782], [-1.153428, 42.278427], [-1.153586, 42.278804], [-1.154019, 42.278756], [-1.154379, 42.278552], [-1.155213, 42.278525], [-1.155521, 42.278753], [-1.156022, 42.278599], [-1.15722, 42.27886], [-1.156357, 42.27968], [-1.155954, 42.279889], [-1.155754, 42.279056], [-1.155321, 42.279105], [-1.15527, 42.279538], [-1.155657, 42.279955], [-1.154987, 42.280392], [-1.154226, 42.280575], [-1.153564, 42.280583], [-1.153835, 42.280849], [-1.155232, 42.280759], [-1.155676, 42.281006], [-1.155903, 42.281277], [-1.155666, 42.281665], [-1.155993, 42.28176], [-1.156493, 42.281836], [-1.157014, 42.281548], [-1.157316, 42.281744], [-1.15677, 42.282134], [-1.156398, 42.282274], [-1.156645, 42.282411], [-1.157176, 42.282418], [-1.157646, 42.282333], [-1.157268, 42.282671], [-1.157087, 42.282888], [-1.157686, 42.283019], [-1.157881, 42.283589], [-1.158429, 42.283923], [-1.158527, 42.284208], [-1.158112, 42.284353], [-1.158166, 42.284643], [-1.157816, 42.285373], [-1.158441, 42.286356], [-1.157149, 42.287486], [-1.156493, 42.286572], [-1.15604, 42.286754], [-1.156002, 42.287022], [-1.155296, 42.287265], [-1.155553, 42.287697], [-1.154808, 42.288437], [-1.154137, 42.28792], [-1.154158, 42.28851], [-1.1537, 42.288659], [-1.153482, 42.288914], [-1.152939, 42.288843], [-1.152758, 42.28906], [-1.153157, 42.289542], [-1.152539, 42.289545], [-1.152129, 42.289952], [-1.151958, 42.290695], [-1.152254, 42.290908], [-1.152557, 42.290662], [-1.15281, 42.290634], [-1.153382, 42.290634], [-1.153521, 42.290917], [-1.153602, 42.291504], [-1.153795, 42.29193], [-1.15319, 42.292061], [-1.15269, 42.291989], [-1.152222, 42.291934], [-1.151775, 42.291801], [-1.150727, 42.291917], [-1.150208, 42.291975], [-1.149602, 42.292043], [-1.148791, 42.292198], [-1.148079, 42.292409], [-1.147961, 42.292488], [-1.14766, 42.293245], [-1.1467, 42.293541], [-1.1467, 42.293635], [-1.146698, 42.293842], [-1.146318, 42.294039], [-1.145995, 42.294459], [-1.146695, 42.294127], [-1.146694, 42.294277], [-1.147508, 42.293854], [-1.14824, 42.29351], [-1.148721, 42.293719], [-1.149295, 42.294905], [-1.148582, 42.295346], [-1.148067, 42.295667], [-1.147225, 42.295892], [-1.14642, 42.29608], [-1.14595, 42.296165], [-1.145707, 42.296521], [-1.147106, 42.296201], [-1.147836, 42.296087], [-1.14821, 42.296671], [-1.148751, 42.296018], [-1.149336, 42.295361], [-1.149703, 42.294959], [-1.149601, 42.294411], [-1.149824, 42.294419], [-1.150093, 42.294915], [-1.150135, 42.295141], [-1.15105, 42.295072], [-1.151872, 42.295211], [-1.154245, 42.295375], [-1.155526, 42.295133], [-1.156125, 42.295264], [-1.155832, 42.295593], [-1.155066, 42.295513], [-1.154373, 42.295591], [-1.15323, 42.295619], [-1.152352, 42.295651], [-1.15166, 42.295498], [-1.152506, 42.296719], [-1.152313, 42.297102], [-1.151742, 42.296409], [-1.15141, 42.296052], [-1.151176, 42.295749], [-1.150607, 42.295779], [-1.150497, 42.29566], [-1.150219, 42.295592], [-1.149804, 42.295737], [-1.149692, 42.295848], [-1.14999, 42.296736], [-1.149359, 42.296905], [-1.15012, 42.297906], [-1.14987, 42.29846], [-1.149518, 42.298236], [-1.149117, 42.298214], [-1.148609, 42.298337], [-1.148594, 42.298733], [-1.147195, 42.299053], [-1.146094, 42.299307], [-1.145405, 42.299647], [-1.145173, 42.300297], [-1.145185, 42.300362], [-1.145518, 42.300489], [-1.145616, 42.300774], [-1.145149, 42.301353], [-1.144666, 42.301373], [-1.14447, 42.301033], [-1.143771, 42.301078], [-1.143781, 42.301603], [-1.143381, 42.302305], [-1.143447, 42.30266], [-1.142766, 42.302801], [-1.142472, 42.302407], [-1.141422, 42.302227], [-1.141568, 42.30254], [-1.141958, 42.302496], [-1.142664, 42.303438], [-1.143231, 42.304822], [-1.142626, 42.304659], [-1.142655, 42.30505], [-1.143044, 42.305237], [-1.143284, 42.305342], [-1.143587, 42.305309], [-1.144031, 42.305555], [-1.144169, 42.306296], [-1.143797, 42.306436], [-1.143245, 42.306794], [-1.14346, 42.307], [-1.143924, 42.307113], [-1.143996, 42.3075], [-1.1439, 42.307938], [-1.144409, 42.30877], [-1.143016, 42.309122], [-1.142995, 42.309486], [-1.143997, 42.310591], [-1.144883, 42.310362], [-1.145381, 42.310898], [-1.145113, 42.311125], [-1.145048, 42.311725], [-1.143815, 42.312223], [-1.143892, 42.312873], [-1.145527, 42.312395], [-1.145828, 42.312822], [-1.145806, 42.313417], [-1.146223, 42.313995], [-1.146291, 42.314119], [-1.146611, 42.314413], [-1.146345, 42.314409], [-1.14545, 42.314114], [-1.145366, 42.314617], [-1.145286, 42.314658], [-1.145304, 42.314755], [-1.14527, 42.315285], [-1.145929, 42.315738], [-1.145959, 42.315899], [-1.145385, 42.315667], [-1.1448, 42.31537], [-1.144736, 42.315739], [-1.144189, 42.316129], [-1.144402, 42.315612], [-1.143709, 42.315689], [-1.143706, 42.315861], [-1.143858, 42.316017], [-1.144089, 42.316333], [-1.144124, 42.31652], [-1.143967, 42.316602], [-1.143687, 42.316621], [-1.143659, 42.316764], [-1.143374, 42.316976], [-1.143003, 42.317116], [-1.142977, 42.317264], [-1.142939, 42.317485], [-1.142525, 42.317399], [-1.142331, 42.317782], [-1.142176, 42.317898], [-1.142135, 42.317442], [-1.142126, 42.317416], [-1.142044, 42.317189], [-1.141335, 42.317557], [-1.141318, 42.317566], [-1.140964, 42.317803], [-1.140631, 42.318165], [-1.14056, 42.318242], [-1.140285, 42.318667], [-1.13942, 42.318533], [-1.139536, 42.318915], [-1.139152, 42.318991], [-1.138622, 42.319707], [-1.138305, 42.319907], [-1.13821, 42.320345], [-1.139169, 42.320271], [-1.139982, 42.319885], [-1.14041, 42.319575], [-1.140553, 42.319394], [-1.140233, 42.319101], [-1.14097, 42.319019], [-1.141042, 42.319011], [-1.14175, 42.318932], [-1.142048, 42.318636], [-1.142624, 42.318408], [-1.143071, 42.318194], [-1.143562, 42.317744], [-1.143737, 42.317495], [-1.143905, 42.317213], [-1.144222, 42.317013], [-1.144674, 42.316831], [-1.144991, 42.317586], [-1.144928, 42.317954], [-1.145587, 42.318407], [-1.145306, 42.3188], [-1.145746, 42.318784], [-1.145973, 42.319055], [-1.145946, 42.319387], [-1.146417, 42.319302], [-1.146922, 42.31964], [-1.146981, 42.320193], [-1.147353, 42.320053], [-1.147509, 42.320891], [-1.148019, 42.321492], [-1.148622, 42.322116], [-1.14945, 42.322287], [-1.150506, 42.322498], [-1.150486, 42.322862], [-1.151581, 42.322807], [-1.152077, 42.32262], [-1.152397, 42.322913], [-1.152565, 42.322631], [-1.153364, 42.322411], [-1.153718, 42.322174], [-1.15405, 42.322532], [-1.154317, 42.323489], [-1.153506, 42.323645], [-1.153912, 42.324159], [-1.153214, 42.325158], [-1.152811, 42.326321], [-1.153022, 42.327448], [-1.151999, 42.329075], [-1.151597, 42.329054], [-1.151008, 42.329218], [-1.15093, 42.329983], [-1.150364, 42.330507], [-1.150317, 42.330019], [-1.149613, 42.329801], [-1.149, 42.330066], [-1.148705, 42.329672], [-1.147705, 42.329289], [-1.148535, 42.329], [-1.149236, 42.328725], [-1.14983, 42.328593], [-1.150511, 42.328451], [-1.14997, 42.327919], [-1.148966, 42.328228], [-1.148605, 42.328663], [-1.148073, 42.328656], [-1.147558, 42.328977], [-1.146965, 42.328878], [-1.146786, 42.329819], [-1.147074, 42.330412], [-1.146513, 42.331198], [-1.146108, 42.330684], [-1.145918, 42.33133], [-1.145614, 42.331749], [-1.145426, 42.332009], [-1.144685, 42.331829], [-1.144541, 42.332009], [-1.144784, 42.332837], [-1.145166, 42.333222], [-1.145828, 42.333215], [-1.145679, 42.333363], [-1.144985, 42.33344], [-1.145319, 42.333567], [-1.146055, 42.333485], [-1.146207, 42.333384], [-1.146291, 42.333328], [-1.146691, 42.333809], [-1.146666, 42.333831], [-1.146311, 42.334148], [-1.146385, 42.334304], [-1.147078, 42.334227], [-1.14723, 42.334148], [-1.147885, 42.333808], [-1.148956, 42.333624], [-1.149603, 42.334012], [-1.149962, 42.334038], [-1.150178, 42.334014], [-1.15073, 42.333887], [-1.150702, 42.334449], [-1.150045, 42.334719], [-1.150135, 42.335203], [-1.149384, 42.335384], [-1.149373, 42.335386], [-1.148711, 42.335394], [-1.148125, 42.335097], [-1.148586, 42.335671], [-1.149407, 42.33604], [-1.149812, 42.336554], [-1.14999, 42.336798], [-1.150131, 42.338262], [-1.150024, 42.338636], [-1.150462, 42.33885], [-1.150888, 42.339], [-1.150435, 42.339182], [-1.148535, 42.339426], [-1.148928, 42.339876], [-1.148352, 42.340104], [-1.148021, 42.3407], [-1.148731, 42.34095], [-1.149383, 42.340417], [-1.149475, 42.34067], [-1.149366, 42.341274], [-1.148869, 42.341691], [-1.149685, 42.341798], [-1.150807, 42.34141], [-1.151646, 42.341876], [-1.152225, 42.342371], [-1.152198, 42.342703], [-1.151659, 42.342894], [-1.152048, 42.343081], [-1.152377, 42.342946], [-1.153072, 42.342408], [-1.153325, 42.342578], [-1.152362, 42.343342], [-1.151662, 42.343618], [-1.151306, 42.344085], [-1.150552, 42.34407], [-1.14984, 42.34405], [-1.149302, 42.344011], [-1.148917, 42.344317], [-1.149479, 42.344485], [-1.148326, 42.344942], [-1.148312, 42.345108], [-1.149359, 42.345025], [-1.150071, 42.344814], [-1.151099, 42.344634], [-1.151595, 42.344447], [-1.151673, 42.344866], [-1.152026, 42.34486], [-1.152147, 42.34432], [-1.152492, 42.344512], [-1.152747, 42.345405], [-1.152126, 42.345868], [-1.151808, 42.346298], [-1.151428, 42.346867], [-1.15116, 42.347094], [-1.150661, 42.347972], [-1.150015, 42.348307], [-1.150008, 42.348505], [-1.151278, 42.348199], [-1.151761, 42.346994], [-1.152009, 42.346901], [-1.151794, 42.347879], [-1.152316, 42.34736], [-1.152588, 42.347396], [-1.152987, 42.346924], [-1.15329, 42.34689], [-1.152336, 42.34818], [-1.151454, 42.348903], [-1.151236, 42.349158], [-1.150474, 42.349341], [-1.149687, 42.349626], [-1.149115, 42.350117], [-1.148463, 42.35064], [-1.148307, 42.350766], [-1.147954, 42.350822], [-1.147619, 42.350875], [-1.146637, 42.35059], [-1.14605, 42.350523], [-1.145468, 42.350489], [-1.145017, 42.350441], [-1.144831, 42.350396], [-1.144041, 42.351141], [-1.143235, 42.35156], [-1.142824, 42.351967], [-1.142371, 42.352149], [-1.141398, 42.352388], [-1.140736, 42.352396], [-1.14053, 42.352715], [-1.140529, 42.352929], [-1.140525, 42.353636], [-1.140267, 42.354389], [-1.139883, 42.354464], [-1.139605, 42.354396], [-1.139419, 42.354581], [-1.138837, 42.354547], [-1.138399, 42.354333], [-1.138159, 42.353998], [-1.138028, 42.35377], [-1.137963, 42.353658], [-1.138319, 42.353191], [-1.138202, 42.353039], [-1.1377, 42.353194], [-1.137808, 42.352589], [-1.137506, 42.352393], [-1.137171, 42.352496], [-1.136575, 42.352858], [-1.136976, 42.353109], [-1.136929, 42.353805], [-1.1371, 42.354247], [-1.137105, 42.354253], [-1.137389, 42.354609], [-1.13754, 42.355185], [-1.136662, 42.35617], [-1.136352, 42.356402], [-1.134504, 42.356936], [-1.134384, 42.356972], [-1.134387, 42.357012], [-1.133636, 42.357262], [-1.13292, 42.35698], [-1.132574, 42.356788], [-1.132278, 42.356624], [-1.131852, 42.356473], [-1.13158, 42.356438], [-1.131246, 42.357495], [-1.130441, 42.357683], [-1.129844, 42.358045], [-1.129124, 42.358453], [-1.128727, 42.358695], [-1.127971, 42.35891], [-1.127247, 42.358826], [-1.127627, 42.359442], [-1.126743, 42.360395], [-1.126999, 42.361057], [-1.126638, 42.361492], [-1.125931, 42.361735], [-1.126616, 42.362588], [-1.126098, 42.362867], [-1.125063, 42.363015], [-1.124416, 42.36358], [-1.123909, 42.363472], [-1.123769, 42.363191], [-1.122784, 42.363366], [-1.122175, 42.363664], [-1.121826, 42.364163], [-1.121397, 42.364473], [-1.121381, 42.3651], [-1.122097, 42.364429], [-1.12286, 42.364015], [-1.123362, 42.363861], [-1.123778, 42.363716], [-1.12391, 42.363858], [-1.123883, 42.364059], [-1.124216, 42.364235], [-1.124293, 42.364418], [-1.124441, 42.364594], [-1.124989, 42.364458], [-1.125145, 42.364324], [-1.125359, 42.36414], [-1.125396, 42.364259], [-1.125446, 42.364417], [-1.12559, 42.364456], [-1.125744, 42.364513], [-1.125942, 42.364576], [-1.126158, 42.364659], [-1.126458, 42.364657], [-1.126818, 42.364511], [-1.127135, 42.364369], [-1.127475, 42.364193], [-1.128037, 42.364056], [-1.128681, 42.363974], [-1.128714, 42.363976], [-1.128897, 42.363982], [-1.128945, 42.364084], [-1.129147, 42.364093], [-1.129324, 42.363892], [-1.129582, 42.36412], [-1.129759, 42.364377], [-1.129906, 42.364627], [-1.129812, 42.364893], [-1.130034, 42.364857], [-1.129952, 42.365186], [-1.130044, 42.365368], [-1.130252, 42.365408], [-1.130225, 42.365571], [-1.130172, 42.365747], [-1.130022, 42.366094], [-1.129871, 42.366207], [-1.13002, 42.366318], [-1.130443, 42.366282], [-1.130426, 42.366497], [-1.130367, 42.366642], [-1.129877, 42.36693], [-1.129747, 42.367158], [-1.12967, 42.367283], [-1.12924, 42.367512], [-1.128511, 42.368061], [-1.128458, 42.368546], [-1.129137, 42.368269], [-1.129683, 42.368198], [-1.129988, 42.368143], [-1.129909, 42.367874], [-1.130139, 42.367572], [-1.130363, 42.367462], [-1.130666, 42.367322], [-1.130922, 42.367081], [-1.131141, 42.366875], [-1.131295, 42.366624], [-1.131607, 42.366451], [-1.131616, 42.366269], [-1.131515, 42.36596], [-1.131473, 42.365731], [-1.131621, 42.365608], [-1.131704, 42.365513], [-1.13178, 42.365303], [-1.131924, 42.365234], [-1.132027, 42.365478], [-1.132034, 42.365743], [-1.131966, 42.365921], [-1.131927, 42.36617], [-1.131911, 42.36647], [-1.132029, 42.366564], [-1.132392, 42.366129], [-1.132493, 42.366438], [-1.132787, 42.366171], [-1.132988, 42.366095], [-1.133294, 42.366125], [-1.133501, 42.366464], [-1.133428, 42.36692], [-1.133599, 42.367146], [-1.133732, 42.367088], [-1.13389, 42.366783], [-1.134192, 42.36725], [-1.134419, 42.36747], [-1.134802, 42.367683], [-1.135001, 42.367672], [-1.135204, 42.367841], [-1.135595, 42.367861], [-1.135376, 42.367683], [-1.13518, 42.367556], [-1.134988, 42.36745], [-1.134837, 42.367253], [-1.134734, 42.367084], [-1.134662, 42.366932], [-1.134539, 42.366807], [-1.13478, 42.366642], [-1.134985, 42.366587], [-1.134891, 42.366236], [-1.134694, 42.365949], [-1.134539, 42.365657], [-1.134546, 42.365539], [-1.134531, 42.365306], [-1.134322, 42.365031], [-1.134169, 42.364899], [-1.133995, 42.364738], [-1.133729, 42.364693], [-1.133332, 42.364332], [-1.133237, 42.364129], [-1.133278, 42.36404], [-1.133342, 42.363926], [-1.13325, 42.363659], [-1.133138, 42.363523], [-1.133035, 42.363279], [-1.133011, 42.362801], [-1.133003, 42.362643], [-1.133106, 42.362504], [-1.133412, 42.362151], [-1.133488, 42.36194], [-1.133651, 42.361815], [-1.133821, 42.361498], [-1.134055, 42.361142], [-1.134356, 42.361066], [-1.134593, 42.361029], [-1.13453, 42.360844], [-1.134796, 42.360964], [-1.134875, 42.360774], [-1.135074, 42.359922], [-1.135117, 42.359693], [-1.135314, 42.359671], [-1.135977, 42.359768], [-1.136188, 42.359904], [-1.136395, 42.360108], [-1.136671, 42.360248], [-1.136944, 42.360053], [-1.137508, 42.35999], [-1.138072, 42.359697], [-1.137951, 42.359283], [-1.138362, 42.358876], [-1.139426, 42.358889], [-1.139182, 42.358291], [-1.139833, 42.357989], [-1.140268, 42.35771], [-1.140449, 42.357493], [-1.140452, 42.357326], [-1.140466, 42.356636], [-1.140543, 42.356101], [-1.140964, 42.355989], [-1.141141, 42.356462], [-1.14088, 42.356722], [-1.14105, 42.356889], [-1.141151, 42.356988], [-1.141481, 42.356622], [-1.141467, 42.356584], [-1.141298, 42.356116], [-1.141683, 42.35581], [-1.142012, 42.355675], [-1.142428, 42.355879], [-1.14245, 42.355889], [-1.142528, 42.356308], [-1.143148, 42.356075], [-1.143453, 42.355811], [-1.143729, 42.35634], [-1.143903, 42.35609], [-1.143747, 42.355252], [-1.143398, 42.355167], [-1.143283, 42.355139], [-1.143477, 42.354756], [-1.143584, 42.354382], [-1.143762, 42.353672], [-1.143904, 42.353722], [-1.144285, 42.354107], [-1.144408, 42.354291], [-1.144965, 42.354196], [-1.145126, 42.354208], [-1.145145, 42.354209], [-1.145528, 42.354364], [-1.146012, 42.354113], [-1.146632, 42.353879], [-1.146707, 42.353578], [-1.146708, 42.353575], [-1.146809, 42.353169], [-1.147079, 42.352481], [-1.147404, 42.353037], [-1.147402, 42.353267], [-1.148053, 42.353164], [-1.14809, 42.353158], [-1.148155, 42.353136], [-1.148381, 42.35306], [-1.14842, 42.353064], [-1.148697, 42.353091], [-1.148948, 42.35349], [-1.149244, 42.353655], [-1.149776, 42.354846], [-1.1504, 42.355105], [-1.150927, 42.354849], [-1.150992, 42.35425], [-1.150927, 42.353665], [-1.150991, 42.353296], [-1.15108, 42.352826], [-1.151398, 42.352396], [-1.151506, 42.352296], [-1.152002, 42.351836], [-1.152169, 42.351784], [-1.152398, 42.351824], [-1.152824, 42.351974], [-1.153363, 42.351783], [-1.153592, 42.351844], [-1.153969, 42.351946], [-1.15416, 42.352023], [-1.154644, 42.351772], [-1.154979, 42.351669], [-1.155306, 42.351523], [-1.155469, 42.35145], [-1.15568, 42.351394], [-1.155559, 42.351482], [-1.154822, 42.352015], [-1.155074, 42.352415], [-1.155534, 42.352035], [-1.155752, 42.351781], [-1.155964, 42.351494], [-1.156176, 42.351383], [-1.156839, 42.351312], [-1.156752, 42.350979], [-1.156432, 42.350685], [-1.156835, 42.350476], [-1.156744, 42.350223], [-1.156753, 42.349564], [-1.1562, 42.350152], [-1.156165, 42.349728], [-1.156198, 42.349198], [-1.156999, 42.348747], [-1.157115, 42.349129], [-1.157809, 42.348822], [-1.158509, 42.348777], [-1.158694, 42.348822], [-1.158897, 42.348964], [-1.159243, 42.349156], [-1.159463, 42.349625], [-1.159492, 42.350016], [-1.159756, 42.35048], [-1.159823, 42.350604], [-1.160002, 42.350848], [-1.160229, 42.351118], [-1.160315, 42.351339], [-1.160628, 42.35183], [-1.160763, 42.352079], [-1.160751, 42.35239], [-1.160741, 42.352673], [-1.160943, 42.353045], [-1.161109, 42.353224], [-1.161362, 42.353163], [-1.161871, 42.353041], [-1.162144, 42.353076], [-1.162177, 42.35373], [-1.16171, 42.353906], [-1.161764, 42.354039], [-1.162139, 42.353998], [-1.162628, 42.354009], [-1.1629, 42.354045], [-1.162847, 42.354708], [-1.163161, 42.354969], [-1.163508, 42.354931], [-1.164283, 42.355765], [-1.164371, 42.355525], [-1.164324, 42.355037], [-1.163881, 42.35456], [-1.163999, 42.354481], [-1.1645, 42.354557], [-1.164705, 42.354469], [-1.164226, 42.353568], [-1.164659, 42.35375], [-1.165394, 42.353899], [-1.16492, 42.353491], [-1.165145, 42.353038], [-1.165464, 42.352378], [-1.165781, 42.352178], [-1.166074, 42.352803], [-1.16646, 42.352497], [-1.167556, 42.352211], [-1.168208, 42.351908], [-1.168642, 42.35163], [-1.168773, 42.351385], [-1.169349, 42.351386], [-1.169056, 42.351715], [-1.169136, 42.351903], [-1.169334, 42.351783], [-1.1704, 42.351565], [-1.170358, 42.35134], [-1.17023, 42.350894], [-1.170819, 42.350729], [-1.170634, 42.350454], [-1.170611, 42.350095], [-1.170601, 42.3498], [-1.170881, 42.349407], [-1.171024, 42.349226], [-1.170543, 42.349017], [-1.169744, 42.349007], [-1.169245, 42.348701], [-1.169036, 42.348296], [-1.169168, 42.348052], [-1.169466, 42.347755], [-1.169726, 42.347726], [-1.170171, 42.347743], [-1.17056, 42.347929], [-1.170772, 42.347643], [-1.170712, 42.347321], [-1.170992, 42.346928], [-1.17134, 42.346659], [-1.17131, 42.346497], [-1.171164, 42.345955], [-1.171888, 42.346038], [-1.171923, 42.346462], [-1.17264, 42.346514], [-1.173024, 42.346438], [-1.173869, 42.346936], [-1.17372, 42.347084], [-1.173781, 42.347407], [-1.173335, 42.34739], [-1.172715, 42.347624], [-1.172021, 42.347931], [-1.171568, 42.348113], [-1.171184, 42.348189], [-1.171272, 42.347949], [-1.170882, 42.347992], [-1.170818, 42.348361], [-1.170297, 42.34865], [-1.170674, 42.348772], [-1.171503, 42.348713], [-1.172446, 42.348312], [-1.172553, 42.347938], [-1.172893, 42.347867], [-1.172831, 42.348006], [-1.172662, 42.348288], [-1.173039, 42.34841], [-1.173695, 42.34837], [-1.173734, 42.348102], [-1.174607, 42.348038], [-1.175061, 42.347395], [-1.175347, 42.347265], [-1.17581, 42.347378], [-1.176143, 42.347736], [-1.175887, 42.348027], [-1.175942, 42.348317], [-1.176319, 42.34844], [-1.17698, 42.348662], [-1.177276, 42.348826], [-1.177378, 42.349374], [-1.176982, 42.349385], [-1.176701, 42.350009], [-1.176248, 42.350191], [-1.175833, 42.350336], [-1.175546, 42.350696], [-1.175476, 42.351263], [-1.175394, 42.351536], [-1.175743, 42.35222], [-1.174959, 42.351814], [-1.174278, 42.351956], [-1.174205, 42.351569], [-1.173761, 42.351323], [-1.173701, 42.351001], [-1.17323, 42.351086], [-1.172877, 42.351092], [-1.172461, 42.351468], [-1.171953, 42.35159], [-1.171822, 42.351835], [-1.172041, 42.352534], [-1.171551, 42.352753], [-1.173042, 42.352916], [-1.173822, 42.352829], [-1.174465, 42.352955], [-1.174113, 42.353915], [-1.174528, 42.354], [-1.174476, 42.354434], [-1.174997, 42.354145], [-1.175352, 42.353678], [-1.175607, 42.353387], [-1.175609, 42.353156], [-1.175214, 42.352937], [-1.175278, 42.352338], [-1.175853, 42.35257], [-1.176242, 42.353941], [-1.175923, 42.354601], [-1.174404, 42.355231], [-1.17409, 42.356154], [-1.173445, 42.356489], [-1.172774, 42.356926], [-1.172561, 42.357443], [-1.173358, 42.359097], [-1.172726, 42.359266], [-1.172563, 42.35958], [-1.172165, 42.360052], [-1.172266, 42.36083], [-1.171912, 42.361067], [-1.171411, 42.360991], [-1.170839, 42.361483], [-1.170937, 42.361768], [-1.171662, 42.361621], [-1.171642, 42.361985], [-1.171282, 42.36219], [-1.171061, 42.362905], [-1.170162, 42.363301], [-1.170463, 42.363728], [-1.170846, 42.363883], [-1.170802, 42.364118], [-1.171074, 42.364154], [-1.171737, 42.363915], [-1.171965, 42.363002], [-1.17168, 42.362902], [-1.172288, 42.362604], [-1.172395, 42.363645], [-1.172332, 42.363783], [-1.172095, 42.364172], [-1.172174, 42.36436], [-1.171542, 42.364529], [-1.171345, 42.36442], [-1.171055, 42.364287], [-1.17091, 42.364698], [-1.170649, 42.364957], [-1.170529, 42.365497], [-1.170571, 42.365723], [-1.170154, 42.366098], [-1.170605, 42.366377], [-1.1712, 42.366245], [-1.171299, 42.366069], [-1.171178, 42.365655], [-1.172069, 42.365687], [-1.172123, 42.365977], [-1.172624, 42.366053], [-1.172239, 42.366359], [-1.171402, 42.366617], [-1.171319, 42.367119], [-1.171696, 42.367242], [-1.171049, 42.367807], [-1.170694, 42.368274], [-1.170824, 42.369674], [-1.170184, 42.370042], [-1.169848, 42.370375], [-1.169414, 42.370654], [-1.169063, 42.371383], [-1.168436, 42.371815], [-1.168169, 42.372042], [-1.167599, 42.372072], [-1.167715, 42.372454], [-1.168271, 42.37259], [-1.168392, 42.373234], [-1.168025, 42.373637], [-1.167574, 42.373358], [-1.167215, 42.373332], [-1.167096, 42.372457], [-1.166404, 42.372074], [-1.165866, 42.372035], [-1.16541, 42.371724], [-1.164878, 42.371487], [-1.164347, 42.37125], [-1.163749, 42.370889], [-1.163435, 42.370398], [-1.163396, 42.369711], [-1.163411, 42.369085], [-1.163698, 42.368724], [-1.164132, 42.368445], [-1.164319, 42.36826], [-1.163607, 42.368241], [-1.162903, 42.368023], [-1.163034, 42.367778], [-1.163129, 42.36734], [-1.162797, 42.366982], [-1.161721, 42.366674], [-1.160776, 42.366352], [-1.161268, 42.366856], [-1.16123, 42.368308], [-1.160868, 42.367789], [-1.160644, 42.368011], [-1.160763, 42.368886], [-1.159919, 42.369341], [-1.159742, 42.368868], [-1.159108, 42.369267], [-1.158524, 42.369694], [-1.157699, 42.370016], [-1.156888, 42.370172], [-1.157126, 42.370737], [-1.156705, 42.37085], [-1.156488, 42.372058], [-1.155929, 42.372383], [-1.156329, 42.372865], [-1.157005, 42.372691], [-1.156925, 42.373687], [-1.156071, 42.374801], [-1.155018, 42.375083], [-1.154843, 42.375333], [-1.154358, 42.375814], [-1.153806, 42.375941], [-1.153488, 42.376371], [-1.154509, 42.376389], [-1.154248, 42.376649], [-1.153688, 42.377204], [-1.15314, 42.377824], [-1.152628, 42.377453], [-1.152499, 42.377147], [-1.152469, 42.377076], [-1.151385, 42.377197], [-1.152051, 42.377682], [-1.152025, 42.378014], [-1.152102, 42.378169], [-1.152166, 42.378294], [-1.151991, 42.378467], [-1.151605, 42.37885], [-1.151522, 42.379352], [-1.151352, 42.379865], [-1.151584, 42.379883], [-1.152206, 42.379934], [-1.152167, 42.380432], [-1.152188, 42.380772], [-1.152536, 42.380613], [-1.152754, 42.380248], [-1.153156, 42.379948], [-1.153311, 42.379547], [-1.152936, 42.379078], [-1.153259, 42.378659], [-1.153468, 42.37855], [-1.15422, 42.378893], [-1.154487, 42.37848], [-1.154659, 42.377864], [-1.155103, 42.377176], [-1.155627, 42.376606], [-1.156175, 42.376162], [-1.156529, 42.37591], [-1.156906, 42.375783], [-1.157455, 42.375647], [-1.157183, 42.375303]]]}}]}