{"type": "FeatureCollection", "name": "NAVALACRUZ", "features": [{"type": "Feature", "properties": {"id": "52448", "FIREDATE": "2021-08-14T11:20:00", "FINALDATE": "2021-08-20T12:14:00", "LASTUPDATE": "2022-01-26 11:45:36.105095", "COUNTRY": "ES", "PROVINCE": "Ávila", "COMMUNE": "Navalacruz", "AREA_HA": 23078.0, "BROADLEA": 0.6021, "CONIFER": 3.4309, "MIXED": 0.4029, "SCLEROPH": 59.5477, "TRANSIT": 3.6475, "OTHERNATLC": 29.7089, "AGRIAREAS": 2.5299, "ARTIFSURF": 0.13, "OTHERLC": 0.0, "PERCNA2K": 48.6981, "CLASS": "FireSeason", "AÑO": 2021, "LATITUD": 40.50079600508693, "LONGITUD": -4.851745743076923}, "geometry": {"type": "Polygon", "coordinates": [[[-4.981657, 40.521679], [-4.981454, 40.521737], [-4.981264, 40.521801], [-4.981088, 40.521869], [-4.980925, 40.521942], [-4.980776, 40.522019], [-4.98064, 40.522102], [-4.980518, 40.522189], [-4.98038, 40.522279], [-4.980227, 40.522371], [-4.98006, 40.522465], [-4.979877, 40.522561], [-4.979679, 40.52266], [-4.979466, 40.522762], [-4.979237, 40.522865], [-4.978994, 40.522971], [-4.97872, 40.523079], [-4.978415, 40.523189], [-4.978079, 40.523301], [-4.977712, 40.523416], [-4.977315, 40.523533], [-4.976886, 40.523652], [-4.976427, 40.523773], [-4.975937, 40.523896], [-4.975457, 40.523996], [-4.974987, 40.524073], [-4.974528, 40.524128], [-4.974078, 40.524159], [-4.973639, 40.524168], [-4.97321, 40.524153], [-4.972791, 40.524116], [-4.972383, 40.524055], [-4.971972, 40.523993], [-4.971561, 40.52393], [-4.971148, 40.523865], [-4.970733, 40.523799], [-4.970317, 40.523731], [-4.969899, 40.523661], [-4.96948, 40.52359], [-4.96906, 40.523518], [-4.96869, 40.523521], [-4.96837, 40.523599], [-4.968101, 40.523753], [-4.967883, 40.523981], [-4.967715, 40.524285], [-4.967598, 40.524664], [-4.967531, 40.525119], [-4.967515, 40.525648], [-4.967469, 40.526173], [-4.967394, 40.526694], [-4.967289, 40.52721], [-4.967156, 40.527721], [-4.966992, 40.528228], [-4.9668, 40.528731], [-4.966578, 40.529228], [-4.966327, 40.529722], [-4.966077, 40.530165], [-4.965828, 40.53056], [-4.965581, 40.530904], [-4.965335, 40.5312], [-4.96509, 40.531445], [-4.964847, 40.531642], [-4.964605, 40.531788], [-4.964365, 40.531885], [-4.964054, 40.531989], [-4.963673, 40.532099], [-4.963223, 40.532215], [-4.962703, 40.532338], [-4.962112, 40.532468], [-4.961452, 40.532603], [-4.960721, 40.532746], [-4.959921, 40.532894], [-4.959177, 40.533032], [-4.958488, 40.533159], [-4.957856, 40.533275], [-4.957279, 40.533379], [-4.956759, 40.533473], [-4.956294, 40.533556], [-4.955885, 40.533628], [-4.955533, 40.533689], [-4.955165, 40.533761], [-4.954781, 40.533844], [-4.954382, 40.533937], [-4.953968, 40.534042], [-4.953539, 40.534157], [-4.953094, 40.534284], [-4.952634, 40.534421], [-4.952158, 40.534569], [-4.951754, 40.534642], [-4.951422, 40.534638], [-4.95116, 40.534558], [-4.950971, 40.534403], [-4.950853, 40.534171], [-4.950806, 40.533863], [-4.950831, 40.533479], [-4.950927, 40.53302], [-4.950989, 40.5326], [-4.951017, 40.532221], [-4.951011, 40.531882], [-4.950971, 40.531584], [-4.950897, 40.531326], [-4.950789, 40.531108], [-4.950647, 40.53093], [-4.950471, 40.530793], [-4.950375, 40.530577], [-4.950361, 40.530284], [-4.950428, 40.529911], [-4.950575, 40.529461], [-4.950803, 40.528932], [-4.951113, 40.528325], [-4.951503, 40.52764], [-4.951974, 40.526876], [-4.95239, 40.526191], [-4.952751, 40.525585], [-4.953056, 40.525057], [-4.953307, 40.524608], [-4.953503, 40.524237], [-4.953643, 40.523946], [-4.953729, 40.523732], [-4.953759, 40.523597], [-4.953698, 40.523498], [-4.953543, 40.523435], [-4.953297, 40.523407], [-4.952958, 40.523414], [-4.952528, 40.523457], [-4.952004, 40.523536], [-4.951389, 40.52365], [-4.950681, 40.523799], [-4.950007, 40.523963], [-4.949367, 40.524142], [-4.94876, 40.524335], [-4.948187, 40.524543], [-4.947648, 40.524765], [-4.947143, 40.525002], [-4.946671, 40.525253], [-4.946233, 40.525518], [-4.945846, 40.525789], [-4.945512, 40.526065], [-4.945228, 40.526345], [-4.944996, 40.52663], [-4.944816, 40.526921], [-4.944688, 40.527216], [-4.94461, 40.527516], [-4.944585, 40.527821], [-4.944494, 40.528111], [-4.944339, 40.528387], [-4.944118, 40.528647], [-4.943832, 40.528893], [-4.94348, 40.529124], [-4.943064, 40.52934], [-4.942583, 40.529542], [-4.942036, 40.529728], [-4.941571, 40.529945], [-4.941189, 40.530192], [-4.940889, 40.530469], [-4.940672, 40.530776], [-4.940536, 40.531113], [-4.940483, 40.531481], [-4.940512, 40.531878], [-4.940624, 40.532306], [-4.940654, 40.532714], [-4.940604, 40.533101], [-4.940472, 40.533469], [-4.94026, 40.533816], [-4.939966, 40.534144], [-4.939592, 40.534451], [-4.939136, 40.534738], [-4.9386, 40.535005], [-4.938075, 40.535288], [-4.937562, 40.535588], [-4.937061, 40.535903], [-4.936572, 40.536235], [-4.936094, 40.536583], [-4.935628, 40.536947], [-4.935173, 40.537327], [-4.934731, 40.537723], [-4.93432, 40.538075], [-4.933941, 40.538383], [-4.933594, 40.538647], [-4.933279, 40.538866], [-4.932996, 40.539041], [-4.932745, 40.539172], [-4.932526, 40.539259], [-4.932339, 40.539301], [-4.932163, 40.53902], [-4.931997, 40.538416], [-4.931842, 40.537489], [-4.931698, 40.536239], [-4.931115, 40.535571], [-4.930095, 40.535487], [-4.928636, 40.535985], [-4.926739, 40.537066], [-4.925337, 40.538006], [-4.924429, 40.538806], [-4.924016, 40.539466], [-4.924097, 40.539986], [-4.92403, 40.54054], [-4.923815, 40.541127], [-4.923452, 40.541748], [-4.92294, 40.542403], [-4.922487, 40.542913], [-4.922093, 40.543278], [-4.921758, 40.543498], [-4.921481, 40.543573], [-4.921285, 40.543795], [-4.921168, 40.544164], [-4.921132, 40.54468], [-4.921175, 40.545343], [-4.920964, 40.545864], [-4.920498, 40.546243], [-4.919777, 40.546479], [-4.9188, 40.546574], [-4.918024, 40.546311], [-4.917449, 40.545691], [-4.917073, 40.544714], [-4.916898, 40.54338], [-4.916843, 40.542362], [-4.916909, 40.54166], [-4.917095, 40.541275], [-4.917402, 40.541206], [-4.9176, 40.540967], [-4.917689, 40.540558], [-4.917669, 40.53998], [-4.91754, 40.539231], [-4.91722, 40.538786], [-4.916709, 40.538645], [-4.916006, 40.538807], [-4.915111, 40.539273], [-4.914185, 40.539548], [-4.913228, 40.539632], [-4.912239, 40.539524], [-4.911218, 40.539225], [-4.910236, 40.538951], [-4.909292, 40.5387], [-4.908387, 40.538473], [-4.907521, 40.53827], [-4.906891, 40.538364], [-4.9065, 40.538754], [-4.906345, 40.539441], [-4.906428, 40.540425], [-4.906322, 40.54124], [-4.906028, 40.541885], [-4.905546, 40.542362], [-4.904876, 40.54267], [-4.904073, 40.542914], [-4.903137, 40.543093], [-4.902067, 40.543208], [-4.900864, 40.54326], [-4.899717, 40.543327], [-4.898624, 40.543412], [-4.897587, 40.543513], [-4.896604, 40.543631], [-4.895677, 40.543766], [-4.894805, 40.543917], [-4.893987, 40.544086], [-4.893225, 40.54427], [-4.892527, 40.544497], [-4.891894, 40.544765], [-4.891324, 40.545075], [-4.890819, 40.545426], [-4.890379, 40.545819], [-4.890002, 40.546253], [-4.88969, 40.546729], [-4.889443, 40.547246], [-4.889114, 40.547768], [-4.888704, 40.548292], [-4.888213, 40.548821], [-4.887641, 40.549353], [-4.886989, 40.549889], [-4.886255, 40.550428], [-4.885439, 40.550972], [-4.884543, 40.551518], [-4.883669, 40.551994], [-4.882816, 40.552397], [-4.881984, 40.552729], [-4.881175, 40.552989], [-4.880387, 40.553177], [-4.87962, 40.553294], [-4.878875, 40.553339], [-4.878152, 40.553313], [-4.877408, 40.553284], [-4.876644, 40.553254], [-4.875859, 40.553221], [-4.875053, 40.553187], [-4.874227, 40.55315], [-4.87338, 40.553112], [-4.872512, 40.553071], [-4.871624, 40.553029], [-4.870766, 40.552998], [-4.869937, 40.552978], [-4.869139, 40.552969], [-4.868371, 40.552972], [-4.867633, 40.552986], [-4.866924, 40.553012], [-4.866246, 40.553049], [-4.865598, 40.553097], [-4.864995, 40.553207], [-4.864437, 40.55338], [-4.863925, 40.553615], [-4.863458, 40.553912], [-4.863037, 40.554271], [-4.862661, 40.554692], [-4.86233, 40.555176], [-4.862044, 40.555722], [-4.861768, 40.556231], [-4.861502, 40.556703], [-4.861245, 40.557138], [-4.860998, 40.557536], [-4.86076, 40.557898], [-4.860532, 40.558222], [-4.860314, 40.55851], [-4.860104, 40.558761], [-4.859886, 40.558943], [-4.859657, 40.559057], [-4.859419, 40.559101], [-4.859172, 40.559078], [-4.858914, 40.558985], [-4.858648, 40.558824], [-4.858371, 40.558594], [-4.858085, 40.558295], [-4.857805, 40.557958], [-4.857532, 40.557581], [-4.857265, 40.557166], [-4.857005, 40.556711], [-4.856751, 40.556217], [-4.856503, 40.555685], [-4.856262, 40.555113], [-4.856028, 40.554503], [-4.855647, 40.553956], [-4.85512, 40.553474], [-4.854447, 40.553055], [-4.853628, 40.552701], [-4.852663, 40.552411], [-4.851552, 40.552185], [-4.850294, 40.552023], [-4.84889, 40.551924], [-4.847576, 40.551848], [-4.84635, 40.551793], [-4.845212, 40.551761], [-4.844164, 40.55175], [-4.843204, 40.55176], [-4.842333, 40.551793], [-4.841551, 40.551847], [-4.840858, 40.551923], [-4.840224, 40.551953], [-4.839649, 40.551937], [-4.839134, 40.551874], [-4.838678, 40.551766], [-4.838282, 40.551611], [-4.837944, 40.55141], [-4.837667, 40.551163], [-4.837448, 40.55087], [-4.837146, 40.550643], [-4.836759, 40.550483], [-4.836288, 40.550388], [-4.835733, 40.55036], [-4.835093, 40.550399], [-4.83437, 40.550504], [-4.833562, 40.550675], [-4.83267, 40.550912], [-4.831745, 40.551109], [-4.830788, 40.551266], [-4.829799, 40.551382], [-4.828777, 40.551458], [-4.827723, 40.551493], [-4.826636, 40.551488], [-4.825517, 40.551443], [-4.824365, 40.551357], [-4.823218, 40.551243], [-4.822076, 40.5511], [-4.820939, 40.550928], [-4.819807, 40.550728], [-4.818679, 40.550499], [-4.817557, 40.550241], [-4.816439, 40.549954], [-4.815326, 40.549639], [-4.814187, 40.549315], [-4.81302, 40.548982], [-4.811827, 40.54864], [-4.810606, 40.548289], [-4.809359, 40.547929], [-4.808085, 40.54756], [-4.806784, 40.547182], [-4.805456, 40.546795], [-4.804095, 40.546432], [-4.802702, 40.546093], [-4.801277, 40.545777], [-4.79982, 40.545485], [-4.798329, 40.545217], [-4.796807, 40.544972], [-4.795252, 40.544751], [-4.793665, 40.544554], [-4.792059, 40.544411], [-4.790434, 40.544322], [-4.788791, 40.544287], [-4.78713, 40.544306], [-4.78545, 40.54438], [-4.783751, 40.544507], [-4.782034, 40.544689], [-4.780299, 40.544925], [-4.778561, 40.5451], [-4.776822, 40.545215], [-4.77508, 40.545269], [-4.773337, 40.545263], [-4.771591, 40.545196], [-4.769843, 40.545069], [-4.768094, 40.544881], [-4.766342, 40.544633], [-4.764674, 40.544378], [-4.763088, 40.544114], [-4.761584, 40.543843], [-4.760164, 40.543563], [-4.758826, 40.543276], [-4.75757, 40.542981], [-4.756398, 40.542679], [-4.755308, 40.542368], [-4.754245, 40.542083], [-4.75321, 40.541822], [-4.752203, 40.541587], [-4.751223, 40.541377], [-4.75027, 40.541191], [-4.749345, 40.541031], [-4.748447, 40.540896], [-4.747577, 40.540786], [-4.746727, 40.540681], [-4.745898, 40.540582], [-4.745088, 40.540487], [-4.744299, 40.540398], [-4.743531, 40.540314], [-4.742782, 40.540236], [-4.742054, 40.540162], [-4.741346, 40.540094], [-4.740653, 40.539998], [-4.739972, 40.539874], [-4.739306, 40.539723], [-4.738654, 40.539544], [-4.738016, 40.539337], [-4.737391, 40.539102], [-4.73678, 40.538839], [-4.736183, 40.538549], [-4.735614, 40.538285], [-4.735072, 40.538047], [-4.734558, 40.537836], [-4.734071, 40.537651], [-4.733611, 40.537492], [-4.733179, 40.53736], [-4.732775, 40.537253], [-4.732398, 40.537174], [-4.732017, 40.537125], [-4.731632, 40.537108], [-4.731244, 40.537122], [-4.730852, 40.537168], [-4.730456, 40.537245], [-4.730056, 40.537353], [-4.729652, 40.537493], [-4.729245, 40.537664], [-4.728868, 40.53784], [-4.728522, 40.538023], [-4.728206, 40.538211], [-4.72792, 40.538404], [-4.727665, 40.538604], [-4.72744, 40.538809], [-4.727246, 40.539019], [-4.727082, 40.539235], [-4.726931, 40.53944], [-4.726792, 40.539632], [-4.726667, 40.539811], [-4.726554, 40.539979], [-4.726454, 40.540134], [-4.726367, 40.540277], [-4.726293, 40.540408], [-4.726231, 40.540527], [-4.726164, 40.540638], [-4.72609, 40.540742], [-4.726009, 40.540838], [-4.725923, 40.540926], [-4.72583, 40.541007], [-4.725731, 40.54108], [-4.725625, 40.541145], [-4.725513, 40.541203], [-4.725404, 40.541276], [-4.725298, 40.541363], [-4.725194, 40.541464], [-4.725093, 40.54158], [-4.724995, 40.541711], [-4.724899, 40.541856], [-4.724806, 40.542015], [-4.724716, 40.542189], [-4.724598, 40.542361], [-4.724454, 40.542529], [-4.724282, 40.542695], [-4.724083, 40.542859], [-4.723858, 40.54302], [-4.723605, 40.543178], [-4.723324, 40.543333], [-4.723017, 40.543486], [-4.722692, 40.543611], [-4.722349, 40.543709], [-4.721988, 40.543779], [-4.721609, 40.543822], [-4.721211, 40.543837], [-4.720796, 40.543825], [-4.720363, 40.543785], [-4.719912, 40.543718], [-4.719428, 40.543687], [-4.718913, 40.543692], [-4.718365, 40.543733], [-4.717785, 40.54381], [-4.717174, 40.543923], [-4.71653, 40.544072], [-4.715853, 40.544258], [-4.715145, 40.54448], [-4.714419, 40.544751], [-4.713675, 40.545073], [-4.712913, 40.545444], [-4.712133, 40.545866], [-4.711335, 40.546337], [-4.710519, 40.546858], [-4.709685, 40.54743], [-4.708833, 40.548051], [-4.708046, 40.548596], [-4.707323, 40.549066], [-4.706665, 40.549461], [-4.70607, 40.54978], [-4.705541, 40.550023], [-4.705075, 40.550191], [-4.704675, 40.550283], [-4.704338, 40.550299], [-4.703986, 40.550298], [-4.703619, 40.550278], [-4.703236, 40.55024], [-4.702838, 40.550183], [-4.702424, 40.550109], [-4.701995, 40.550016], [-4.70155, 40.549905], [-4.70109, 40.549776], [-4.700692, 40.5496], [-4.700357, 40.549377], [-4.700085, 40.549107], [-4.699876, 40.548789], [-4.69973, 40.548425], [-4.699647, 40.548013], [-4.699626, 40.547554], [-4.699668, 40.547049], [-4.699683, 40.54659], [-4.699671, 40.546179], [-4.699633, 40.545815], [-4.699567, 40.545499], [-4.699475, 40.545229], [-4.699356, 40.545007], [-4.69921, 40.544833], [-4.699037, 40.544705], [-4.698815, 40.544565], [-4.698544, 40.544411], [-4.698224, 40.544244], [-4.697854, 40.544063], [-4.697436, 40.54387], [-4.696968, 40.543663], [-4.696452, 40.543443], [-4.695886, 40.543209], [-4.695299, 40.543017], [-4.69469, 40.542866], [-4.69406, 40.542757], [-4.693408, 40.542689], [-4.692734, 40.542663], [-4.692039, 40.542677], [-4.691323, 40.542733], [-4.690584, 40.542831], [-4.689871, 40.542911], [-4.689183, 40.542974], [-4.68852, 40.543019], [-4.687882, 40.543046], [-4.687268, 40.543057], [-4.68668, 40.543049], [-4.686117, 40.543025], [-4.685579, 40.542983], [-4.685078, 40.542938], [-4.684615, 40.542892], [-4.684189, 40.542843], [-4.683801, 40.542792], [-4.683451, 40.542739], [-4.683138, 40.542683], [-4.682862, 40.542625], [-4.682624, 40.542565], [-4.682405, 40.54249], [-4.682205, 40.542399], [-4.682023, 40.542292], [-4.68186, 40.542169], [-4.681715, 40.542031], [-4.681589, 40.541877], [-4.681482, 40.541708], [-4.681394, 40.541523], [-4.681301, 40.54133], [-4.681203, 40.541131], [-4.681099, 40.540926], [-4.680991, 40.540713], [-4.680878, 40.540493], [-4.68076, 40.540266], [-4.680636, 40.540032], [-4.680508, 40.539792], [-4.680427, 40.5395], [-4.680394, 40.539158], [-4.680408, 40.538765], [-4.680469, 40.538321], [-4.680578, 40.537827], [-4.680734, 40.537282], [-4.680937, 40.536686], [-4.681188, 40.536039], [-4.681308, 40.535444], [-4.681296, 40.5349], [-4.681154, 40.534408], [-4.68088, 40.533966], [-4.680475, 40.533577], [-4.679939, 40.533238], [-4.679271, 40.532951], [-4.678473, 40.532716], [-4.677717, 40.532499], [-4.677003, 40.5323], [-4.676332, 40.53212], [-4.675703, 40.531958], [-4.675116, 40.531814], [-4.674572, 40.531689], [-4.674071, 40.531582], [-4.673611, 40.531494], [-4.673156, 40.531428], [-4.672704, 40.531384], [-4.672257, 40.531362], [-4.671813, 40.531362], [-4.671373, 40.531384], [-4.670938, 40.531428], [-4.670506, 40.531495], [-4.670078, 40.531583], [-4.669621, 40.531665], [-4.669135, 40.53174], [-4.668619, 40.531808], [-4.668074, 40.531869], [-4.6675, 40.531924], [-4.666896, 40.531972], [-4.666263, 40.532013], [-4.6656, 40.532048], [-4.66508, 40.532024], [-4.664701, 40.531941], [-4.664463, 40.5318], [-4.664368, 40.531601], [-4.664414, 40.531343], [-4.664602, 40.531027], [-4.664931, 40.530652], [-4.665402, 40.530218], [-4.665734, 40.529826], [-4.665927, 40.529476], [-4.665981, 40.529166], [-4.665896, 40.528899], [-4.665672, 40.528673], [-4.665308, 40.528488], [-4.664806, 40.528344], [-4.664164, 40.528242], [-4.663534, 40.528098], [-4.662915, 40.52791], [-4.662307, 40.52768], [-4.66171, 40.527407], [-4.661125, 40.527092], [-4.66055, 40.526733], [-4.659987, 40.526332], [-4.659436, 40.525888], [-4.658903, 40.525462], [-4.658388, 40.525054], [-4.657893, 40.524663], [-4.657416, 40.52429], [-4.656958, 40.523935], [-4.656518, 40.523597], [-4.656097, 40.523277], [-4.655695, 40.522975], [-4.655393, 40.52269], [-4.655192, 40.522421], [-4.65509, 40.522168], [-4.655088, 40.521932], [-4.655187, 40.521713], [-4.655385, 40.521511], [-4.655684, 40.521325], [-4.656083, 40.521155], [-4.656432, 40.520964], [-4.656731, 40.520752], [-4.65698, 40.520518], [-4.65718, 40.520262], [-4.65733, 40.519984], [-4.65743, 40.519685], [-4.65748, 40.519365], [-4.65748, 40.519023], [-4.65753, 40.518696], [-4.657629, 40.518386], [-4.657778, 40.51809], [-4.657976, 40.517811], [-4.658224, 40.517547], [-4.658522, 40.517299], [-4.658869, 40.517066], [-4.659266, 40.516849], [-4.659655, 40.51664], [-4.660037, 40.516439], [-4.660413, 40.516246], [-4.660781, 40.51606], [-4.661142, 40.515883], [-4.661496, 40.515713], [-4.661843, 40.515552], [-4.662183, 40.515398], [-4.662512, 40.515242], [-4.662831, 40.515085], [-4.663139, 40.514926], [-4.663437, 40.514765], [-4.663724, 40.514602], [-4.664001, 40.514437], [-4.664267, 40.51427], [-4.664523, 40.514102], [-4.664796, 40.513929], [-4.665085, 40.513752], [-4.665392, 40.513571], [-4.665715, 40.513385], [-4.666056, 40.513196], [-4.666413, 40.513002], [-4.666787, 40.512804], [-4.667178, 40.512601], [-4.667572, 40.512384], [-4.667969, 40.512151], [-4.66837, 40.511903], [-4.668774, 40.511641], [-4.66918, 40.511363], [-4.669591, 40.511071], [-4.670004, 40.510763], [-4.67042, 40.51044], [-4.670812, 40.510148], [-4.67118, 40.509886], [-4.671524, 40.509653], [-4.671844, 40.509451], [-4.672139, 40.50928], [-4.67241, 40.509138], [-4.672657, 40.509026], [-4.672879, 40.508945], [-4.673103, 40.508916], [-4.673327, 40.508938], [-4.673553, 40.509013], [-4.673779, 40.50914], [-4.674007, 40.509318], [-4.674236, 40.509549], [-4.674465, 40.509832], [-4.674696, 40.510166], [-4.674916, 40.510509], [-4.675126, 40.510858], [-4.675325, 40.511216], [-4.675514, 40.511581], [-4.675692, 40.511953], [-4.67586, 40.512334], [-4.676017, 40.512721], [-4.676163, 40.513117], [-4.676321, 40.513486], [-4.676489, 40.51383], [-4.676668, 40.514149], [-4.676857, 40.514442], [-4.677058, 40.51471], [-4.677269, 40.514951], [-4.677491, 40.515168], [-4.677724, 40.515358], [-4.67798, 40.51553], [-4.67826, 40.515683], [-4.678563, 40.515817], [-4.67889, 40.515932], [-4.67924, 40.516028], [-4.679614, 40.516105], [-4.680012, 40.516163], [-4.680433, 40.516203], [-4.680802, 40.516278], [-4.681119, 40.516389], [-4.681384, 40.516537], [-4.681597, 40.51672], [-4.681758, 40.51694], [-4.681867, 40.517195], [-4.681925, 40.517487], [-4.68193, 40.517814], [-4.681936, 40.518173], [-4.681943, 40.518564], [-4.68195, 40.518986], [-4.681959, 40.51944], [-4.681967, 40.519925], [-4.681977, 40.520442], [-4.681987, 40.52099], [-4.681998, 40.52157], [-4.682012, 40.522101], [-4.682029, 40.522582], [-4.682049, 40.523015], [-4.682072, 40.523398], [-4.682098, 40.523732], [-4.682127, 40.524016], [-4.682159, 40.524252], [-4.682194, 40.524438], [-4.682269, 40.524597], [-4.682385, 40.524728], [-4.682541, 40.524832], [-4.682738, 40.524909], [-4.682976, 40.524958], [-4.683254, 40.524979], [-4.683573, 40.524973], [-4.683932, 40.524939], [-4.684266, 40.524921], [-4.684576, 40.524917], [-4.684862, 40.524928], [-4.685123, 40.524953], [-4.68536, 40.524994], [-4.685572, 40.525049], [-4.68576, 40.525119], [-4.685923, 40.525204], [-4.686082, 40.52531], [-4.686237, 40.525437], [-4.686389, 40.525585], [-4.686536, 40.525755], [-4.686679, 40.525945], [-4.686818, 40.526157], [-4.686954, 40.52639], [-4.687085, 40.526644], [-4.687232, 40.526879], [-4.687395, 40.527096], [-4.687574, 40.527294], [-4.687768, 40.527473], [-4.687978, 40.527634], [-4.688204, 40.527776], [-4.688446, 40.527899], [-4.688703, 40.528004], [-4.688957, 40.52806], [-4.689207, 40.528067], [-4.689453, 40.528025], [-4.689696, 40.527933], [-4.689935, 40.527793], [-4.69017, 40.527604], [-4.690401, 40.527365], [-4.690629, 40.527078], [-4.690834, 40.52678], [-4.691017, 40.526472], [-4.691177, 40.526154], [-4.691315, 40.525825], [-4.69143, 40.525486], [-4.691522, 40.525137], [-4.691592, 40.524778], [-4.691639, 40.524408], [-4.691691, 40.524047], [-4.691747, 40.523695], [-4.691807, 40.523351], [-4.691872, 40.523017], [-4.69194, 40.522691], [-4.692013, 40.522373], [-4.692091, 40.522065], [-4.692172, 40.521765], [-4.692328, 40.52156], [-4.692559, 40.52145], [-4.692863, 40.521435], [-4.693242, 40.521515], [-4.693695, 40.521689], [-4.694223, 40.521958], [-4.694824, 40.522322], [-4.6955, 40.522781], [-4.696129, 40.523171], [-4.696711, 40.523493], [-4.697245, 40.523747], [-4.697732, 40.523933], [-4.698172, 40.52405], [-4.698565, 40.524099], [-4.69891, 40.52408], [-4.699209, 40.523993], [-4.699506, 40.5239], [-4.699804, 40.5238], [-4.7001, 40.523695], [-4.700396, 40.523584], [-4.700692, 40.523467], [-4.700986, 40.523345], [-4.701281, 40.523216], [-4.701574, 40.523081], [-4.701829, 40.522903], [-4.702045, 40.522682], [-4.702221, 40.522418], [-4.702359, 40.522111], [-4.702458, 40.521761], [-4.702517, 40.521367], [-4.702538, 40.52093], [-4.70252, 40.520451], [-4.702535, 40.520016], [-4.702583, 40.519626], [-4.702666, 40.519282], [-4.702781, 40.518982], [-4.70293, 40.518727], [-4.703112, 40.518517], [-4.703328, 40.518353], [-4.703578, 40.518233], [-4.703805, 40.518111], [-4.704011, 40.517988], [-4.704195, 40.517863], [-4.704358, 40.517736], [-4.704499, 40.517607], [-4.704618, 40.517476], [-4.704715, 40.517343], [-4.704791, 40.517208], [-4.704892, 40.517057], [-4.705018, 40.516889], [-4.705169, 40.516705], [-4.705346, 40.516504], [-4.705547, 40.516286], [-4.705774, 40.516052], [-4.706026, 40.515801], [-4.706303, 40.515533], [-4.706532, 40.515259], [-4.706712, 40.514979], [-4.706844, 40.514692], [-4.706927, 40.514399], [-4.706961, 40.5141], [-4.706948, 40.513794], [-4.706885, 40.513482], [-4.706774, 40.513163], [-4.706733, 40.512886], [-4.70676, 40.512649], [-4.706856, 40.512453], [-4.707021, 40.512298], [-4.707254, 40.512184], [-4.707557, 40.512111], [-4.707929, 40.512079], [-4.70837, 40.512088], [-4.708797, 40.512074], [-4.709211, 40.512037], [-4.709612, 40.511977], [-4.71, 40.511895], [-4.710375, 40.51179], [-4.710736, 40.511662], [-4.711084, 40.511511], [-4.711419, 40.511337], [-4.711703, 40.511128], [-4.711934, 40.510885], [-4.712113, 40.510606], [-4.712241, 40.510293], [-4.712317, 40.509944], [-4.71234, 40.509561], [-4.712312, 40.509143], [-4.712232, 40.508689], [-4.712193, 40.508275], [-4.712194, 40.507901], [-4.712236, 40.507565], [-4.712319, 40.507269], [-4.712441, 40.507012], [-4.712605, 40.506794], [-4.712809, 40.506615], [-4.713054, 40.506475], [-4.713256, 40.506304], [-4.713416, 40.5061], [-4.713534, 40.505864], [-4.713609, 40.505596], [-4.713643, 40.505296], [-4.713634, 40.504964], [-4.713583, 40.504599], [-4.71349, 40.504203], [-4.713468, 40.503832], [-4.713519, 40.503485], [-4.713641, 40.503164], [-4.713835, 40.502868], [-4.714101, 40.502597], [-4.714439, 40.502351], [-4.714849, 40.50213], [-4.715331, 40.501934], [-4.715772, 40.501706], [-4.716171, 40.501445], [-4.71653, 40.501152], [-4.716847, 40.500827], [-4.717123, 40.50047], [-4.717358, 40.500081], [-4.717552, 40.499659], [-4.717704, 40.499205], [-4.717873, 40.498785], [-4.718057, 40.4984], [-4.718258, 40.498049], [-4.718474, 40.497732], [-4.718706, 40.49745], [-4.718954, 40.497202], [-4.719218, 40.496988], [-4.719498, 40.496809], [-4.719824, 40.496686], [-4.720195, 40.496618], [-4.720611, 40.496605], [-4.721073, 40.496648], [-4.721581, 40.496747], [-4.722134, 40.496901], [-4.722733, 40.497111], [-4.723377, 40.497376], [-4.724027, 40.497707], [-4.724685, 40.498104], [-4.725349, 40.498567], [-4.726019, 40.499095], [-4.726696, 40.499689], [-4.727379, 40.500349], [-4.728069, 40.501074], [-4.728766, 40.501865], [-4.729421, 40.502485], [-4.730034, 40.502932], [-4.730606, 40.503209], [-4.731136, 40.503313], [-4.731625, 40.503246], [-4.732072, 40.503008], [-4.732478, 40.502597], [-4.732842, 40.502015], [-4.733195, 40.501453], [-4.733537, 40.500911], [-4.733868, 40.500388], [-4.734188, 40.499884], [-4.734496, 40.4994], [-4.734794, 40.498936], [-4.735081, 40.498492], [-4.735356, 40.498067], [-4.735665, 40.497686], [-4.736006, 40.497349], [-4.73638, 40.497055], [-4.736786, 40.496806], [-4.737225, 40.4966], [-4.737697, 40.496438], [-4.738202, 40.49632], [-4.738739, 40.496245], [-4.739274, 40.496162], [-4.739807, 40.496069], [-4.740338, 40.495968], [-4.740867, 40.495857], [-4.741393, 40.495737], [-4.741918, 40.495608], [-4.74244, 40.49547], [-4.74296, 40.495323], [-4.743466, 40.495169], [-4.743958, 40.495007], [-4.744437, 40.494838], [-4.744901, 40.494662], [-4.745351, 40.494478], [-4.745787, 40.494287], [-4.746208, 40.494089], [-4.746616, 40.493884], [-4.74702, 40.493689], [-4.74742, 40.493506], [-4.747815, 40.493333], [-4.748207, 40.493171], [-4.748594, 40.49302], [-4.748977, 40.49288], [-4.749356, 40.492751], [-4.749731, 40.492632], [-4.750106, 40.492502], [-4.750482, 40.49236], [-4.750858, 40.492205], [-4.751235, 40.492039], [-4.751612, 40.49186], [-4.75199, 40.491669], [-4.752368, 40.491467], [-4.752747, 40.491252], [-4.752993, 40.491037], [-4.753105, 40.490822], [-4.753083, 40.490608], [-4.752929, 40.490393], [-4.752641, 40.490178], [-4.752219, 40.489963], [-4.751665, 40.489748], [-4.750976, 40.489532], [-4.750409, 40.489313], [-4.749961, 40.489089], [-4.749634, 40.488862], [-4.749427, 40.488629], [-4.74934, 40.488393], [-4.749374, 40.488152], [-4.749528, 40.487908], [-4.749802, 40.487658], [-4.750027, 40.487396], [-4.750203, 40.487119], [-4.75033, 40.486829], [-4.750407, 40.486526], [-4.750434, 40.486208], [-4.750413, 40.485877], [-4.750342, 40.485533], [-4.750221, 40.485175], [-4.750062, 40.48486], [-4.749864, 40.484589], [-4.749627, 40.484362], [-4.749351, 40.484178], [-4.749036, 40.484037], [-4.748682, 40.48394], [-4.748289, 40.483887], [-4.747857, 40.483877], [-4.747456, 40.483876], [-4.747087, 40.483884], [-4.746748, 40.483902], [-4.74644, 40.483928], [-4.746163, 40.483964], [-4.745918, 40.484009], [-4.745703, 40.484063], [-4.745519, 40.484126], [-4.74528, 40.484205], [-4.744986, 40.4843], [-4.744637, 40.48441], [-4.744233, 40.484536], [-4.743774, 40.484678], [-4.743259, 40.484836], [-4.74269, 40.485009], [-4.742065, 40.485198], [-4.741495, 40.485306], [-4.740979, 40.485332], [-4.740517, 40.485276], [-4.74011, 40.485139], [-4.739757, 40.48492], [-4.739458, 40.484619], [-4.739214, 40.484237], [-4.739024, 40.483773], [-4.738844, 40.483289], [-4.738674, 40.482786], [-4.738514, 40.482264], [-4.738364, 40.481722], [-4.738224, 40.481161], [-4.738094, 40.48058], [-4.737973, 40.47998], [-4.737863, 40.47936], [-4.737781, 40.478775], [-4.737727, 40.478224], [-4.737702, 40.477707], [-4.737704, 40.477224], [-4.737735, 40.476775], [-4.737794, 40.476361], [-4.737881, 40.475981], [-4.737996, 40.475635], [-4.738112, 40.475318], [-4.738229, 40.475032], [-4.738347, 40.474774], [-4.738466, 40.474546], [-4.738585, 40.474348], [-4.738706, 40.474179], [-4.738827, 40.474039], [-4.738949, 40.473929], [-4.739069, 40.473774], [-4.739187, 40.473573], [-4.739302, 40.473328], [-4.739416, 40.473038], [-4.739528, 40.472702], [-4.739637, 40.472321], [-4.739744, 40.471895], [-4.739849, 40.471425], [-4.739962, 40.470976], [-4.740083, 40.47055], [-4.740211, 40.470145], [-4.740346, 40.469764], [-4.74049, 40.469404], [-4.74064, 40.469067], [-4.740799, 40.468752], [-4.740965, 40.468459], [-4.741138, 40.468178], [-4.741318, 40.467909], [-4.741505, 40.467652], [-4.741699, 40.467406], [-4.7419, 40.467173], [-4.742108, 40.466951], [-4.742323, 40.466742], [-4.742545, 40.466544], [-4.742778, 40.466343], [-4.743023, 40.466138], [-4.743279, 40.46593], [-4.743546, 40.465718], [-4.743826, 40.465503], [-4.744116, 40.465285], [-4.744418, 40.465063], [-4.744732, 40.464838], [-4.745056, 40.464629], [-4.745391, 40.464438], [-4.745737, 40.464265], [-4.746094, 40.464108], [-4.746461, 40.463969], [-4.74684, 40.463846], [-4.747228, 40.463741], [-4.747628, 40.463653], [-4.74806, 40.46357], [-4.748525, 40.463491], [-4.749021, 40.463417], [-4.74955, 40.463347], [-4.750112, 40.463282], [-4.750706, 40.463221], [-4.751332, 40.463164], [-4.751991, 40.463113], [-4.752613, 40.463094], [-4.7532, 40.463107], [-4.753751, 40.463154], [-4.754267, 40.463233], [-4.754746, 40.463345], [-4.755189, 40.46349], [-4.755597, 40.463668], [-4.755968, 40.463879], [-4.75632, 40.464009], [-4.756652, 40.46406], [-4.756964, 40.464031], [-4.757255, 40.463922], [-4.757527, 40.463733], [-4.757779, 40.463463], [-4.758011, 40.463114], [-4.758223, 40.462685], [-4.758436, 40.462304], [-4.75865, 40.461971], [-4.758865, 40.461685], [-4.759082, 40.461447], [-4.7593, 40.461256], [-4.759519, 40.461114], [-4.759739, 40.461019], [-4.759961, 40.460971], [-4.760158, 40.460946], [-4.760332, 40.460942], [-4.760481, 40.460959], [-4.760607, 40.460998], [-4.760709, 40.461059], [-4.760786, 40.461141], [-4.76084, 40.461245], [-4.76087, 40.461371], [-4.760943, 40.461591], [-4.761058, 40.461908], [-4.761215, 40.462319], [-4.761415, 40.462826], [-4.761658, 40.463428], [-4.761943, 40.464126], [-4.762271, 40.464919], [-4.762641, 40.465807], [-4.763094, 40.466485], [-4.763629, 40.466953], [-4.764247, 40.467211], [-4.764947, 40.467259], [-4.765729, 40.467097], [-4.766594, 40.466725], [-4.767541, 40.466142], [-4.76857, 40.46535], [-4.76953, 40.464603], [-4.770419, 40.463902], [-4.771239, 40.463247], [-4.771989, 40.462638], [-4.772669, 40.462075], [-4.773279, 40.461557], [-4.773819, 40.461086], [-4.774289, 40.46066], [-4.774743, 40.460265], [-4.775182, 40.459901], [-4.775605, 40.459569], [-4.776012, 40.459268], [-4.776404, 40.458997], [-4.77678, 40.458758], [-4.77714, 40.458551], [-4.777485, 40.458374], [-4.777881, 40.458154], [-4.778327, 40.45789], [-4.778825, 40.457583], [-4.779374, 40.457232], [-4.779973, 40.456838], [-4.780624, 40.4564], [-4.781325, 40.455919], [-4.782078, 40.455394], [-4.782684, 40.454818], [-4.783144, 40.45419], [-4.783458, 40.453511], [-4.783625, 40.452781], [-4.783646, 40.451999], [-4.783521, 40.451166], [-4.783249, 40.450282], [-4.782831, 40.449346], [-4.782494, 40.448477], [-4.782237, 40.447674], [-4.782061, 40.446938], [-4.781966, 40.446268], [-4.781951, 40.445665], [-4.782016, 40.445128], [-4.782162, 40.444658], [-4.782389, 40.444254], [-4.782589, 40.443816], [-4.782764, 40.443345], [-4.782913, 40.44284], [-4.783036, 40.442301], [-4.783133, 40.441728], [-4.783205, 40.441122], [-4.78325, 40.440482], [-4.78327, 40.439809], [-4.78336, 40.439225], [-4.783521, 40.438732], [-4.783752, 40.438329], [-4.784054, 40.438016], [-4.784426, 40.437794], [-4.784869, 40.437662], [-4.785382, 40.43762], [-4.785966, 40.437668], [-4.786548, 40.437765], [-4.787128, 40.437911], [-4.787707, 40.438106], [-4.788284, 40.43835], [-4.788859, 40.438642], [-4.789433, 40.438984], [-4.790005, 40.439374], [-4.790576, 40.439814], [-4.791129, 40.440143], [-4.791664, 40.440362], [-4.792182, 40.440471], [-4.792683, 40.440471], [-4.793166, 40.44036], [-4.793632, 40.440139], [-4.79408, 40.439808], [-4.79451, 40.439368], [-4.794989, 40.438901], [-4.795515, 40.43841], [-4.79609, 40.437893], [-4.796712, 40.437351], [-4.797382, 40.436783], [-4.7981, 40.43619], [-4.798865, 40.435572], [-4.799679, 40.434928], [-4.800423, 40.434368], [-4.801097, 40.433893], [-4.801702, 40.433502], [-4.802238, 40.433194], [-4.802703, 40.432971], [-4.8031, 40.432832], [-4.803427, 40.432777], [-4.803684, 40.432807], [-4.803952, 40.432855], [-4.804232, 40.432922], [-4.804523, 40.433008], [-4.804825, 40.433112], [-4.805138, 40.433236], [-4.805462, 40.433378], [-4.805798, 40.433539], [-4.806144, 40.433719], [-4.806457, 40.433928], [-4.806737, 40.434166], [-4.806984, 40.434433], [-4.807197, 40.43473], [-4.807377, 40.435055], [-4.807523, 40.435409], [-4.807636, 40.435792], [-4.807716, 40.436204], [-4.807757, 40.436682], [-4.80776, 40.437226], [-4.807726, 40.437835], [-4.807653, 40.43851], [-4.807542, 40.43925], [-4.807393, 40.440057], [-4.807206, 40.440929], [-4.80698, 40.441866], [-4.806846, 40.442764], [-4.806803, 40.443623], [-4.806852, 40.444442], [-4.806992, 40.445221], [-4.807223, 40.445961], [-4.807545, 40.446662], [-4.807958, 40.447323], [-4.808463, 40.447944], [-4.808801, 40.448558], [-4.808971, 40.449165], [-4.808975, 40.449765], [-4.808811, 40.450358], [-4.80848, 40.450944], [-4.807982, 40.451523], [-4.807317, 40.452094], [-4.806484, 40.452659], [-4.805624, 40.453022], [-4.804737, 40.453184], [-4.803822, 40.453146], [-4.80288, 40.452905], [-4.80191, 40.452464], [-4.800913, 40.451822], [-4.799888, 40.450979], [-4.798836, 40.449934], [-4.797906, 40.449179], [-4.797099, 40.448713], [-4.796413, 40.448536], [-4.795849, 40.448649], [-4.795408, 40.449052], [-4.795089, 40.449744], [-4.794891, 40.450725], [-4.794816, 40.451995], [-4.795001, 40.453145], [-4.795445, 40.454172], [-4.796149, 40.455078], [-4.797112, 40.455862], [-4.798336, 40.456525], [-4.799819, 40.457066], [-4.801562, 40.457486], [-4.803565, 40.457784], [-4.805355, 40.458103], [-4.806935, 40.458445], [-4.808302, 40.458809], [-4.809458, 40.459194], [-4.810402, 40.459601], [-4.811134, 40.460031], [-4.811655, 40.460482], [-4.811964, 40.460955], [-4.812212, 40.461429], [-4.812401, 40.461903], [-4.812529, 40.462378], [-4.812597, 40.462854], [-4.812604, 40.46333], [-4.812552, 40.463807], [-4.812439, 40.464284], [-4.812266, 40.464762], [-4.812145, 40.465188], [-4.812077, 40.465561], [-4.812061, 40.465881], [-4.812098, 40.46615], [-4.812187, 40.466365], [-4.812329, 40.466529], [-4.812523, 40.466639], [-4.812769, 40.466698], [-4.813181, 40.466765], [-4.813758, 40.466842], [-4.814501, 40.466927], [-4.815409, 40.467022], [-4.816483, 40.467125], [-4.817722, 40.467238], [-4.819126, 40.46736], [-4.820696, 40.46749], [-4.822164, 40.467666], [-4.823532, 40.467885], [-4.824798, 40.46815], [-4.825963, 40.468458], [-4.827026, 40.468811], [-4.827988, 40.469209], [-4.828849, 40.469651], [-4.829609, 40.470138], [-4.830412, 40.47058], [-4.831258, 40.470978], [-4.832147, 40.471332], [-4.833079, 40.471642], [-4.834055, 40.471908], [-4.835074, 40.472129], [-4.836136, 40.472306], [-4.837241, 40.472439], [-4.838367, 40.472592], [-4.839514, 40.472767], [-4.840681, 40.472962], [-4.841868, 40.473178], [-4.843077, 40.473415], [-4.844306, 40.473672], [-4.845555, 40.473951], [-4.846825, 40.47425], [-4.847974, 40.474498], [-4.849, 40.474694], [-4.849905, 40.474838], [-4.850687, 40.474931], [-4.851348, 40.474972], [-4.851887, 40.474962], [-4.852304, 40.4749], [-4.8526, 40.474787], [-4.85296, 40.474638], [-4.853386, 40.474453], [-4.853877, 40.474233], [-4.854434, 40.473977], [-4.855056, 40.473685], [-4.855743, 40.473358], [-4.856496, 40.472995], [-4.857314, 40.472596], [-4.857984, 40.472196], [-4.858506, 40.471795], [-4.85888, 40.471392], [-4.859107, 40.470988], [-4.859185, 40.470583], [-4.859115, 40.470176], [-4.858897, 40.469768], [-4.858531, 40.469358], [-4.858233, 40.468971], [-4.858003, 40.468605], [-4.857841, 40.468262], [-4.857747, 40.467941], [-4.857721, 40.467642], [-4.857762, 40.467366], [-4.857872, 40.467111], [-4.858049, 40.466879], [-4.858196, 40.466641], [-4.858313, 40.466397], [-4.858399, 40.466148], [-4.858455, 40.465893], [-4.85848, 40.465632], [-4.858475, 40.465366], [-4.85844, 40.465095], [-4.858374, 40.464817], [-4.858348, 40.46452], [-4.858362, 40.464203], [-4.858416, 40.463866], [-4.858511, 40.46351], [-4.858645, 40.463133], [-4.858819, 40.462737], [-4.859033, 40.462321], [-4.859288, 40.461885], [-4.859549, 40.461489], [-4.859818, 40.461134], [-4.860094, 40.460818], [-4.860378, 40.460542], [-4.860668, 40.460306], [-4.860966, 40.46011], [-4.861271, 40.459954], [-4.861584, 40.459838], [-4.861881, 40.459725], [-4.862164, 40.459617], [-4.862433, 40.459513], [-4.862686, 40.459413], [-4.862925, 40.459316], [-4.863149, 40.459224], [-4.863358, 40.459136], [-4.863553, 40.459051], [-4.863752, 40.459008], [-4.863954, 40.459006], [-4.864161, 40.459045], [-4.864371, 40.459125], [-4.864586, 40.459246], [-4.864804, 40.459409], [-4.865026, 40.459612], [-4.865252, 40.459857], [-4.865468, 40.460008], [-4.865673, 40.460065], [-4.865867, 40.460028], [-4.866051, 40.459898], [-4.866224, 40.459673], [-4.866386, 40.459355], [-4.866538, 40.458942], [-4.866679, 40.458436], [-4.866862, 40.457952], [-4.867087, 40.457489], [-4.867353, 40.457048], [-4.867662, 40.456628], [-4.868012, 40.45623], [-4.868404, 40.455854], [-4.868838, 40.4555], [-4.869313, 40.455167], [-4.869717, 40.454786], [-4.870048, 40.454355], [-4.870308, 40.453876], [-4.870495, 40.453348], [-4.870611, 40.45277], [-4.870655, 40.452144], [-4.870626, 40.451469], [-4.870526, 40.450746], [-4.870401, 40.450044], [-4.870253, 40.449365], [-4.870082, 40.448709], [-4.869886, 40.448075], [-4.869667, 40.447463], [-4.869424, 40.446874], [-4.869157, 40.446307], [-4.868867, 40.445763], [-4.868559, 40.445189], [-4.868232, 40.444585], [-4.867887, 40.443952], [-4.867523, 40.443288], [-4.867142, 40.442595], [-4.866742, 40.441873], [-4.866324, 40.44112], [-4.865888, 40.440338], [-4.865525, 40.439639], [-4.865235, 40.439023], [-4.865018, 40.438489], [-4.864875, 40.438039], [-4.864805, 40.437671], [-4.864808, 40.437386], [-4.864884, 40.437184], [-4.865033, 40.437065], [-4.865256, 40.436925], [-4.865552, 40.436763], [-4.865922, 40.43658], [-4.866365, 40.436375], [-4.866882, 40.436149], [-4.867473, 40.435902], [-4.868136, 40.435633], [-4.868874, 40.435343], [-4.869567, 40.435058], [-4.870217, 40.434778], [-4.870823, 40.434502], [-4.871385, 40.434232], [-4.871904, 40.433966], [-4.872379, 40.433705], [-4.87281, 40.43345], [-4.873198, 40.433199], [-4.873652, 40.433003], [-4.874173, 40.432862], [-4.874761, 40.432775], [-4.875415, 40.432744], [-4.876136, 40.432767], [-4.876924, 40.432845], [-4.877778, 40.432978], [-4.878699, 40.433166], [-4.879567, 40.433336], [-4.880382, 40.433489], [-4.881143, 40.433624], [-4.88185, 40.433742], [-4.882505, 40.433842], [-4.883106, 40.433925], [-4.883653, 40.43399], [-4.884148, 40.434038], [-4.884642, 40.434077], [-4.885137, 40.434107], [-4.885632, 40.434129], [-4.886127, 40.434142], [-4.886622, 40.434147], [-4.887118, 40.434143], [-4.887613, 40.434131], [-4.888109, 40.43411], [-4.888596, 40.434105], [-4.889073, 40.434118], [-4.88954, 40.434148], [-4.889998, 40.434194], [-4.890447, 40.434257], [-4.890887, 40.434337], [-4.891317, 40.434434], [-4.891737, 40.434547], [-4.892163, 40.434664], [-4.892594, 40.434783], [-4.89303, 40.434904], [-4.893471, 40.435028], [-4.893917, 40.435155], [-4.894368, 40.435285], [-4.894824, 40.435417], [-4.895286, 40.435552], [-4.895747, 40.43576], [-4.896207, 40.436042], [-4.896668, 40.436398], [-4.897128, 40.436827], [-4.897587, 40.43733], [-4.898047, 40.437906], [-4.898505, 40.438557], [-4.898964, 40.43928], [-4.899353, 40.439936], [-4.899672, 40.440524], [-4.899921, 40.441044], [-4.9001, 40.441496], [-4.900209, 40.441879], [-4.900248, 40.442195], [-4.900218, 40.442443], [-4.900118, 40.442622], [-4.900025, 40.442805], [-4.899939, 40.442992], [-4.899862, 40.443182], [-4.899791, 40.443375], [-4.899729, 40.443572], [-4.899673, 40.443772], [-4.899626, 40.443976], [-4.899585, 40.444183], [-4.899628, 40.44438], [-4.899753, 40.444568], [-4.899961, 40.444745], [-4.900251, 40.444913], [-4.900624, 40.445071], [-4.90108, 40.445219], [-4.901619, 40.445357], [-4.90224, 40.445486], [-4.902817, 40.445628], [-4.903351, 40.445784], [-4.903841, 40.445954], [-4.904287, 40.446137], [-4.90469, 40.446335], [-4.905049, 40.446546], [-4.905364, 40.446772], [-4.905636, 40.447011], [-4.905894, 40.447234], [-4.906138, 40.447441], [-4.906368, 40.447633], [-4.906584, 40.447808], [-4.906787, 40.447968], [-4.906975, 40.448112], [-4.90715, 40.44824], [-4.907311, 40.448353], [-4.907503, 40.448484], [-4.907727, 40.448634], [-4.907982, 40.448804], [-4.908269, 40.448993], [-4.908587, 40.449201], [-4.908936, 40.449428], [-4.909317, 40.449675], [-4.909729, 40.44994], [-4.910089, 40.450268], [-4.910398, 40.450658], [-4.910654, 40.45111], [-4.910859, 40.451625], [-4.911011, 40.452202], [-4.911112, 40.452841], [-4.91116, 40.453543], [-4.911157, 40.454307], [-4.911166, 40.455002], [-4.911186, 40.455627], [-4.911219, 40.456182], [-4.911263, 40.456668], [-4.911319, 40.457085], [-4.911387, 40.457432], [-4.911467, 40.45771], [-4.911559, 40.457918], [-4.911676, 40.458098], [-4.911817, 40.458252], [-4.911984, 40.458378], [-4.912175, 40.458476], [-4.912391, 40.458548], [-4.912631, 40.458592], [-4.912897, 40.458608], [-4.913187, 40.458597], [-4.913505, 40.458577], [-4.91385, 40.458546], [-4.914222, 40.458505], [-4.914621, 40.458454], [-4.915048, 40.458393], [-4.915502, 40.458322], [-4.915983, 40.458241], [-4.916492, 40.45815], [-4.916955, 40.458064], [-4.917371, 40.457984], [-4.917742, 40.457909], [-4.918066, 40.457839], [-4.918345, 40.457774], [-4.918577, 40.457714], [-4.918764, 40.45766], [-4.918904, 40.457611], [-4.919026, 40.457596], [-4.919129, 40.457615], [-4.919213, 40.457667], [-4.919278, 40.457753], [-4.919325, 40.457872], [-4.919352, 40.458025], [-4.919361, 40.458212], [-4.919351, 40.458433], [-4.919377, 40.458629], [-4.919438, 40.458801], [-4.919534, 40.458949], [-4.919667, 40.459072], [-4.919835, 40.459172], [-4.920038, 40.459246], [-4.920277, 40.459297], [-4.920552, 40.459323], [-4.920816, 40.45935], [-4.921068, 40.459376], [-4.921309, 40.459403], [-4.921539, 40.459429], [-4.921758, 40.459455], [-4.921966, 40.459482], [-4.922162, 40.459508], [-4.922348, 40.459534], [-4.922528, 40.459556], [-4.922705, 40.459574], [-4.922877, 40.459587], [-4.923044, 40.459595], [-4.923208, 40.459599], [-4.923366, 40.459599], [-4.923521, 40.459594], [-4.923671, 40.459585], [-4.92382, 40.459583], [-4.923969, 40.459587], [-4.924117, 40.459599], [-4.924264, 40.459617], [-4.924411, 40.459643], [-4.924558, 40.459675], [-4.924704, 40.459714], [-4.924849, 40.45976], [-4.924993, 40.459815], [-4.925137, 40.459877], [-4.92528, 40.459948], [-4.925422, 40.460027], [-4.925563, 40.460113], [-4.925703, 40.460208], [-4.925842, 40.460312], [-4.925981, 40.460423], [-4.92621, 40.460521], [-4.92653, 40.460605], [-4.926941, 40.460675], [-4.927442, 40.460732], [-4.928034, 40.460775], [-4.928716, 40.460804], [-4.92949, 40.460819], [-4.930354, 40.460821], [-4.931155, 40.460845], [-4.931894, 40.460891], [-4.932571, 40.460959], [-4.933185, 40.461048], [-4.933736, 40.461159], [-4.934226, 40.461292], [-4.934653, 40.461447], [-4.935017, 40.461624], [-4.935383, 40.461767], [-4.935751, 40.461874], [-4.936121, 40.461948], [-4.936493, 40.461987], [-4.936866, 40.461991], [-4.937242, 40.461961], [-4.937619, 40.461896], [-4.937998, 40.461797], [-4.93838, 40.461709], [-4.938764, 40.461633], [-4.939152, 40.461569], [-4.939542, 40.461516], [-4.939935, 40.461474], [-4.94033, 40.461444], [-4.940728, 40.461426], [-4.94113, 40.461419], [-4.941525, 40.461439], [-4.941915, 40.461487], [-4.9423, 40.461561], [-4.942679, 40.461662], [-4.943053, 40.46179], [-4.943421, 40.461945], [-4.943784, 40.462127], [-4.944142, 40.462336], [-4.944466, 40.462482], [-4.944756, 40.462566], [-4.945012, 40.462587], [-4.945235, 40.462546], [-4.945424, 40.462443], [-4.94558, 40.462277], [-4.945702, 40.462048], [-4.94579, 40.461757], [-4.945924, 40.461492], [-4.946104, 40.461253], [-4.94633, 40.46104], [-4.946601, 40.460853], [-4.946918, 40.460692], [-4.947281, 40.460556], [-4.94769, 40.460447], [-4.948144, 40.460363], [-4.948571, 40.460287], [-4.94897, 40.460217], [-4.949342, 40.460154], [-4.949687, 40.460098], [-4.950004, 40.460048], [-4.950294, 40.460005], [-4.950556, 40.459969], [-4.95079, 40.45994], [-4.951045, 40.45993], [-4.95132, 40.459939], [-4.951616, 40.459967], [-4.951931, 40.460015], [-4.952267, 40.460081], [-4.952623, 40.460167], [-4.953, 40.460272], [-4.953396, 40.460396], [-4.953778, 40.460483], [-4.954146, 40.460532], [-4.954499, 40.460545], [-4.954838, 40.46052], [-4.955162, 40.460458], [-4.955472, 40.460359], [-4.955767, 40.460223], [-4.956048, 40.46005], [-4.956337, 40.459837], [-4.956634, 40.459585], [-4.95694, 40.459292], [-4.957254, 40.45896], [-4.957577, 40.458587], [-4.957908, 40.458176], [-4.958248, 40.457724], [-4.958595, 40.457232], [-4.958942, 40.456835], [-4.959288, 40.456532], [-4.959633, 40.456323], [-4.959977, 40.456209], [-4.96032, 40.456189], [-4.960662, 40.456263], [-4.961003, 40.456431], [-4.961344, 40.456694], [-4.961605, 40.456967], [-4.961787, 40.45725], [-4.96189, 40.457544], [-4.961913, 40.457849], [-4.961858, 40.458164], [-4.961723, 40.458489], [-4.961509, 40.458825], [-4.961216, 40.459171], [-4.961001, 40.459485], [-4.960865, 40.459766], [-4.960807, 40.460014], [-4.960827, 40.46023], [-4.960926, 40.460413], [-4.961103, 40.460564], [-4.961358, 40.460682], [-4.961692, 40.460768], [-4.962016, 40.460842], [-4.962331, 40.460905], [-4.962637, 40.460957], [-4.962933, 40.460997], [-4.963219, 40.461025], [-4.963496, 40.461043], [-4.963764, 40.461049], [-4.964022, 40.461043], [-4.964301, 40.461053], [-4.9646, 40.461077], [-4.964919, 40.461116], [-4.965259, 40.46117], [-4.965618, 40.461239], [-4.965999, 40.461322], [-4.966399, 40.461421], [-4.96682, 40.461534], [-4.967207, 40.46166], [-4.967559, 40.461797], [-4.967876, 40.461947], [-4.96816, 40.46211], [-4.968408, 40.462284], [-4.968623, 40.462471], [-4.968802, 40.46267], [-4.968948, 40.462881], [-4.969099, 40.463074], [-4.969254, 40.463248], [-4.969415, 40.463405], [-4.969582, 40.463542], [-4.969753, 40.463662], [-4.96993, 40.463763], [-4.970111, 40.463845], [-4.970298, 40.463909], [-4.97048, 40.463975], [-4.970657, 40.464044], [-4.97083, 40.464113], [-4.970997, 40.464185], [-4.971159, 40.464259], [-4.971316, 40.464335], [-4.971469, 40.464412], [-4.971616, 40.464492], [-4.971759, 40.464573], [-4.971896, 40.464656], [-4.972029, 40.464741], [-4.972157, 40.464829], [-4.97228, 40.464918], [-4.972398, 40.465008], [-4.97251, 40.465101], [-4.972618, 40.465196], [-4.972731, 40.465303], [-4.972849, 40.465423], [-4.972971, 40.465555], [-4.973098, 40.465699], [-4.97323, 40.465856], [-4.973366, 40.466025], [-4.973507, 40.466207], [-4.973653, 40.466401], [-4.973792, 40.466579], [-4.973923, 40.466739], [-4.974046, 40.466882], [-4.974163, 40.467009], [-4.974271, 40.467118], [-4.974373, 40.467211], [-4.974466, 40.467287], [-4.974553, 40.467345], [-4.974646, 40.467363], [-4.974747, 40.46734], [-4.974854, 40.467276], [-4.974969, 40.467171], [-4.975091, 40.467025], [-4.975219, 40.466838], [-4.975355, 40.46661], [-4.975498, 40.466342], [-4.975639, 40.466101], [-4.975777, 40.465888], [-4.975912, 40.465702], [-4.976045, 40.465545], [-4.976176, 40.465415], [-4.976304, 40.465313], [-4.97643, 40.465239], [-4.976553, 40.465193], [-4.976682, 40.465152], [-4.976817, 40.465118], [-4.976958, 40.465089], [-4.977105, 40.465067], [-4.977257, 40.46505], [-4.977416, 40.46504], [-4.97758, 40.465035], [-4.977751, 40.465036], [-4.977989, 40.465018], [-4.978297, 40.464982], [-4.978673, 40.464927], [-4.979117, 40.464853], [-4.97963, 40.46476], [-4.980211, 40.464649], [-4.980861, 40.464519], [-4.98158, 40.46437], [-4.98228, 40.464186], [-4.982963, 40.463968], [-4.983628, 40.463714], [-4.984275, 40.463427], [-4.984904, 40.463104], [-4.985516, 40.462747], [-4.986109, 40.462355], [-4.986685, 40.461928], [-4.98722, 40.461519], [-4.987715, 40.461126], [-4.98817, 40.460749], [-4.988583, 40.46039], [-4.988957, 40.460047], [-4.98929, 40.459722], [-4.989583, 40.459413], [-4.989835, 40.459121], [-4.990117, 40.458842], [-4.990429, 40.458576], [-4.990771, 40.458323], [-4.991143, 40.458084], [-4.991545, 40.457857], [-4.991978, 40.457644], [-4.99244, 40.457444], [-4.992932, 40.457257], [-4.993405, 40.457085], [-4.99386, 40.456928], [-4.994296, 40.456787], [-4.994713, 40.456661], [-4.995112, 40.456551], [-4.995492, 40.456456], [-4.995853, 40.456376], [-4.996195, 40.456311], [-4.996547, 40.456272], [-4.996907, 40.456259], [-4.997276, 40.456272], [-4.997653, 40.456311], [-4.99804, 40.456375], [-4.998435, 40.456466], [-4.998839, 40.456582], [-4.999252, 40.456724], [-4.999693, 40.45683], [-5.000164, 40.456901], [-5.000664, 40.456935], [-5.001193, 40.456934], [-5.001751, 40.456896], [-5.002338, 40.456823], [-5.002954, 40.456714], [-5.003599, 40.456569], [-5.004363, 40.456405], [-5.005246, 40.456222], [-5.006248, 40.456019], [-5.007369, 40.455798], [-5.008609, 40.455557], [-5.009968, 40.455297], [-5.011446, 40.455018], [-5.013043, 40.45472], [-5.014471, 40.454454], [-5.01573, 40.454222], [-5.016821, 40.454022], [-5.017743, 40.453856], [-5.018495, 40.453722], [-5.019079, 40.453621], [-5.019495, 40.453553], [-5.019741, 40.453518], [-5.019981, 40.453487], [-5.020214, 40.453459], [-5.020441, 40.453436], [-5.020661, 40.453416], [-5.020874, 40.4534], [-5.021082, 40.453388], [-5.021282, 40.45338], [-5.021476, 40.453375], [-5.021665, 40.453375], [-5.021848, 40.453379], [-5.022025, 40.453388], [-5.022197, 40.453401], [-5.022364, 40.453419], [-5.022525, 40.453441], [-5.022681, 40.453467], [-5.022831, 40.453498], [-5.022972, 40.453529], [-5.023104, 40.453563], [-5.023226, 40.453597], [-5.023339, 40.453632], [-5.023443, 40.453669], [-5.023537, 40.453706], [-5.023622, 40.453745], [-5.023698, 40.453785], [-5.023777, 40.453836], [-5.023858, 40.453897], [-5.023942, 40.453968], [-5.024028, 40.45405], [-5.024118, 40.454142], [-5.02421, 40.454245], [-5.024304, 40.454358], [-5.024401, 40.454481], [-5.02449, 40.454618], [-5.02457, 40.454768], [-5.024641, 40.454932], [-5.024703, 40.455108], [-5.024757, 40.455298], [-5.024801, 40.455501], [-5.024837, 40.455718], [-5.024864, 40.455947], [-5.024882, 40.456175], [-5.024889, 40.456401], [-5.024886, 40.456625], [-5.024874, 40.456847], [-5.024851, 40.457067], [-5.024818, 40.457285], [-5.024776, 40.457502], [-5.024723, 40.457716], [-5.024662, 40.457931], [-5.024593, 40.458148], [-5.024516, 40.458364], [-5.024431, 40.458582], [-5.024337, 40.4588], [-5.024236, 40.45902], [-5.024126, 40.45924], [-5.024008, 40.45946], [-5.023855, 40.459703], [-5.023668, 40.459968], [-5.023446, 40.460256], [-5.02319, 40.460565], [-5.022899, 40.460897], [-5.022573, 40.461251], [-5.022213, 40.461628], [-5.021818, 40.462026], [-5.021326, 40.462502], [-5.020736, 40.463055], [-5.020048, 40.463686], [-5.019264, 40.464394], [-5.018381, 40.465179], [-5.017402, 40.466041], [-5.016324, 40.466981], [-5.015149, 40.467999], [-5.014104, 40.468906], [-5.013189, 40.469705], [-5.012402, 40.470394], [-5.011746, 40.470974], [-5.011219, 40.471444], [-5.010821, 40.471805], [-5.010554, 40.472056], [-5.010415, 40.472198], [-5.010272, 40.472352], [-5.010124, 40.472516], [-5.009971, 40.472691], [-5.009814, 40.472877], [-5.009651, 40.473075], [-5.009484, 40.473283], [-5.009311, 40.473502], [-5.009134, 40.473733], [-5.008974, 40.473954], [-5.008829, 40.474167], [-5.008702, 40.47437], [-5.008591, 40.474565], [-5.008497, 40.47475], [-5.008419, 40.474927], [-5.008358, 40.475094], [-5.008313, 40.475253], [-5.008289, 40.475428], [-5.008284, 40.475619], [-5.0083, 40.475827], [-5.008336, 40.476051], [-5.008392, 40.476291], [-5.008469, 40.476548], [-5.008565, 40.476821], [-5.008682, 40.47711], [-5.008784, 40.47739], [-5.008873, 40.477658], [-5.008947, 40.477916], [-5.009008, 40.478164], [-5.009054, 40.478401], [-5.009086, 40.478628], [-5.009105, 40.478844], [-5.009109, 40.47905], [-5.009105, 40.479247], [-5.009094, 40.479435], [-5.009076, 40.479615], [-5.00905, 40.479786], [-5.009016, 40.479948], [-5.008975, 40.480101], [-5.008927, 40.480246], [-5.008871, 40.480381], [-5.008798, 40.480538], [-5.008709, 40.480714], [-5.008603, 40.480911], [-5.00848, 40.481128], [-5.008341, 40.481366], [-5.008185, 40.481624], [-5.008013, 40.481902], [-5.007824, 40.4822], [-5.007654, 40.482479], [-5.007502, 40.482738], [-5.00737, 40.482978], [-5.007256, 40.483198], [-5.007162, 40.483398], [-5.007086, 40.483579], [-5.007029, 40.48374], [-5.006991, 40.483882], [-5.006957, 40.484028], [-5.006927, 40.484178], [-5.006902, 40.484332], [-5.006881, 40.48449], [-5.006864, 40.484653], [-5.006851, 40.48482], [-5.006843, 40.484991], [-5.006839, 40.485166], [-5.00683, 40.485334], [-5.006817, 40.485494], [-5.0068, 40.485647], [-5.006779, 40.485793], [-5.006753, 40.485931], [-5.006723, 40.486062], [-5.006689, 40.486186], [-5.00665, 40.486302], [-5.006593, 40.486436], [-5.006517, 40.486586], [-5.006423, 40.486754], [-5.00631, 40.48694], [-5.006179, 40.487142], [-5.00603, 40.487362], [-5.005861, 40.487599], [-5.005675, 40.487853], [-5.005496, 40.488105], [-5.005325, 40.488354], [-5.005162, 40.4886], [-5.005007, 40.488844], [-5.00486, 40.489085], [-5.004721, 40.489323], [-5.004589, 40.489559], [-5.004466, 40.489792], [-5.004355, 40.490021], [-5.004257, 40.490244], [-5.004171, 40.490463], [-5.004097, 40.490677], [-5.004036, 40.490886], [-5.003988, 40.49109], [-5.003952, 40.491289], [-5.003928, 40.491484], [-5.003914, 40.491684], [-5.003911, 40.49189], [-5.003917, 40.492101], [-5.003933, 40.492318], [-5.003959, 40.492541], [-5.003995, 40.492769], [-5.004041, 40.493003], [-5.004096, 40.493242], [-5.004141, 40.49347], [-5.004174, 40.493684], [-5.004197, 40.493887], [-5.004208, 40.494077], [-5.004209, 40.494255], [-5.004198, 40.49442], [-5.004176, 40.494573], [-5.004144, 40.494714], [-5.004103, 40.494855], [-5.004053, 40.494995], [-5.003995, 40.495135], [-5.003929, 40.495274], [-5.003854, 40.495414], [-5.003771, 40.495553], [-5.003679, 40.495691], [-5.003579, 40.49583], [-5.003461, 40.495981], [-5.003323, 40.496147], [-5.003166, 40.496326], [-5.00299, 40.496518], [-5.002796, 40.496724], [-5.002582, 40.496944], [-5.002349, 40.497177], [-5.002098, 40.497423], [-5.001777, 40.497718], [-5.001388, 40.49806], [-5.000929, 40.498451], [-5.000402, 40.49889], [-4.999805, 40.499376], [-4.999139, 40.499911], [-4.998404, 40.500493], [-4.9976, 40.501124], [-4.996868, 40.501709], [-4.996206, 40.502248], [-4.995615, 40.502741], [-4.995095, 40.503189], [-4.994646, 40.503592], [-4.994268, 40.503948], [-4.993961, 40.504259], [-4.993725, 40.504525], [-4.993492, 40.504797], [-4.993261, 40.505076], [-4.993033, 40.505361], [-4.992808, 40.505653], [-4.992585, 40.505952], [-4.992365, 40.506258], [-4.992148, 40.506571], [-4.991933, 40.50689], [-4.99174, 40.507242], [-4.991569, 40.507628], [-4.991419, 40.508047], [-4.991291, 40.508498], [-4.991184, 40.508983], [-4.991099, 40.509501], [-4.991036, 40.510052], [-4.990994, 40.510636], [-4.990904, 40.511212], [-4.990767, 40.511779], [-4.990581, 40.512338], [-4.990347, 40.512889], [-4.990064, 40.513431], [-4.989734, 40.513965], [-4.989356, 40.51449], [-4.988929, 40.515007], [-4.988549, 40.515503], [-4.988215, 40.515978], [-4.987927, 40.516432], [-4.987685, 40.516864], [-4.98749, 40.517276], [-4.98734, 40.517666], [-4.987237, 40.518035], [-4.98718, 40.518383], [-4.987095, 40.518696], [-4.986983, 40.518974], [-4.986843, 40.519216], [-4.986675, 40.519424], [-4.98648, 40.519596], [-4.986257, 40.519733], [-4.986007, 40.519835], [-4.985728, 40.519901], [-4.985456, 40.519979], [-4.98519, 40.520069], [-4.984929, 40.52017], [-4.984675, 40.520283], [-4.984426, 40.520407], [-4.984184, 40.520543], [-4.983947, 40.52069], [-4.983717, 40.520849], [-4.983486, 40.520994], [-4.983255, 40.521125], [-4.983025, 40.521242], [-4.982795, 40.521346], [-4.982564, 40.521436], [-4.982334, 40.521513], [-4.982104, 40.521576], [-4.981874, 40.521625], [-4.981657, 40.521679]]]}}]}