{"type": "FeatureCollection", "name": "NAVALUENGA", "features": [{"type": "Feature", "properties": {"id": "562592", "FIREDATE": "2026-07-22T13:36:00", "FINALDATE": "2026-07-27T03:49:00", "LASTUPDATE": "2026-07-23 07:55:54.878692", "COUNTRY": "ES", "PROVINCE": "Ávila", "COMMUNE": "Navaluenga", "AREA_HA": 44403.0, "BROADLEA": 4.6722, "CONIFER": 20.2153, "MIXED": 27.2494, "SCLEROPH": 20.7061, "TRANSIT": 5.0684, "OTHERNATLC": 9.3421, "AGRIAREAS": 11.5262, "ARTIFSURF": 1.1101, "OTHERLC": 0.1103, "PERCNA2K": 77.1594, "CLASS": "7DAYS", "AÑO": 2026, "LATITUD": 40.36353737600509, "LONGITUD": -4.60434656123086}, "geometry": {"type": "Polygon", "coordinates": [[[-4.792919, 40.359567], [-4.792019, 40.360472], [-4.792018, 40.360489], [-4.79193, 40.360965], [-4.79172, 40.361173], [-4.791629, 40.361517], [-4.791038, 40.361465], [-4.790895, 40.361452], [-4.790925, 40.361579], [-4.790936, 40.361622], [-4.791117, 40.361903], [-4.791449, 40.362094], [-4.791903, 40.362069], [-4.792144, 40.362363], [-4.791844, 40.362915], [-4.791728, 40.36291], [-4.791083, 40.362612], [-4.790775, 40.362527], [-4.790543, 40.36276], [-4.79014, 40.362998], [-4.789525, 40.362827], [-4.789446, 40.362627], [-4.789687, 40.362054], [-4.789503, 40.362126], [-4.788813, 40.362121], [-4.789019, 40.362508], [-4.789033, 40.36254], [-4.788983, 40.362843], [-4.788746, 40.363055], [-4.788679, 40.363506], [-4.788495, 40.36382], [-4.788005, 40.362838], [-4.787883, 40.363539], [-4.787772, 40.363798], [-4.787723, 40.364201], [-4.787582, 40.364462], [-4.787878, 40.364898], [-4.787561, 40.364974], [-4.78757, 40.365259], [-4.787683, 40.365616], [-4.787456, 40.365629], [-4.787307, 40.365849], [-4.787579, 40.36627], [-4.788098, 40.36628], [-4.788421, 40.366186], [-4.788504, 40.365932], [-4.788578, 40.365929], [-4.788704, 40.365923], [-4.789001, 40.365966], [-4.789107, 40.36617], [-4.788902, 40.366399], [-4.788902, 40.366406], [-4.788887, 40.366578], [-4.789029, 40.366595], [-4.789212, 40.366617], [-4.789474, 40.366753], [-4.789433, 40.367067], [-4.789475, 40.367369], [-4.78972, 40.367552], [-4.789613, 40.367832], [-4.789893, 40.367922], [-4.790123, 40.367799], [-4.790151, 40.36731], [-4.790426, 40.367136], [-4.790255, 40.366898], [-4.789842, 40.366851], [-4.789799, 40.366549], [-4.789563, 40.366277], [-4.789785, 40.366243], [-4.790435, 40.366321], [-4.791007, 40.366432], [-4.791427, 40.366632], [-4.791656, 40.366993], [-4.791517, 40.367257], [-4.791247, 40.367452], [-4.790952, 40.367541], [-4.790947, 40.367762], [-4.790553, 40.368041], [-4.790664, 40.368267], [-4.790752, 40.368518], [-4.790288, 40.368742], [-4.79, 40.368984], [-4.790078, 40.369223], [-4.790103, 40.369299], [-4.790107, 40.369562], [-4.790195, 40.369813], [-4.790261, 40.369847], [-4.790558, 40.36989], [-4.790569, 40.369878], [-4.790695, 40.369737], [-4.790876, 40.369775], [-4.790966, 40.370158], [-4.791084, 40.370294], [-4.791372, 40.370294], [-4.791273, 40.370485], [-4.791097, 40.370583], [-4.791218, 40.370745], [-4.791068, 40.370957], [-4.790736, 40.371007], [-4.790194, 40.370782], [-4.789922, 40.370603], [-4.789534, 40.37042], [-4.789455, 40.370696], [-4.789467, 40.371112], [-4.789631, 40.371439], [-4.78982, 40.371631], [-4.790122, 40.371695], [-4.790376, 40.37192], [-4.790648, 40.372341], [-4.790718, 40.372639], [-4.790746, 40.372877], [-4.790895, 40.372414], [-4.791215, 40.372431], [-4.791281, 40.372465], [-4.791214, 40.372916], [-4.791338, 40.373108], [-4.791486, 40.373337], [-4.791362, 40.373421], [-4.791241, 40.373638], [-4.791309, 40.374046], [-4.791343, 40.374437], [-4.79131, 40.374662], [-4.790995, 40.374666], [-4.790662, 40.374716], [-4.790302, 40.374771], [-4.789644, 40.374783], [-4.789608, 40.374778], [-4.789109, 40.37471], [-4.788656, 40.374735], [-4.788312, 40.374986], [-4.787808, 40.374798], [-4.787794, 40.374492], [-4.787479, 40.374496], [-4.787296, 40.374942], [-4.786538, 40.375013], [-4.786489, 40.375175], [-4.786572, 40.375404], [-4.786769, 40.375506], [-4.787069, 40.375439], [-4.787187, 40.375333], [-4.787731, 40.37569], [-4.788047, 40.375686], [-4.788405, 40.375742], [-4.788806, 40.375615], [-4.789005, 40.375607], [-4.789216, 40.375773], [-4.789335, 40.375909], [-4.78917, 40.376066], [-4.788853, 40.375938], [-4.78881, 40.376121], [-4.788842, 40.37638], [-4.788812, 40.376494], [-4.788703, 40.376643], [-4.789137, 40.376775], [-4.788935, 40.376894], [-4.788614, 40.377119], [-4.788725, 40.377344], [-4.788977, 40.37768], [-4.789251, 40.377991], [-4.789397, 40.378122], [-4.789212, 40.378437], [-4.789084, 40.3785], [-4.788668, 40.378563], [-4.788534, 40.378848], [-4.788491, 40.379339], [-4.788477, 40.379462], [-4.788473, 40.379628], [-4.788571, 40.3798], [-4.788881, 40.380259], [-4.788894, 40.380741], [-4.788908, 40.380981], [-4.789076, 40.381209], [-4.788976, 40.381334], [-4.788962, 40.381457], [-4.789098, 40.381547], [-4.789181, 40.381776], [-4.789082, 40.382088], [-4.789226, 40.382331], [-4.789597, 40.383111], [-4.789591, 40.383332], [-4.789456, 40.38355], [-4.78931, 40.383661], [-4.789357, 40.383862], [-4.789303, 40.384058], [-4.789183, 40.384098], [-4.789032, 40.384187], [-4.788999, 40.384291], [-4.788931, 40.384368], [-4.788885, 40.384418], [-4.788756, 40.384603], [-4.788636, 40.384585], [-4.788503, 40.384565], [-4.788424, 40.38472], [-4.788264, 40.384832], [-4.787894, 40.384723], [-4.787735, 40.38478], [-4.787689, 40.384952], [-4.787592, 40.385209], [-4.787536, 40.385339], [-4.787562, 40.385376], [-4.787667, 40.385528], [-4.787855, 40.385532], [-4.787972, 40.385724], [-4.787878, 40.385936], [-4.787647, 40.385993], [-4.787437, 40.386014], [-4.787304, 40.386122], [-4.787115, 40.386173], [-4.78703, 40.386207], [-4.786833, 40.386286], [-4.786699, 40.386115], [-4.786578, 40.386332], [-4.786502, 40.38674], [-4.786325, 40.386965], [-4.786057, 40.387049], [-4.785939, 40.387155], [-4.785983, 40.387589], [-4.786178, 40.38768], [-4.786339, 40.387755], [-4.786498, 40.387577], [-4.786549, 40.387305], [-4.786927, 40.387203], [-4.786942, 40.387509], [-4.786752, 40.387802], [-4.786278, 40.387984], [-4.786195, 40.387997], [-4.785882, 40.388132], [-4.785493, 40.388434], [-4.78491, 40.388522], [-4.784714, 40.38842], [-4.784363, 40.388517], [-4.783867, 40.388483], [-4.783836, 40.388468], [-4.783511, 40.388316], [-4.783415, 40.388397], [-4.782616, 40.38854], [-4.781688, 40.388505], [-4.780725, 40.388564], [-4.779554, 40.388961], [-4.779423, 40.389164], [-4.779301, 40.389352], [-4.77924, 40.389824], [-4.778642, 40.389848], [-4.778261, 40.39006], [-4.7776, 40.390425], [-4.776575, 40.390954], [-4.776466, 40.390966], [-4.77565, 40.391051], [-4.77543, 40.391216], [-4.775089, 40.391598], [-4.775417, 40.391769], [-4.775357, 40.391835], [-4.775189, 40.392023], [-4.774944, 40.392325], [-4.774661, 40.392588], [-4.774374, 40.392829], [-4.774013, 40.393126], [-4.773798, 40.393313], [-4.773356, 40.393512], [-4.773061, 40.393601], [-4.77303, 40.393534], [-4.772888, 40.393231], [-4.77348, 40.393185], [-4.77364, 40.392765], [-4.773605, 40.392374], [-4.773522, 40.392629], [-4.773443, 40.392663], [-4.773358, 40.392301], [-4.772865, 40.391914], [-4.77269, 40.392028], [-4.772594, 40.392109], [-4.772808, 40.392407], [-4.772911, 40.392721], [-4.772873, 40.392925], [-4.772701, 40.393171], [-4.772746, 40.393363], [-4.772473, 40.393668], [-4.771981, 40.393897], [-4.772077, 40.394058], [-4.772132, 40.39419], [-4.771667, 40.394529], [-4.771446, 40.39455], [-4.770878, 40.394703], [-4.770517, 40.394757], [-4.77034, 40.394982], [-4.769685, 40.394884], [-4.769368, 40.394514], [-4.768785, 40.394844], [-4.768676, 40.395235], [-4.768571, 40.395889], [-4.76845, 40.396106], [-4.768268, 40.396309], [-4.767904, 40.396474], [-4.767773, 40.396648], [-4.767545, 40.397145], [-4.767116, 40.397276], [-4.766856, 40.397272], [-4.766874, 40.397467], [-4.766447, 40.397488], [-4.766009, 40.397334], [-4.766289, 40.397182], [-4.766327, 40.396978], [-4.765241, 40.396879], [-4.765152, 40.397112], [-4.765492, 40.397457], [-4.765761, 40.397504], [-4.765925, 40.397589], [-4.766146, 40.39804], [-4.766242, 40.398201], [-4.765997, 40.39826], [-4.765956, 40.398575], [-4.765994, 40.398855], [-4.765877, 40.399093], [-4.765852, 40.399253], [-4.763301, 40.400512], [-4.763146, 40.400432], [-4.76295, 40.400087], [-4.762562, 40.400146], [-4.762158, 40.400141], [-4.761699, 40.399903], [-4.76145, 40.399941], [-4.761311, 40.400204], [-4.760589, 40.400313], [-4.759845, 40.400206], [-4.759447, 40.39998], [-4.758396, 40.40003], [-4.758337, 40.400391], [-4.757993, 40.400641], [-4.756828, 40.400575], [-4.756638, 40.40111], [-4.755995, 40.401186], [-4.754932, 40.401677], [-4.754254, 40.401604], [-4.753904, 40.401459], [-4.75382, 40.401714], [-4.754049, 40.402075], [-4.754046, 40.402428], [-4.753295, 40.401683], [-4.752849, 40.401861], [-4.752922, 40.402048], [-4.753521, 40.402397], [-4.75374, 40.402716], [-4.753848, 40.403052], [-4.753364, 40.402949], [-4.753254, 40.402482], [-4.753054, 40.40249], [-4.753001, 40.402872], [-4.753202, 40.403238], [-4.753421, 40.403557], [-4.75335, 40.403744], [-4.752973, 40.403977], [-4.75263, 40.404227], [-4.752511, 40.404575], [-4.75244, 40.404687], [-4.75228, 40.40494], [-4.752225, 40.40477], [-4.752178, 40.404626], [-4.751739, 40.404714], [-4.751529, 40.404922], [-4.751417, 40.405095], [-4.751213, 40.40541], [-4.750582, 40.40566], [-4.750064, 40.405782], [-4.749467, 40.405873], [-4.749121, 40.405925], [-4.748593, 40.406005], [-4.747905, 40.405889], [-4.747385, 40.406122], [-4.747106, 40.405548], [-4.746854, 40.405454], [-4.746752, 40.405998], [-4.746379, 40.40612], [-4.746088, 40.40623], [-4.745412, 40.406289], [-4.74454, 40.406245], [-4.744018, 40.406346], [-4.74322, 40.406379], [-4.742852, 40.40628], [-4.742184, 40.406492], [-4.741269, 40.406146], [-4.740812, 40.406281], [-4.740403, 40.406255], [-4.739806, 40.406037], [-4.739365, 40.406258], [-4.73885, 40.406093], [-4.738277, 40.406048], [-4.734619, 40.404943], [-4.731386, 40.405547], [-4.729508, 40.406246], [-4.728952, 40.406107], [-4.727729, 40.405759], [-4.726422, 40.405349], [-4.725255, 40.404953], [-4.725507, 40.403507], [-4.725265, 40.402797], [-4.724002, 40.402529], [-4.724103, 40.401365], [-4.722998, 40.40113], [-4.723257, 40.399999], [-4.722719, 40.399621], [-4.721771, 40.39942], [-4.721589, 40.398643], [-4.720497, 40.398464], [-4.719926, 40.397631], [-4.719586, 40.396821], [-4.717874, 40.397195], [-4.718326, 40.39816], [-4.718278, 40.398914], [-4.717994, 40.399302], [-4.718993, 40.399725], [-4.720158, 40.399894], [-4.719958, 40.400958], [-4.718838, 40.401299], [-4.717139, 40.401729], [-4.717122, 40.402684], [-4.715535, 40.403522], [-4.714143, 40.404938], [-4.711515, 40.405565], [-4.712473, 40.404214], [-4.711236, 40.404057], [-4.709941, 40.403333], [-4.708451, 40.402434], [-4.707433, 40.402661], [-4.706348, 40.402958], [-4.705209, 40.403322], [-4.704813, 40.403465], [-4.704485, 40.403411], [-4.703526, 40.402522], [-4.702815, 40.402687], [-4.701136, 40.402883], [-4.700575, 40.40337], [-4.699279, 40.403278], [-4.697652, 40.403696], [-4.696512, 40.40427], [-4.695489, 40.405344], [-4.692149, 40.406135], [-4.691934, 40.40655], [-4.691633, 40.407132], [-4.690368, 40.407495], [-4.688249, 40.407412], [-4.687287, 40.407787], [-4.687673, 40.406236], [-4.688592, 40.404682], [-4.689016, 40.403966], [-4.68923, 40.402957], [-4.690047, 40.402604], [-4.69011, 40.402447], [-4.690393, 40.402436], [-4.690804, 40.402594], [-4.691154, 40.402739], [-4.691132, 40.402522], [-4.690907, 40.402424], [-4.691027, 40.402076], [-4.690939, 40.401825], [-4.690478, 40.401697], [-4.690442, 40.401619], [-4.690626, 40.401162], [-4.690818, 40.401183], [-4.691332, 40.401414], [-4.69145, 40.401308], [-4.691731, 40.401156], [-4.69192, 40.401105], [-4.692012, 40.400761], [-4.692314, 40.400825], [-4.692359, 40.40059], [-4.692378, 40.400486], [-4.69278, 40.400359], [-4.693178, 40.400343], [-4.693255, 40.400454], [-4.693712, 40.400385], [-4.694406, 40.400554], [-4.694641, 40.400452], [-4.695286, 40.400509], [-4.69549, 40.400522], [-4.69594, 40.400234], [-4.696243, 40.400056], [-4.69638, 40.399904], [-4.696766, 40.399713], [-4.696481, 40.399602], [-4.696575, 40.39939], [-4.696308, 40.399232], [-4.695781, 40.399312], [-4.695589, 40.399473], [-4.695541, 40.39952], [-4.694832, 40.399679], [-4.694455, 40.399908], [-4.694236, 40.399831], [-4.694184, 40.399718], [-4.694121, 40.399585], [-4.6942, 40.399308], [-4.694231, 40.399194], [-4.694377, 40.399084], [-4.694239, 40.398862], [-4.694356, 40.398625], [-4.694142, 40.398569], [-4.693826, 40.398573], [-4.693936, 40.398182], [-4.694075, 40.397919], [-4.694393, 40.397805], [-4.694684, 40.397453], [-4.694985, 40.397143], [-4.695294, 40.396745], [-4.695449, 40.396545], [-4.695611, 40.396257], [-4.695574, 40.395976], [-4.695514, 40.395721], [-4.695497, 40.395526], [-4.695677, 40.39519], [-4.695676, 40.394877], [-4.695675, 40.394816], [-4.695757, 40.39443], [-4.69605, 40.39421], [-4.696192, 40.394078], [-4.69656, 40.393318], [-4.69679, 40.392953], [-4.697139, 40.392725], [-4.697379, 40.392645], [-4.69759, 40.392811], [-4.698057, 40.392718], [-4.698096, 40.392272], [-4.698247, 40.392083], [-4.698296, 40.392022], [-4.698264, 40.391521], [-4.698453, 40.390854], [-4.698855, 40.390485], [-4.699317, 40.390129], [-4.69983, 40.389744], [-4.70009, 40.389506], [-4.700468, 40.389647], [-4.700678, 40.389439], [-4.701008, 40.3895], [-4.701666, 40.388872], [-4.701899, 40.388397], [-4.702066, 40.388306], [-4.701731, 40.388048], [-4.702392, 40.387926], [-4.702439, 40.387928], [-4.70286, 40.387721], [-4.703599, 40.387357], [-4.703889, 40.387326], [-4.70435, 40.387212], [-4.704699, 40.386983], [-4.704909, 40.386776], [-4.704985, 40.38661], [-4.705066, 40.386466], [-4.705069, 40.386154], [-4.70516, 40.386053], [-4.705375, 40.386067], [-4.705693, 40.385953], [-4.705847, 40.385754], [-4.705996, 40.385533], [-4.706151, 40.385334], [-4.706413, 40.385228], [-4.706733, 40.385246], [-4.70741, 40.384945], [-4.70768, 40.384993], [-4.707896, 40.384938], [-4.708194, 40.384981], [-4.708613, 40.384807], [-4.708535, 40.384599], [-4.708384, 40.384688], [-4.708141, 40.384879], [-4.708263, 40.384662], [-4.708508, 40.384361], [-4.708486, 40.384144], [-4.708176, 40.384169], [-4.707969, 40.384267], [-4.707662, 40.384181], [-4.707245, 40.384244], [-4.707198, 40.384163], [-4.707468, 40.383968], [-4.708033, 40.383927], [-4.708434, 40.3838], [-4.708445, 40.3836], [-4.708556, 40.383341], [-4.708595, 40.383138], [-4.70893, 40.382977], [-4.709312, 40.382765], [-4.709587, 40.382592], [-4.709224, 40.382514], [-4.708846, 40.382373], [-4.708948, 40.382072], [-4.709119, 40.382068], [-4.70944, 40.382086], [-4.709647, 40.381988], [-4.709814, 40.381721], [-4.709885, 40.381292], [-4.709793, 40.38102], [-4.709306, 40.38127], [-4.708918, 40.381086], [-4.708778, 40.381349], [-4.708427, 40.381688], [-4.708335, 40.382032], [-4.708093, 40.382223], [-4.707818, 40.382155], [-4.707639, 40.382248], [-4.707433, 40.382103], [-4.707226, 40.38207], [-4.706717, 40.381991], [-4.706367, 40.381846], [-4.706224, 40.381603], [-4.706202, 40.381386], [-4.706154, 40.381306], [-4.705971, 40.380893], [-4.705783, 40.380701], [-4.705445, 40.380731], [-4.705039, 40.380594], [-4.704848, 40.380513], [-4.70453, 40.380384], [-4.704029, 40.380328], [-4.703902, 40.379665], [-4.703678, 40.379567], [-4.703254, 40.379719], [-4.702923, 40.379285], [-4.702596, 40.378872], [-4.703203, 40.37889], [-4.703536, 40.37884], [-4.703673, 40.378687], [-4.703864, 40.378769], [-4.704149, 40.37888], [-4.703949, 40.37913], [-4.704249, 40.379305], [-4.704284, 40.379211], [-4.704378, 40.378999], [-4.704355, 40.378902], [-4.703367, 40.377919], [-4.702417, 40.376788], [-4.699888, 40.375596], [-4.695779, 40.374343], [-4.693086, 40.373701], [-4.691807, 40.373669], [-4.69019, 40.3747], [-4.688235, 40.376794], [-4.686085, 40.378055], [-4.68374, 40.378484], [-4.680612, 40.37933], [-4.676702, 40.380594], [-4.673517, 40.381824], [-4.671058, 40.383019], [-4.668973, 40.38534], [-4.667262, 40.388787], [-4.666224, 40.390673], [-4.66586, 40.390998], [-4.665521, 40.391332], [-4.665208, 40.391675], [-4.664926, 40.392022], [-4.664675, 40.392373], [-4.664454, 40.392729], [-4.664264, 40.393089], [-4.664061, 40.393463], [-4.663846, 40.393851], [-4.663617, 40.394252], [-4.663375, 40.394667], [-4.66312, 40.395095], [-4.662852, 40.395537], [-4.662571, 40.395993], [-4.662277, 40.396463], [-4.66197, 40.396947], [-4.661649, 40.397444], [-4.661316, 40.397954], [-4.66097, 40.398479], [-4.660611, 40.399017], [-4.660239, 40.399569], [-4.659853, 40.400135], [-4.659455, 40.400714], [-4.659074, 40.401261], [-4.65871, 40.401777], [-4.658363, 40.402262], [-4.658034, 40.402714], [-4.657722, 40.403135], [-4.657427, 40.403525], [-4.657149, 40.403882], [-4.656888, 40.404208], [-4.65676, 40.404559], [-4.656766, 40.404935], [-4.656905, 40.405336], [-4.657177, 40.405761], [-4.657582, 40.406212], [-4.658121, 40.406688], [-4.658792, 40.407188], [-4.659597, 40.407713], [-4.660379, 40.408295], [-4.661137, 40.408932], [-4.661871, 40.409625], [-4.66247, 40.410256], [-4.661492, 40.410687], [-4.661534, 40.410868], [-4.661449, 40.411057], [-4.661292, 40.411246], [-4.661327, 40.411394], [-4.661289, 40.411664], [-4.661145, 40.411785], [-4.661119, 40.411921], [-4.661086, 40.412146], [-4.661204, 40.412469], [-4.661167, 40.412739], [-4.661131, 40.412953], [-4.661406, 40.41333], [-4.661425, 40.413657], [-4.66141, 40.413901], [-4.66144, 40.414029], [-4.661525, 40.414269], [-4.66158, 40.414503], [-4.661404, 40.414673], [-4.661119, 40.414869], [-4.661141, 40.415063], [-4.661083, 40.415084], [-4.66078, 40.415262], [-4.660384, 40.415409], [-4.660058, 40.41537], [-4.660039, 40.415043], [-4.65954, 40.414876], [-4.659342, 40.414642], [-4.658753, 40.414335], [-4.65837, 40.414172], [-4.657928, 40.414371], [-4.657343, 40.414327], [-4.656867, 40.414134], [-4.656561, 40.41418], [-4.655907, 40.413839], [-4.655634, 40.413902], [-4.655409, 40.414046], [-4.654699, 40.414328], [-4.653942, 40.41453], [-4.653992, 40.414743], [-4.653829, 40.415032], [-4.653593, 40.415375], [-4.65298, 40.415577], [-4.652525, 40.415844], [-4.652098, 40.416106], [-4.65158, 40.416228], [-4.651302, 40.416512], [-4.650663, 40.416608], [-4.649668, 40.416164], [-4.649171, 40.416371], [-4.649016, 40.41657], [-4.648713, 40.416748], [-4.648323, 40.416432], [-4.647871, 40.416588], [-4.647056, 40.416667], [-4.646847, 40.41639], [-4.646517, 40.41633], [-4.645918, 40.416596], [-4.644931, 40.416062], [-4.645969, 40.415708], [-4.646518, 40.415471], [-4.646728, 40.415264], [-4.647138, 40.414806], [-4.64723, 40.414462], [-4.646594, 40.414448], [-4.645914, 40.414858], [-4.645435, 40.415018], [-4.644673, 40.414957], [-4.644461, 40.414416], [-4.644588, 40.413979], [-4.643896, 40.414215], [-4.643117, 40.413584], [-4.642881, 40.413312], [-4.642782, 40.413503], [-4.642278, 40.413314], [-4.641319, 40.413392], [-4.639406, 40.413812], [-4.638453, 40.414285], [-4.637571, 40.414572], [-4.635925, 40.41515], [-4.634806, 40.415406], [-4.633749, 40.415432], [-4.633267, 40.415461], [-4.632479, 40.415777], [-4.631467, 40.415995], [-4.63052, 40.416248], [-4.63018, 40.416145], [-4.629694, 40.41591], [-4.629086, 40.415891], [-4.628828, 40.416018], [-4.628726, 40.416319], [-4.628933, 40.416464], [-4.629056, 40.416622], [-4.629017, 40.416826], [-4.627827, 40.417268], [-4.627399, 40.417157], [-4.626982, 40.417219], [-4.626828, 40.417419], [-4.626732, 40.417499], [-4.6265, 40.41749], [-4.626083, 40.417552], [-4.625742, 40.417692], [-4.625638, 40.417861], [-4.625368, 40.417814], [-4.625174, 40.417843], [-4.624707, 40.417935], [-4.624543, 40.418206], [-4.624479, 40.418174], [-4.624396, 40.418202], [-4.623457, 40.418365], [-4.622815, 40.418571], [-4.622325, 40.418689], [-4.621801, 40.418658], [-4.621164, 40.418885], [-4.620724, 40.419215], [-4.619897, 40.419119], [-4.619707, 40.419412], [-4.619269, 40.419632], [-4.618338, 40.419705], [-4.617863, 40.419887], [-4.61693, 40.419829], [-4.616427, 40.420014], [-4.616081, 40.420132], [-4.615446, 40.420118], [-4.614905, 40.420265], [-4.614332, 40.420395], [-4.613664, 40.420192], [-4.613652, 40.420189], [-4.613639, 40.4202], [-4.61334, 40.420455], [-4.61257, 40.420725], [-4.611954, 40.420795], [-4.611594, 40.420811], [-4.611129, 40.420831], [-4.610152, 40.420956], [-4.609758, 40.421235], [-4.609387, 40.421247], [-4.608178, 40.421362], [-4.608097, 40.421527], [-4.608061, 40.4216], [-4.607589, 40.42167], [-4.607341, 40.42184], [-4.607036, 40.421885], [-4.606557, 40.421803], [-4.606114, 40.422002], [-4.606174, 40.422257], [-4.605939, 40.422358], [-4.60558, 40.422544], [-4.605615, 40.422693], [-4.605612, 40.422803], [-4.605402, 40.422768], [-4.604878, 40.422737], [-4.60474, 40.422516], [-4.604307, 40.422383], [-4.603926, 40.422352], [-4.60409, 40.422195], [-4.604178, 40.422052], [-4.604195, 40.422025], [-4.604042, 40.42174], [-4.604229, 40.421558], [-4.604005, 40.42146], [-4.603857, 40.421812], [-4.60357, 40.421811], [-4.603643, 40.422124], [-4.603674, 40.422257], [-4.603341, 40.422307], [-4.603055, 40.422438], [-4.602307, 40.422682], [-4.601608, 40.422765], [-4.601308, 40.422832], [-4.600862, 40.422767], [-4.600784, 40.422559], [-4.600639, 40.422059], [-4.600638, 40.422053], [-4.600621, 40.422052], [-4.600146, 40.422038], [-4.599974, 40.422042], [-4.599811, 40.421957], [-4.599067, 40.421848], [-4.598739, 40.421919], [-4.598544, 40.421997], [-4.598476, 40.422025], [-4.598006, 40.422227], [-4.598047, 40.422452], [-4.591603, 40.422524], [-4.5857, 40.421764], [-4.58377, 40.420135], [-4.581749, 40.418885], [-4.579638, 40.418013], [-4.578535, 40.417631], [-4.57844, 40.417736], [-4.57692, 40.418793], [-4.574117, 40.420705], [-4.574056, 40.420665], [-4.572258, 40.420187], [-4.570379, 40.420061], [-4.570426, 40.419887], [-4.570744, 40.418031], [-4.571627, 40.417956], [-4.571731, 40.417596], [-4.571169, 40.417278], [-4.570328, 40.416887], [-4.56922, 40.415991], [-4.569282, 40.414804], [-4.570376, 40.413866], [-4.5712, 40.413541], [-4.570817, 40.412536], [-4.569895, 40.411957], [-4.569624, 40.407892], [-4.568758, 40.408682], [-4.568047, 40.410137], [-4.567204, 40.412962], [-4.567371, 40.414487], [-4.565304, 40.417208], [-4.564651, 40.417622], [-4.56425, 40.418801], [-4.562683, 40.418835], [-4.561825, 40.419336], [-4.561981, 40.419787], [-4.562166, 40.420319], [-4.560293, 40.420972], [-4.559028, 40.421821], [-4.558793, 40.422746], [-4.557027, 40.423699], [-4.554339, 40.424072], [-4.552361, 40.424109], [-4.551191, 40.423107], [-4.551689, 40.422143], [-4.551786, 40.421956], [-4.550918, 40.42177], [-4.549522, 40.421892], [-4.547965, 40.421809], [-4.546539, 40.421965], [-4.545268, 40.421982], [-4.544575, 40.421741], [-4.543974, 40.422061], [-4.543473, 40.421676], [-4.543148, 40.421409], [-4.542267, 40.421971], [-4.542043, 40.422379], [-4.541892, 40.422458], [-4.541211, 40.423076], [-4.539702, 40.423359], [-4.537075, 40.423349], [-4.534896, 40.423377], [-4.534758, 40.423379], [-4.533367, 40.423041], [-4.532489, 40.422971], [-4.53167, 40.423882], [-4.530937, 40.423996], [-4.530831, 40.423907], [-4.529803, 40.423515], [-4.52936, 40.422089], [-4.528142, 40.422012], [-4.526748, 40.422306], [-4.526444, 40.42439], [-4.525815, 40.423938], [-4.524113, 40.423388], [-4.523656, 40.423198], [-4.520822, 40.423103], [-4.518757, 40.423411], [-4.51822, 40.42352], [-4.517419, 40.424271], [-4.517006, 40.425079], [-4.516679, 40.425931], [-4.516558, 40.426026], [-4.515948, 40.4265], [-4.514492, 40.4262], [-4.514227, 40.425866], [-4.512521, 40.42546], [-4.512166, 40.42455], [-4.512151, 40.424511], [-4.511945, 40.424463], [-4.511398, 40.424336], [-4.510657, 40.424532], [-4.509921, 40.424269], [-4.508671, 40.424053], [-4.507942, 40.423817], [-4.508329, 40.423386], [-4.507819, 40.422802], [-4.506181, 40.421553], [-4.505372, 40.420812], [-4.505879, 40.420249], [-4.506825, 40.419965], [-4.506507, 40.419237], [-4.506828, 40.418357], [-4.507427, 40.418311], [-4.508006, 40.418267], [-4.508752, 40.417926], [-4.508604, 40.417288], [-4.507905, 40.416531], [-4.507771, 40.416536], [-4.508139, 40.414861], [-4.50781, 40.413256], [-4.506724, 40.411998], [-4.505942, 40.411049], [-4.505463, 40.41041], [-4.504417, 40.410186], [-4.502806, 40.410375], [-4.500921, 40.41096], [-4.498764, 40.41194], [-4.497411, 40.412674], [-4.496861, 40.413162], [-4.496218, 40.413816], [-4.49548, 40.414636], [-4.494624, 40.414941], [-4.493648, 40.414731], [-4.492806, 40.414957], [-4.492099, 40.415621], [-4.492476, 40.41668], [-4.493939, 40.418136], [-4.49477, 40.419295], [-4.494969, 40.420156], [-4.495167, 40.421014], [-4.495365, 40.421869], [-4.494124, 40.422926], [-4.491445, 40.424184], [-4.489967, 40.424961], [-4.489692, 40.425259], [-4.489126, 40.425961], [-4.48827, 40.427069], [-4.48734, 40.428134], [-4.486338, 40.429156], [-4.485264, 40.430136], [-4.484117, 40.431074], [-4.482898, 40.431969], [-4.481606, 40.432821], [-4.480684, 40.433395], [-4.480132, 40.43369], [-4.479713, 40.434369], [-4.479426, 40.435431], [-4.478587, 40.436826], [-4.477198, 40.438554], [-4.476164, 40.439671], [-4.475487, 40.440178], [-4.474816, 40.441292], [-4.474154, 40.443013], [-4.473304, 40.444635], [-4.472264, 40.446159], [-4.470381, 40.446895], [-4.467652, 40.446844], [-4.465515, 40.446708], [-4.46397, 40.446488], [-4.463113, 40.446433], [-4.462945, 40.446542], [-4.462948, 40.447053], [-4.46312, 40.447965], [-4.463197, 40.448725], [-4.46318, 40.449333], [-4.462624, 40.449788], [-4.46153, 40.450091], [-4.459676, 40.450893], [-4.457061, 40.452194], [-4.456491, 40.453166], [-4.457964, 40.45381], [-4.459242, 40.454393], [-4.460323, 40.454917], [-4.45968, 40.45587], [-4.45731, 40.45725], [-4.454172, 40.458366], [-4.450264, 40.459219], [-4.447323, 40.459579], [-4.445349, 40.459446], [-4.44389, 40.460113], [-4.442946, 40.461578], [-4.44071, 40.463206], [-4.437182, 40.464999], [-4.433332, 40.466522], [-4.429161, 40.467774], [-4.426075, 40.468781], [-4.424074, 40.469541], [-4.422947, 40.470012], [-4.422694, 40.470195], [-4.422377, 40.470421], [-4.421995, 40.470691], [-4.421563, 40.470996], [-4.421083, 40.471336], [-4.419271, 40.47155], [-4.416126, 40.471638], [-4.413681, 40.472842], [-4.411933, 40.475164], [-4.410375, 40.477181], [-4.409005, 40.478891], [-4.40799, 40.480113], [-4.407329, 40.480845], [-4.40572, 40.48152], [-4.403165, 40.482135], [-4.400261, 40.483715], [-4.397008, 40.486259], [-4.395138, 40.487981], [-4.394652, 40.488881], [-4.392862, 40.489526], [-4.389768, 40.489915], [-4.384667, 40.489405], [-4.37756, 40.487995], [-4.372815, 40.486513], [-4.37043, 40.484958], [-4.369203, 40.483964], [-4.369134, 40.48353], [-4.368273, 40.482968], [-4.36662, 40.48228], [-4.365072, 40.481635], [-4.363628, 40.481034], [-4.360808, 40.480407], [-4.356614, 40.479755], [-4.354449, 40.478685], [-4.354315, 40.477197], [-4.354321, 40.47541], [-4.354465, 40.473326], [-4.354043, 40.470808], [-4.353056, 40.467859], [-4.353738, 40.465179], [-4.356089, 40.462769], [-4.3584, 40.461318], [-4.360672, 40.460824], [-4.363, 40.461038], [-4.365385, 40.461959], [-4.367319, 40.462705], [-4.368803, 40.463278], [-4.371314, 40.463819], [-4.374853, 40.464329], [-4.37678, 40.463688], [-4.377094, 40.461896], [-4.377423, 40.459942], [-4.377767, 40.457828], [-4.378126, 40.455553], [-4.3785, 40.453116], [-4.379019, 40.450857], [-4.379681, 40.448775], [-4.379642, 40.446797], [-4.3789, 40.444922], [-4.37795, 40.443039], [-4.37679, 40.441146], [-4.376824, 40.439038], [-4.378053, 40.436714], [-4.37929, 40.435103], [-4.380535, 40.434204], [-4.381179, 40.433395], [-4.381221, 40.432675], [-4.380927, 40.431845], [-4.380297, 40.430906], [-4.378867, 40.430998], [-4.376637, 40.432121], [-4.374416, 40.432607], [-4.372205, 40.432457], [-4.370676, 40.431214], [-4.36983, 40.428879], [-4.369151, 40.427273], [-4.368639, 40.426396], [-4.367991, 40.426055], [-4.367206, 40.42625], [-4.366192, 40.426796], [-4.364946, 40.427694], [-4.363394, 40.428541], [-4.361534, 40.429336], [-4.3604, 40.430863], [-4.359991, 40.43312], [-4.356963, 40.434919], [-4.351315, 40.436257], [-4.346205, 40.436693], [-4.341632, 40.436226], [-4.33596, 40.435288], [-4.329187, 40.433878], [-4.325281, 40.431983], [-4.324241, 40.429603], [-4.323651, 40.425573], [-4.323511, 40.419895], [-4.323731, 40.41543], [-4.324311, 40.412179], [-4.322758, 40.407911], [-4.319072, 40.402627], [-4.317541, 40.399179], [-4.318165, 40.397568], [-4.319469, 40.39459], [-4.320824, 40.391622], [-4.320585, 40.388688], [-4.32152, 40.385566], [-4.322007, 40.384908], [-4.323238, 40.383247], [-4.329244, 40.38397], [-4.333135, 40.385923], [-4.338523, 40.389836], [-4.34153, 40.390542], [-4.347607, 40.390909], [-4.349129, 40.392981], [-4.347594, 40.398717], [-4.350904, 40.402706], [-4.356643, 40.400942], [-4.367234, 40.398118], [-4.368971, 40.399813], [-4.371299, 40.400818], [-4.374126, 40.402037], [-4.376241, 40.400807], [-4.376272, 40.403557], [-4.375137, 40.405995], [-4.375067, 40.406146], [-4.375199, 40.406604], [-4.375798, 40.408679], [-4.380826, 40.410347], [-4.385557, 40.411371], [-4.388817, 40.412109], [-4.390417, 40.411032], [-4.392429, 40.411274], [-4.394278, 40.412149], [-4.396119, 40.412336], [-4.398719, 40.413214], [-4.399588, 40.415038], [-4.398664, 40.418848], [-4.398134, 40.421107], [-4.395719, 40.423645], [-4.39425, 40.426388], [-4.396296, 40.427463], [-4.399519, 40.427791], [-4.403646, 40.428788], [-4.406648, 40.428803], [-4.407562, 40.426257], [-4.407938, 40.425283], [-4.413421, 40.424357], [-4.416082, 40.424193], [-4.416432, 40.423108], [-4.415095, 40.420551], [-4.4142, 40.418617], [-4.416426, 40.418517], [-4.418762, 40.417597], [-4.418439, 40.416841], [-4.416333, 40.416809], [-4.416939, 40.414882], [-4.418047, 40.414488], [-4.420298, 40.414499], [-4.422072, 40.413089], [-4.424681, 40.412702], [-4.426676, 40.413555], [-4.430078, 40.414659], [-4.434247, 40.415189], [-4.436012, 40.415042], [-4.439031, 40.41448], [-4.441256, 40.41438], [-4.442467, 40.41443], [-4.442638, 40.412567], [-4.441333, 40.410809], [-4.44112, 40.409233], [-4.437574, 40.408152], [-4.436159, 40.407213], [-4.436218, 40.406171], [-4.437549, 40.404137], [-4.437796, 40.402608], [-4.439919, 40.402063], [-4.439254, 40.401129], [-4.43922, 40.40033], [-4.440584, 40.399095], [-4.43853, 40.397332], [-4.43645, 40.397411], [-4.433637, 40.398861], [-4.43021, 40.399599], [-4.427917, 40.398102], [-4.424627, 40.39813], [-4.420808, 40.398466], [-4.418157, 40.397366], [-4.411347, 40.396422], [-4.407972, 40.395429], [-4.39976, 40.395231], [-4.398476, 40.394915], [-4.390784, 40.391755], [-4.386206, 40.388092], [-4.382575, 40.384852], [-4.379891, 40.382037], [-4.378345, 40.37875], [-4.378087, 40.376372], [-4.380334, 40.37552], [-4.384638, 40.375344], [-4.38947, 40.374859], [-4.39233, 40.377536], [-4.395747, 40.378065], [-4.397032, 40.3804], [-4.400074, 40.37995], [-4.402077, 40.379539], [-4.40201, 40.377942], [-4.400197, 40.375914], [-4.400393, 40.375437], [-4.401684, 40.375822], [-4.405053, 40.376939], [-4.4079, 40.378013], [-4.409956, 40.377434], [-4.411222, 40.375203], [-4.413294, 40.372987], [-4.416174, 40.370785], [-4.417735, 40.369625], [-4.417977, 40.369507], [-4.418158, 40.368918], [-4.418279, 40.367859], [-4.418222, 40.36725], [-4.417988, 40.36709], [-4.417223, 40.365508], [-4.415928, 40.362502], [-4.415452, 40.360163], [-4.415793, 40.35849], [-4.416547, 40.356641], [-4.417714, 40.354614], [-4.419302, 40.353499], [-4.42131, 40.353294], [-4.422762, 40.353959], [-4.423659, 40.355495], [-4.425185, 40.357006], [-4.42734, 40.358494], [-4.429756, 40.359959], [-4.432434, 40.361399], [-4.434055, 40.362271], [-4.43462, 40.362574], [-4.435386, 40.363256], [-4.436356, 40.364318], [-4.436533, 40.366006], [-4.435916, 40.368322], [-4.435818, 40.371048], [-4.436236, 40.374183], [-4.436711, 40.376639], [-4.43724, 40.378414], [-4.438174, 40.379318], [-4.439512, 40.379351], [-4.440768, 40.376269], [-4.441941, 40.37007], [-4.442637, 40.365408], [-4.442856, 40.362282], [-4.443018, 40.359964], [-4.443123, 40.358454], [-4.443338, 40.356956], [-4.443661, 40.355471], [-4.444704, 40.354089], [-4.446464, 40.352808], [-4.448856, 40.352036], [-4.451878, 40.351772], [-4.454028, 40.352055], [-4.455307, 40.352885], [-4.45601, 40.353313], [-4.456138, 40.353341], [-4.457238, 40.353654], [-4.459311, 40.354254], [-4.461846, 40.353592], [-4.464844, 40.35167], [-4.469175, 40.350453], [-4.47484, 40.349944], [-4.479049, 40.348929], [-4.481801, 40.347409], [-4.484699, 40.346958], [-4.487741, 40.347575], [-4.49049, 40.348319], [-4.492946, 40.349188], [-4.495995, 40.349599], [-4.499636, 40.349551], [-4.502238, 40.350357], [-4.503804, 40.352018], [-4.506142, 40.353769], [-4.509253, 40.355611], [-4.512898, 40.356509], [-4.517077, 40.356462], [-4.52147, 40.356877], [-4.526077, 40.357754], [-4.528993, 40.3586], [-4.530215, 40.359415], [-4.53231, 40.359702], [-4.535275, 40.35946], [-4.53947, 40.359891], [-4.544893, 40.360993], [-4.550166, 40.362595], [-4.555288, 40.364698], [-4.560511, 40.366192], [-4.565838, 40.367077], [-4.568648, 40.367417], [-4.568944, 40.36721], [-4.569725, 40.366661], [-4.570991, 40.365768], [-4.572299, 40.364842], [-4.573647, 40.363884], [-4.575037, 40.362892], [-4.576467, 40.361868], [-4.577957, 40.360937], [-4.579506, 40.360097], [-4.581115, 40.35935], [-4.582784, 40.358695], [-4.584512, 40.358132], [-4.5863, 40.357662], [-4.588147, 40.357284], [-4.590053, 40.356998], [-4.59135, 40.356771], [-4.592037, 40.356603], [-4.591701, 40.355171], [-4.590342, 40.352474], [-4.589114, 40.34923], [-4.588018, 40.345438], [-4.58691, 40.343798], [-4.58579, 40.344309], [-4.583984, 40.342631], [-4.581491, 40.338765], [-4.580004, 40.334421], [-4.579523, 40.329601], [-4.578968, 40.325606], [-4.57834, 40.322439], [-4.576502, 40.31933], [-4.573456, 40.31628], [-4.570982, 40.313634], [-4.56908, 40.311391], [-4.567683, 40.309031], [-4.56679, 40.306556], [-4.566545, 40.30435], [-4.566947, 40.302414], [-4.568927, 40.301098], [-4.572485, 40.300402], [-4.576132, 40.299856], [-4.579866, 40.299459], [-4.584207, 40.29893], [-4.589156, 40.298269], [-4.593118, 40.297023], [-4.596093, 40.29519], [-4.59813, 40.293661], [-4.599227, 40.292436], [-4.600942, 40.290669], [-4.603276, 40.288362], [-4.606524, 40.287018], [-4.610686, 40.286637], [-4.614366, 40.286695], [-4.617564, 40.287193], [-4.620032, 40.288209], [-4.62177, 40.289741], [-4.622987, 40.291393], [-4.623682, 40.293162], [-4.624333, 40.294818], [-4.624939, 40.296359], [-4.626826, 40.298686], [-4.629995, 40.301797], [-4.632614, 40.304829], [-4.634683, 40.307779], [-4.637046, 40.309707], [-4.639702, 40.310612], [-4.64202, 40.310753], [-4.644001, 40.310128], [-4.64581, 40.308306], [-4.647445, 40.305287], [-4.648313, 40.303682], [-4.648414, 40.303491], [-4.649114, 40.302162], [-4.650414, 40.299695], [-4.651315, 40.297486], [-4.651816, 40.295535], [-4.653111, 40.29379], [-4.655197, 40.292252], [-4.657422, 40.289715], [-4.659786, 40.286178], [-4.661703, 40.283686], [-4.663173, 40.282241], [-4.666543, 40.281652], [-4.671813, 40.281917], [-4.676644, 40.282125], [-4.681037, 40.282277], [-4.683851, 40.281812], [-4.685086, 40.280728], [-4.687578, 40.277741], [-4.691325, 40.272852], [-4.695386, 40.269592], [-4.699762, 40.267962], [-4.702157, 40.26707], [-4.702571, 40.266915], [-4.70308, 40.266788], [-4.703683, 40.266686], [-4.706189, 40.266267], [-4.710596, 40.265528], [-4.713967, 40.264696], [-4.716301, 40.263772], [-4.718201, 40.263035], [-4.719667, 40.262487], [-4.72117, 40.261648], [-4.722712, 40.260517], [-4.724703, 40.259032], [-4.727142, 40.257194], [-4.729841, 40.255562], [-4.732801, 40.254134], [-4.737209, 40.253221], [-4.743066, 40.252822], [-4.74754, 40.253326], [-4.750633, 40.254732], [-4.752964, 40.256744], [-4.754534, 40.259361], [-4.755484, 40.261827], [-4.755815, 40.264142], [-4.755336, 40.266047], [-4.754046, 40.267541], [-4.753834, 40.269234], [-4.7547, 40.271126], [-4.755663, 40.272812], [-4.756722, 40.274291], [-4.75945, 40.274151], [-4.763845, 40.27239], [-4.766238, 40.271206], [-4.76663, 40.2706], [-4.767462, 40.268833], [-4.768734, 40.265907], [-4.770243, 40.26513], [-4.77199, 40.266505], [-4.777123, 40.26675], [-4.785641, 40.265864], [-4.791755, 40.265091], [-4.795467, 40.26443], [-4.79996, 40.262778], [-4.805235, 40.260136], [-4.808954, 40.258177], [-4.811118, 40.256902], [-4.815619, 40.255953], [-4.822455, 40.25533], [-4.828323, 40.25496], [-4.833224, 40.254843], [-4.838305, 40.256064], [-4.843564, 40.258624], [-4.84722, 40.26106], [-4.849272, 40.263374], [-4.850616, 40.266164], [-4.85125, 40.269431], [-4.851266, 40.272686], [-4.850663, 40.275931], [-4.849771, 40.278537], [-4.848592, 40.280504], [-4.845634, 40.283058], [-4.840896, 40.286199], [-4.83605, 40.288883], [-4.831096, 40.291111], [-4.825282, 40.293469], [-4.818608, 40.295958], [-4.815129, 40.297279], [-4.814846, 40.297432], [-4.815064, 40.299472], [-4.815784, 40.303399], [-4.8156, 40.307417], [-4.814512, 40.311525], [-4.814477, 40.315736], [-4.815495, 40.320049], [-4.816128, 40.322976], [-4.816377, 40.324515], [-4.815844, 40.325647], [-4.81453, 40.326373], [-4.811987, 40.327461], [-4.808215, 40.328912], [-4.805225, 40.330287], [-4.803018, 40.331587], [-4.802549, 40.332142], [-4.801427, 40.332077], [-4.795642, 40.331694], [-4.790749, 40.332553], [-4.787841, 40.333569], [-4.786246, 40.336339], [-4.782229, 40.340282], [-4.780438, 40.341588], [-4.777347, 40.341828], [-4.775122, 40.3432], [-4.774866, 40.34657], [-4.773559, 40.349296], [-4.776293, 40.350719], [-4.777237, 40.352184], [-4.778367, 40.353162], [-4.785115, 40.35317], [-4.787033, 40.353842], [-4.787862, 40.353703], [-4.78848, 40.353763], [-4.788931, 40.353848], [-4.789497, 40.354181], [-4.789693, 40.354525], [-4.790023, 40.354827], [-4.790461, 40.355223], [-4.790907, 40.355529], [-4.791206, 40.355704], [-4.791914, 40.355904], [-4.792229, 40.356143], [-4.792475, 40.356457], [-4.79285, 40.356708], [-4.793203, 40.356985], [-4.793439, 40.357257], [-4.793596, 40.357189], [-4.79379, 40.35716], [-4.793878, 40.357411], [-4.793756, 40.357627], [-4.793489, 40.357712], [-4.793474, 40.35789], [-4.793638, 40.357975], [-4.793986, 40.357746], [-4.793983, 40.358099], [-4.793415, 40.358494], [-4.793238, 40.358495], [-4.792919, 40.359567]], [[-4.78009, 40.335498], [-4.780241, 40.335696], [-4.780344, 40.335857], [-4.780398, 40.335981], [-4.780404, 40.336068], [-4.78041, 40.336153], [-4.780415, 40.336235], [-4.780419, 40.336315], [-4.780423, 40.336392], [-4.780481, 40.336455], [-4.780593, 40.336504], [-4.78076, 40.336539], [-4.780981, 40.336561], [-4.781234, 40.336578], [-4.781518, 40.33659], [-4.781833, 40.336597], [-4.78218, 40.3366], [-4.782437, 40.336574], [-4.782604, 40.336521], [-4.782682, 40.33644], [-4.782671, 40.336332], [-4.782638, 40.336221], [-4.782582, 40.336108], [-4.782505, 40.335992], [-4.782405, 40.335875], [-4.782294, 40.335756], [-4.782173, 40.335637], [-4.78204, 40.335516], [-4.781896, 40.335394], [-4.781783, 40.335282], [-4.781701, 40.335178], [-4.78165, 40.335084], [-4.78163, 40.334998], [-4.781616, 40.334895], [-4.781609, 40.334775], [-4.781609, 40.334637], [-4.781616, 40.334481], [-4.781588, 40.334364], [-4.781526, 40.334285], [-4.78143, 40.334244], [-4.7813, 40.334242], [-4.781109, 40.334274], [-4.780858, 40.334339], [-4.780547, 40.334439], [-4.780175, 40.334573], [-4.779894, 40.334682], [-4.779705, 40.334766], [-4.779607, 40.334825], [-4.779601, 40.334859], [-4.779646, 40.334944], [-4.779742, 40.335078], [-4.77989, 40.335263], [-4.78009, 40.335498]], [[-4.445765, 40.398111], [-4.447035, 40.397958], [-4.447939, 40.397431], [-4.449117, 40.397685], [-4.449965, 40.397523], [-4.450363, 40.396821], [-4.450018, 40.396337], [-4.449581, 40.395651], [-4.449069, 40.395049], [-4.448003, 40.394671], [-4.447236, 40.39357], [-4.446762, 40.392926], [-4.445497, 40.3929], [-4.444487, 40.393371], [-4.443908, 40.393492], [-4.443524, 40.393442], [-4.442821, 40.393225], [-4.440605, 40.392304], [-4.440377, 40.39273], [-4.439682, 40.393155], [-4.439082, 40.393387], [-4.43878, 40.393896], [-4.439085, 40.394208], [-4.439891, 40.394267], [-4.440395, 40.394228], [-4.440673, 40.394222], [-4.441291, 40.394881], [-4.443115, 40.395718], [-4.443916, 40.395956], [-4.444823, 40.39625], [-4.444929, 40.396306], [-4.445489, 40.397116], [-4.445765, 40.398111]], [[-4.463618, 40.389354], [-4.464582, 40.389473], [-4.46527, 40.389347], [-4.465369, 40.388424], [-4.465351, 40.387806], [-4.465092, 40.387223], [-4.465002, 40.38683], [-4.464742, 40.386247], [-4.464685, 40.385324], [-4.464841, 40.384512], [-4.464382, 40.384006], [-4.463571, 40.383601], [-4.462677, 40.382969], [-4.463023, 40.382034], [-4.463546, 40.381191], [-4.46404, 40.380496], [-4.46431, 40.3795], [-4.464212, 40.378941], [-4.463334, 40.378379], [-4.462926, 40.378368], [-4.462415, 40.378587], [-4.461137, 40.378992], [-4.460551, 40.379294], [-4.459471, 40.379478], [-4.458724, 40.37935], [-4.457562, 40.378639], [-4.455159, 40.378087], [-4.454375, 40.378204], [-4.453157, 40.377787], [-4.451711, 40.377333], [-4.4512, 40.377146], [-4.450597, 40.376829], [-4.450108, 40.37714], [-4.450147, 40.377445], [-4.450248, 40.377884], [-4.450327, 40.378231], [-4.450959, 40.378806], [-4.451663, 40.379562], [-4.452245, 40.380193], [-4.45275, 40.380763], [-4.453018, 40.381249], [-4.45324, 40.382076], [-4.453442, 40.382548], [-4.454044, 40.383128], [-4.454904, 40.383478], [-4.455044, 40.383816], [-4.455085, 40.384264], [-4.455536, 40.384866], [-4.456295, 40.384371], [-4.457123, 40.384176], [-4.458255, 40.384486], [-4.45848, 40.384787], [-4.459616, 40.384977], [-4.459922, 40.384956], [-4.460355, 40.384939], [-4.460552, 40.384982], [-4.460873, 40.385292], [-4.461107, 40.385497], [-4.462662, 40.388587], [-4.463618, 40.389354]]]}}]}