{"type": "FeatureCollection", "name": "NULES", "features": [{"type": "Feature", "properties": {"id": "570518", "FIREDATE": "2026-07-25T09:09:00", "FINALDATE": "2026-07-28T03:28:00", "LASTUPDATE": "2026-07-26 08:55:42.481471", "COUNTRY": "ES", "PROVINCE": "Castellón/Castelló", "COMMUNE": "Nules", "AREA_HA": 10214.0, "BROADLEA": 6.8004, "CONIFER": 21.8004, "MIXED": 0.8219, "SCLEROPH": 37.6125, "TRANSIT": 2.3581, "OTHERNATLC": 16.6732, "AGRIAREAS": 12.3973, "ARTIFSURF": 1.5362, "OTHERLC": 0.0, "PERCNA2K": 76.6224, "CLASS": "7DAYS", "AÑO": 2026, "LATITUD": 39.888699777587654, "LONGITUD": -0.2514481221396151}, "geometry": {"type": "Polygon", "coordinates": [[[-0.315486, 39.921424], [-0.314186, 39.923691], [-0.313776, 39.926315], [-0.311739, 39.928659], [-0.308202, 39.930654], [-0.307307, 39.93504], [-0.305253, 39.940738], [-0.301182, 39.946211], [-0.29405, 39.951131], [-0.284555, 39.952793], [-0.276369, 39.949384], [-0.25965, 39.943914], [-0.252185, 39.939763], [-0.250771, 39.939812], [-0.247498, 39.939125], [-0.244595, 39.937625], [-0.240843, 39.93602], [-0.236243, 39.934311], [-0.232388, 39.933104], [-0.22928, 39.932399], [-0.22522, 39.931472], [-0.22021, 39.930321], [-0.215026, 39.92964], [-0.209667, 39.929429], [-0.204914, 39.927799], [-0.200768, 39.924751], [-0.197716, 39.921782], [-0.195759, 39.918891], [-0.194601, 39.915787], [-0.19424, 39.912471], [-0.194697, 39.909586], [-0.19597, 39.90713], [-0.196773, 39.905799], [-0.197106, 39.905592], [-0.19715, 39.905145], [-0.196905, 39.904459], [-0.197022, 39.903517], [-0.197502, 39.902319], [-0.198424, 39.901085], [-0.199786, 39.899816], [-0.200997, 39.898856], [-0.202057, 39.898206], [-0.202966, 39.897865], [-0.203723, 39.897834], [-0.204413, 39.897712], [-0.205035, 39.897497], [-0.20559, 39.897191], [-0.206078, 39.896794], [-0.206691, 39.896323], [-0.20743, 39.89578], [-0.208295, 39.895163], [-0.209285, 39.894474], [-0.210169, 39.893901], [-0.210948, 39.893443], [-0.211621, 39.8931], [-0.212188, 39.892873], [-0.212753, 39.892659], [-0.213314, 39.892458], [-0.213871, 39.89227], [-0.214425, 39.892095], [-0.214976, 39.891933], [-0.215524, 39.891783], [-0.216068, 39.891647], [-0.216609, 39.891523], [-0.217052, 39.89133], [-0.217399, 39.891068], [-0.217648, 39.890736], [-0.217799, 39.890336], [-0.217854, 39.889866], [-0.217811, 39.889327], [-0.217672, 39.888719], [-0.217434, 39.888042], [-0.217121, 39.887393], [-0.216731, 39.886774], [-0.216266, 39.886183], [-0.215724, 39.885622], [-0.215105, 39.885089], [-0.214411, 39.884585], [-0.21364, 39.88411], [-0.212793, 39.883664], [-0.211975, 39.883261], [-0.211185, 39.882901], [-0.210423, 39.882584], [-0.20969, 39.88231], [-0.208985, 39.882078], [-0.208308, 39.88189], [-0.20766, 39.881745], [-0.20704, 39.881643], [-0.206494, 39.881529], [-0.206021, 39.881403], [-0.205622, 39.881265], [-0.205297, 39.881115], [-0.205045, 39.880954], [-0.204866, 39.88078], [-0.204761, 39.880595], [-0.20473, 39.880397], [-0.204624, 39.880137], [-0.204443, 39.879813], [-0.204188, 39.879426], [-0.203857, 39.878976], [-0.203453, 39.878462], [-0.202973, 39.877886], [-0.202419, 39.877246], [-0.20179, 39.876543], [-0.201128, 39.875868], [-0.200432, 39.875222], [-0.199704, 39.874605], [-0.198942, 39.874016], [-0.198148, 39.873456], [-0.19732, 39.872924], [-0.196459, 39.87242], [-0.195564, 39.871946], [-0.194649, 39.87144], [-0.193713, 39.870903], [-0.192755, 39.870334], [-0.191776, 39.869735], [-0.190777, 39.869104], [-0.189756, 39.868442], [-0.188714, 39.867748], [-0.187651, 39.867024], [-0.186693, 39.866284], [-0.185841, 39.865529], [-0.185094, 39.864759], [-0.184452, 39.863973], [-0.183916, 39.863173], [-0.183485, 39.862357], [-0.183159, 39.861526], [-0.182939, 39.860679], [-0.182778, 39.859902], [-0.182677, 39.859193], [-0.182635, 39.858554], [-0.182652, 39.857984], [-0.182729, 39.857483], [-0.182865, 39.85705], [-0.183061, 39.856687], [-0.183316, 39.856393], [-0.183645, 39.856061], [-0.18405, 39.855693], [-0.18453, 39.855287], [-0.185085, 39.854845], [-0.185714, 39.854365], [-0.186419, 39.853848], [-0.187198, 39.853294], [-0.188052, 39.852703], [-0.188932, 39.852], [-0.189837, 39.851186], [-0.190768, 39.850261], [-0.191724, 39.849225], [-0.192594, 39.848231], [-0.19338, 39.847282], [-0.194081, 39.846376], [-0.194696, 39.845513], [-0.194825, 39.845088], [-0.197797, 39.842598], [-0.20154, 39.837364], [-0.204035, 39.833875], [-0.206138, 39.830534], [-0.207678, 39.827145], [-0.209949, 39.824862], [-0.213238, 39.823763], [-0.21639, 39.82354], [-0.220407, 39.824408], [-0.222567, 39.825794], [-0.226343, 39.828625], [-0.229504, 39.83195], [-0.233962, 39.834708], [-0.238665, 39.833782], [-0.241429, 39.831124], [-0.243648, 39.828523], [-0.244662, 39.828022], [-0.245074, 39.828564], [-0.245373, 39.828925], [-0.245422, 39.828924], [-0.245794, 39.828937], [-0.246491, 39.828966], [-0.247511, 39.82901], [-0.248856, 39.829069], [-0.250194, 39.829153], [-0.251525, 39.829264], [-0.25285, 39.8294], [-0.254168, 39.829561], [-0.255365, 39.829774], [-0.256441, 39.830036], [-0.257396, 39.830349], [-0.258229, 39.830713], [-0.258941, 39.831127], [-0.259532, 39.831591], [-0.260002, 39.832106], [-0.260351, 39.832671], [-0.260766, 39.833313], [-0.261246, 39.834031], [-0.261793, 39.834826], [-0.262406, 39.835698], [-0.263086, 39.836646], [-0.263831, 39.837671], [-0.264642, 39.838773], [-0.26552, 39.839951], [-0.266475, 39.840975], [-0.267508, 39.841844], [-0.268618, 39.842558], [-0.269806, 39.843118], [-0.271072, 39.843524], [-0.272416, 39.843775], [-0.273837, 39.843871], [-0.275336, 39.843813], [-0.276764, 39.843817], [-0.278121, 39.843882], [-0.279407, 39.844009], [-0.280622, 39.844199], [-0.281766, 39.84445], [-0.28284, 39.844762], [-0.283842, 39.845137], [-0.284774, 39.845574], [-0.285566, 39.845966], [-0.286218, 39.846315], [-0.28673, 39.84662], [-0.287102, 39.846881], [-0.287488, 39.847077], [-0.287886, 39.847207], [-0.288297, 39.847271], [-0.288722, 39.847269], [-0.289295, 39.847382], [-0.290019, 39.847609], [-0.290891, 39.84795], [-0.291913, 39.848405], [-0.292799, 39.848972], [-0.29355, 39.84965], [-0.294165, 39.850441], [-0.294645, 39.851343], [-0.295066, 39.852317], [-0.295429, 39.853362], [-0.295733, 39.854478], [-0.295979, 39.855665], [-0.296194, 39.856617], [-0.296377, 39.857336], [-0.296992, 39.858029], [-0.298041, 39.858697], [-0.299535, 39.859896], [-0.301475, 39.861626], [-0.303517, 39.86399], [-0.305661, 39.866988], [-0.306978, 39.869493], [-0.307467, 39.871506], [-0.304931, 39.873839], [-0.299369, 39.876493], [-0.296465, 39.878091], [-0.296219, 39.878633], [-0.2958, 39.879645], [-0.295205, 39.881127], [-0.293549, 39.882206], [-0.290829, 39.882881], [-0.287906, 39.883319], [-0.284778, 39.883521], [-0.282273, 39.883463], [-0.280393, 39.883146], [-0.277807, 39.883097], [-0.274515, 39.883316], [-0.271316, 39.88359], [-0.268208, 39.883918], [-0.264179, 39.885247], [-0.259229, 39.887575], [-0.257952, 39.88855], [-0.258571, 39.892074], [-0.263169, 39.896083], [-0.270915, 39.898553], [-0.279911, 39.900891], [-0.286947, 39.901572], [-0.300482, 39.899591], [-0.311897, 39.89849], [-0.31393, 39.898823], [-0.321677, 39.900412], [-0.325429, 39.905275], [-0.327008, 39.910698], [-0.327754, 39.914455], [-0.323079, 39.917912], [-0.321254, 39.918873], [-0.317541, 39.919632], [-0.315486, 39.921424]]]}}]}