{"type": "FeatureCollection", "name": "PELAYOSDELARROYO", "features": [{"type": "Feature", "properties": {"id": "562090", "FIREDATE": "2026-07-20T14:14:00", "FINALDATE": "2026-07-21T03:25:00", "LASTUPDATE": "2026-07-21 06:35:37.036842", "COUNTRY": "ES", "PROVINCE": "Segovia", "COMMUNE": "Pelayos del Arroyo", "AREA_HA": 3502.0, "BROADLEA": 7.9977, "CONIFER": 0.0, "MIXED": 0.0, "SCLEROPH": 0.2856, "TRANSIT": 2.5993, "OTHERNATLC": 4.0845, "AGRIAREAS": 85.0328, "ARTIFSURF": 0.0, "OTHERLC": 0.0, "PERCNA2K": 8.5121, "CLASS": "7DAYS", "AÑO": 2026, "LATITUD": 41.063162320428226, "LONGITUD": -3.9900105768981917}, "geometry": {"type": "Polygon", "coordinates": [[[-4.007994, 41.063757], [-4.008124, 41.063979], [-4.008611, 41.06403], [-4.00924, 41.064001], [-4.009025, 41.064452], [-4.00849, 41.064889], [-4.008723, 41.065217], [-4.008996, 41.065719], [-4.00877, 41.066473], [-4.008675, 41.067449], [-4.00864, 41.067995], [-4.008296, 41.068224], [-4.008004, 41.068687], [-4.007406, 41.069193], [-4.006547, 41.069256], [-4.005728, 41.069492], [-4.005956, 41.070843], [-4.006086, 41.071722], [-4.006671, 41.072245], [-4.006947, 41.073107], [-4.007048, 41.073184], [-4.006859, 41.073421], [-4.007096, 41.073863], [-4.006544, 41.074127], [-4.006515, 41.075394], [-4.005863, 41.077411], [-4.005698, 41.077735], [-4.005367, 41.078023], [-4.005855, 41.078074], [-4.005794, 41.078504], [-4.005242, 41.078522], [-4.004641, 41.078668], [-4.003528, 41.079007], [-4.003607, 41.079356], [-4.003496, 41.079914], [-4.003602, 41.08038], [-4.003657, 41.080973], [-4.004442, 41.081282], [-4.00455, 41.082109], [-4.004762, 41.083041], [-4.004418, 41.08327], [-4.00388, 41.083347], [-4.003681, 41.084217], [-4.003103, 41.084119], [-4.003188, 41.083445], [-4.002072, 41.083424], [-4.001123, 41.083439], [-4.001075, 41.082183], [-4.000882, 41.08203], [-4.000455, 41.083293], [-4.000304, 41.083676], [-4.00023, 41.084047], [-4.000259, 41.084524], [-3.999569, 41.084983], [-3.99975, 41.085077], [-4.00015, 41.085441], [-4.000688, 41.085365], [-4.001083, 41.085008], [-4.001369, 41.085568], [-4.000179, 41.085918], [-3.999808, 41.086031], [-3.99848, 41.086822], [-3.997931, 41.087201], [-3.996624, 41.087387], [-3.996592, 41.088293], [-3.996133, 41.088719], [-3.995015, 41.088337], [-3.993631, 41.088534], [-3.993279, 41.087682], [-3.99155, 41.088109], [-3.991693, 41.088389], [-3.992671, 41.088851], [-3.992854, 41.089306], [-3.993344, 41.089718], [-3.992173, 41.090847], [-3.992202, 41.091324], [-3.99187, 41.091611], [-3.991483, 41.091306], [-3.99059, 41.091914], [-3.990643, 41.092147], [-3.990324, 41.092493], [-3.989696, 41.092522], [-3.989213, 41.093192], [-3.988614, 41.093698], [-3.987911, 41.094099], [-3.986872, 41.094066], [-3.987524, 41.093793], [-3.987739, 41.093342], [-3.986689, 41.093611], [-3.986072, 41.093338], [-3.986594, 41.092843], [-3.987517, 41.092712], [-3.987575, 41.091922], [-3.986714, 41.091623], [-3.986253, 41.091689], [-3.986311, 41.092643], [-3.985051, 41.092341], [-3.984757, 41.092443], [-3.983988, 41.092552], [-3.98398, 41.094959], [-3.981646, 41.09517], [-3.981546, 41.095425], [-3.97996, 41.096132], [-3.979101, 41.096194], [-3.978334, 41.096663], [-3.977008, 41.097814], [-3.975985, 41.0982], [-3.975905, 41.09785], [-3.975121, 41.097541], [-3.974726, 41.097898], [-3.973636, 41.097993], [-3.973384, 41.09863], [-3.972885, 41.098881], [-3.97201, 41.098524], [-3.971472, 41.098601], [-3.970584, 41.098186], [-3.970006, 41.098087], [-3.969361, 41.099442], [-3.9683, 41.100013], [-3.968199, 41.100268], [-3.967791, 41.100567], [-3.96805, 41.101011], [-3.967578, 41.101379], [-3.967671, 41.101786], [-3.967071, 41.102292], [-3.967294, 41.102922], [-3.966387, 41.103472], [-3.965989, 41.103468], [-3.965029, 41.103785], [-3.964323, 41.103825], [-3.964936, 41.103377], [-3.964947, 41.103075], [-3.964584, 41.102525], [-3.964259, 41.10179], [-3.962609, 41.102565], [-3.962467, 41.100541], [-3.959301, 41.10093], [-3.960424, 41.102034], [-3.959952, 41.102401], [-3.960416, 41.102696], [-3.961018, 41.102551], [-3.961871, 41.103512], [-3.961733, 41.103952], [-3.960871, 41.103654], [-3.960049, 41.10353], [-3.959153, 41.103777], [-3.958419, 41.103341], [-3.958889, 41.102612], [-3.959603, 41.10191], [-3.958932, 41.101404], [-3.95772, 41.102357], [-3.957028, 41.102456], [-3.958391, 41.10112], [-3.957723, 41.100974], [-3.957262, 41.101039], [-3.956798, 41.100744], [-3.955957, 41.101585], [-3.95566, 41.101327], [-3.957086, 41.099561], [-3.957145, 41.099266], [-3.95716, 41.09919], [-3.955888, 41.098829], [-3.955621, 41.099137], [-3.954818, 41.100063], [-3.954381, 41.099885], [-3.954087, 41.099987], [-3.953152, 41.098315], [-3.95438, 41.09778], [-3.954608, 41.097387], [-3.954685, 41.097161], [-3.955703, 41.094165], [-3.955343, 41.093976], [-3.954272, 41.095498], [-3.954263, 41.095512], [-3.953494, 41.095621], [-3.953247, 41.095235], [-3.953948, 41.093966], [-3.952904, 41.093721], [-3.952899, 41.093], [-3.953832, 41.093179], [-3.953978, 41.093207], [-3.954591, 41.09276], [-3.955955, 41.091424], [-3.956064, 41.090506], [-3.955451, 41.090954], [-3.954645, 41.091249], [-3.953622, 41.091634], [-3.953405, 41.0917], [-3.95325, 41.091747], [-3.95276, 41.091336], [-3.952565, 41.090822], [-3.952217, 41.090691], [-3.951622, 41.089814], [-3.950545, 41.089966], [-3.94975, 41.089959], [-3.948658, 41.087588], [-3.950129, 41.087079], [-3.951498, 41.086464], [-3.951501, 41.086464], [-3.952049, 41.086446], [-3.953202, 41.086282], [-3.955583, 41.085583], [-3.952446, 41.084345], [-3.951086, 41.084297], [-3.950551, 41.0842], [-3.94794, 41.083722], [-3.946952, 41.083561], [-3.94582, 41.08312], [-3.945638, 41.082665], [-3.946756, 41.083048], [-3.94705, 41.082946], [-3.947162, 41.082389], [-3.947819, 41.082837], [-3.948774, 41.081799], [-3.948776, 41.080055], [-3.947339, 41.080019], [-3.946237, 41.080055], [-3.945503, 41.079618], [-3.944449, 41.079166], [-3.943579, 41.07953], [-3.942696, 41.079835], [-3.940965, 41.0799], [-3.940877, 41.080213], [-3.939783, 41.079587], [-3.938782, 41.079368], [-3.935962, 41.079527], [-3.934756, 41.079458], [-3.9344, 41.079989], [-3.934073, 41.080998], [-3.933258, 41.081955], [-3.932801, 41.082741], [-3.931334, 41.081867], [-3.931, 41.081794], [-3.929919, 41.081225], [-3.929746, 41.080108], [-3.929423, 41.079732], [-3.931334, 41.077658], [-3.932153, 41.077421], [-3.932408, 41.077145], [-3.932996, 41.076941], [-3.933919, 41.07681], [-3.935371, 41.077266], [-3.936089, 41.077285], [-3.937523, 41.076961], [-3.940005, 41.076008], [-3.941158, 41.075844], [-3.941889, 41.075921], [-3.944248, 41.075827], [-3.944722, 41.07582], [-3.946387, 41.075463], [-3.94727, 41.075158], [-3.948243, 41.074899], [-3.949319, 41.074747], [-3.950037, 41.074765], [-3.950721, 41.07533], [-3.951219, 41.075079], [-3.951937, 41.075097], [-3.951918, 41.076062], [-3.952212, 41.07596], [-3.952546, 41.076033], [-3.952586, 41.076207], [-3.9531, 41.076375], [-3.953127, 41.076387], [-3.953627, 41.076601], [-3.954279, 41.076328], [-3.954388, 41.07541], [-3.955131, 41.075185], [-3.955493, 41.075735], [-3.955612, 41.076259], [-3.955996, 41.076204], [-3.956078, 41.076914], [-3.956566, 41.076965], [-3.956625, 41.076175], [-3.957378, 41.075648], [-3.95781, 41.075105], [-3.957487, 41.07473], [-3.957601, 41.074533], [-3.957599, 41.074173], [-3.95625, 41.073823], [-3.955405, 41.073943], [-3.955211, 41.07379], [-3.954649, 41.073996], [-3.954406, 41.074085], [-3.953044, 41.073677], [-3.953397, 41.072785], [-3.953882, 41.072476], [-3.954693, 41.072902], [-3.954875, 41.072703], [-3.954884, 41.072694], [-3.9552, 41.071988], [-3.955235, 41.071442], [-3.956115, 41.070776], [-3.956616, 41.070885], [-3.957136, 41.070029], [-3.957158, 41.069425], [-3.957333, 41.068799], [-3.956632, 41.067455], [-3.956294, 41.066661], [-3.955545, 41.065587], [-3.954883, 41.064637], [-3.954729, 41.064659], [-3.953497, 41.064473], [-3.951866, 41.063923], [-3.950785, 41.063354], [-3.94914, 41.062746], [-3.947315, 41.062043], [-3.946582, 41.061606], [-3.947157, 41.061344], [-3.947034, 41.060098], [-3.948226, 41.06011], [-3.948597, 41.059997], [-3.948992, 41.05964], [-3.949572, 41.060099], [-3.950163, 41.060256], [-3.951111, 41.060241], [-3.951691, 41.0607], [-3.951924, 41.061028], [-3.953055, 41.061469], [-3.9539, 41.061349], [-3.953986, 41.060675], [-3.954302, 41.059969], [-3.954042, 41.059525], [-3.953221, 41.059401], [-3.953764, 41.060045], [-3.953533, 41.060078], [-3.952262, 41.059717], [-3.951787, 41.059724], [-3.951631, 41.059386], [-3.95195, 41.05904], [-3.9522, 41.058042], [-3.952287, 41.057729], [-3.952131, 41.057391], [-3.95227, 41.05695], [-3.952368, 41.056335], [-3.952072, 41.056076], [-3.952056, 41.055657], [-3.952489, 41.055115], [-3.951819, 41.054609], [-3.952251, 41.054066], [-3.95266, 41.053768], [-3.953457, 41.054136], [-3.953711, 41.053859], [-3.954225, 41.054027], [-3.954752, 41.054252], [-3.954954, 41.053743], [-3.955261, 41.053699], [-3.956122, 41.053998], [-3.956829, 41.054318], [-3.957572, 41.05427], [-3.957719, 41.053973], [-3.957803, 41.05393], [-3.957879, 41.054049], [-3.958061, 41.054504], [-3.95928, 41.054632], [-3.960474, 41.055003], [-3.959776, 41.05402], [-3.959156, 41.053387], [-3.95976, 41.053601], [-3.961416, 41.053907], [-3.962866, 41.052258], [-3.962956, 41.052306], [-3.964212, 41.052247], [-3.964363, 41.051865], [-3.964848, 41.051556], [-3.966462, 41.051326], [-3.963467, 41.050008], [-3.962222, 41.049764], [-3.961772, 41.049527], [-3.962614, 41.049047], [-3.962164, 41.04881], [-3.961451, 41.04872], [-3.961266, 41.048697], [-3.961554, 41.048315], [-3.961571, 41.048293], [-3.962658, 41.047838], [-3.962528, 41.047616], [-3.961924, 41.047401], [-3.961787, 41.047409], [-3.96122, 41.047441], [-3.960873, 41.04731], [-3.960596, 41.046086], [-3.962257, 41.045574], [-3.963486, 41.045195], [-3.96456, 41.044681], [-3.964524, 41.043123], [-3.964317, 41.04287], [-3.964304, 41.042853], [-3.963738, 41.042453], [-3.963979, 41.042118], [-3.964337, 41.041947], [-3.964729, 41.04123], [-3.964086, 41.04084], [-3.96793, 41.040654], [-3.969326, 41.040516], [-3.970989, 41.040159], [-3.971259, 41.040301], [-3.97212, 41.0406], [-3.972618, 41.040349], [-3.972801, 41.040804], [-3.972818, 41.040881], [-3.973052, 41.041911], [-3.974143, 41.042176], [-3.974257, 41.04198], [-3.97582, 41.041878], [-3.976794, 41.04198], [-3.977886, 41.042246], [-3.97917, 41.042664], [-3.979774, 41.042879], [-3.980478, 41.042839], [-3.981172, 41.043101], [-3.982046, 41.043458], [-3.982857, 41.043884], [-3.983834, 41.044346], [-3.983052, 41.044397], [-3.981691, 41.043989], [-3.981911, 41.044259], [-3.982183, 41.044761], [-3.982525, 41.045915], [-3.983256, 41.045992], [-3.983886, 41.046323], [-3.98449, 41.046538], [-3.985711, 41.047025], [-3.987726, 41.043672], [-3.987999, 41.043251], [-3.988372, 41.042678], [-3.989178, 41.042383], [-3.989564, 41.042688], [-3.989667, 41.043138], [-3.98967, 41.043154], [-3.990285, 41.043067], [-3.990304, 41.043006], [-3.990423, 41.042626], [-3.99046, 41.042441], [-3.991575, 41.042462], [-3.991636, 41.04273], [-3.991641, 41.042753], [-3.993228, 41.042407], [-3.994367, 41.042185], [-3.994363, 41.042165], [-3.994235, 41.041602], [-3.994722, 41.041653], [-3.995453, 41.041729], [-3.995853, 41.042093], [-3.99593, 41.042335], [-3.996009, 41.042432], [-3.996955, 41.042057], [-3.995991, 41.041653], [-3.995721, 41.041511], [-3.995728, 41.041487], [-3.995896, 41.040885], [-3.995138, 41.040692], [-3.996495, 41.040378], [-3.997274, 41.039967], [-3.998051, 41.039658], [-3.999165, 41.039216], [-3.999994, 41.038677], [-3.99916, 41.038495], [-3.998332, 41.037605], [-3.998321, 41.037593], [-3.998335, 41.037583], [-3.998665, 41.037363], [-3.999444, 41.036951], [-3.998431, 41.03688], [-3.998315, 41.036872], [-3.998122, 41.036719], [-3.99745, 41.035852], [-3.99746, 41.03555], [-3.99807, 41.034742], [-3.998335, 41.034163], [-3.998716, 41.034264], [-3.998925, 41.034319], [-3.999529, 41.034534], [-4.000038, 41.03398], [-4.001203, 41.033874], [-4.001688, 41.033565], [-3.999929, 41.033154], [-4.000179, 41.032156], [-4.000637, 41.03173], [-3.999215, 41.031752], [-3.998918, 41.031625], [-3.998161, 41.031301], [-3.997684, 41.030948], [-3.997933, 41.02995], [-3.997759, 41.028832], [-3.998786, 41.029167], [-3.999403, 41.02944], [-4.000058, 41.029527], [-4.000561, 41.029997], [-4.001525, 41.030207], [-4.001562, 41.030215], [-4.002978, 41.031216], [-4.007155, 41.032845], [-4.007364, 41.033417], [-4.008135, 41.033668], [-4.009242, 41.034352], [-4.009991, 41.035207], [-4.011016, 41.035182], [-4.01256, 41.0343], [-4.01349, 41.033506], [-4.013975, 41.033196], [-4.015347, 41.033301], [-4.014957, 41.032635], [-4.017979, 41.034068], [-4.01923, 41.035032], [-4.020347, 41.035414], [-4.0208, 41.036011], [-4.022223, 41.035988], [-4.023221, 41.035846], [-4.024413, 41.035856], [-4.025335, 41.035725], [-4.02591, 41.035462], [-4.026458, 41.035083], [-4.027366, 41.034893], [-4.028044, 41.034736], [-4.028619, 41.034474], [-4.029186, 41.034874], [-4.029803, 41.035147], [-4.030764, 41.03519], [-4.031533, 41.03508], [-4.031906, 41.035328], [-4.032391, 41.035018], [-4.033132, 41.034792], [-4.032899, 41.034464], [-4.032245, 41.034377], [-4.03306, 41.03378], [-4.033749, 41.03332], [-4.034544, 41.033327], [-4.03577, 41.032791], [-4.036403, 41.033483], [-4.03684, 41.033661], [-4.037582, 41.033434], [-4.038861, 41.033131], [-4.039295, 41.032949], [-4.04046, 41.032843], [-4.040672, 41.032788], [-4.041509, 41.032572], [-4.042076, 41.032973], [-4.04264, 41.033012], [-4.043051, 41.033074], [-4.043509, 41.032647], [-4.044137, 41.032618], [-4.044674, 41.032541], [-4.044478, 41.032028], [-4.043657, 41.031905], [-4.044072, 41.030943], [-4.043042, 41.030248], [-4.044956, 41.029253], [-4.045467, 41.02906], [-4.046121, 41.029147], [-4.046929, 41.029211], [-4.047647, 41.029229], [-4.047528, 41.030449], [-4.047698, 41.030846], [-4.048111, 41.031268], [-4.047873, 41.031963], [-4.047341, 41.032761], [-4.046517, 41.032278], [-4.04682, 41.033257], [-4.046579, 41.033592], [-4.046505, 41.033963], [-4.046598, 41.034371], [-4.046397, 41.034881], [-4.046426, 41.035358], [-4.047009, 41.036177], [-4.046755, 41.036454], [-4.047492, 41.03725], [-4.046502, 41.038474], [-4.046186, 41.0389], [-4.045652, 41.039618], [-4.045989, 41.040051], [-4.045671, 41.040398], [-4.046234, 41.040952], [-4.046238, 41.041789], [-4.045622, 41.043352], [-4.0454, 41.043383], [-4.044933, 41.042728], [-4.044729, 41.042878], [-4.044261, 41.043606], [-4.044661, 41.04397], [-4.045125, 41.044265], [-4.045228, 41.044349], [-4.046002, 41.044981], [-4.046402, 41.045345], [-4.047383, 41.046167], [-4.04822, 41.046709], [-4.048917, 41.047331], [-4.048727, 41.047539], [-4.047224, 41.047212], [-4.046496, 41.047497], [-4.046305, 41.047704], [-4.046295, 41.048007], [-4.046001, 41.048109], [-4.045757, 41.048083], [-4.044729, 41.047749], [-4.044392, 41.047316], [-4.044024, 41.04779], [-4.043839, 41.048718], [-4.043585, 41.048995], [-4.042907, 41.049152], [-4.042346, 41.049473], [-4.042001, 41.049703], [-4.041437, 41.049663], [-4.040743, 41.049401], [-4.040433, 41.049085], [-4.039935, 41.049337], [-4.03972, 41.049788], [-4.039172, 41.050167], [-4.038584, 41.050371], [-4.037805, 41.050783], [-4.038369, 41.050823], [-4.038359, 41.051125], [-4.038502, 41.051406], [-4.039029, 41.051631], [-4.038902, 41.051769], [-4.038916, 41.051828], [-4.038471, 41.052312], [-4.037973, 41.052564], [-4.037549, 41.052444], [-4.036727, 41.052321], [-4.036147, 41.051862], [-4.035639, 41.052416], [-4.035334, 41.05282], [-4.034706, 41.05285], [-4.034545, 41.053534], [-4.03419, 41.054066], [-4.033708, 41.054737], [-4.03352, 41.055305], [-4.033459, 41.055734], [-4.032967, 41.056707], [-4.03369, 41.057445], [-4.033439, 41.058083], [-4.033094, 41.058312], [-4.032573, 41.058808], [-4.032461, 41.059365], [-4.03204, 41.059605], [-4.031505, 41.060043], [-4.031134, 41.060156], [-4.030289, 41.060276], [-4.030281, 41.060939], [-4.029897, 41.060994], [-4.028784, 41.061333], [-4.028657, 41.061472], [-4.028443, 41.061923], [-4.028008, 41.062106], [-4.02752, 41.062055], [-4.025841, 41.061994], [-4.025215, 41.062384], [-4.024887, 41.063032], [-4.024723, 41.063356], [-4.023469, 41.063776], [-4.022505, 41.063372], [-4.021453, 41.063282], [-4.020989, 41.062987], [-4.021243, 41.06271], [-4.021959, 41.062367], [-4.022436, 41.06272], [-4.02314, 41.06268], [-4.024026, 41.062734], [-4.02437, 41.062504], [-4.025223, 41.061721], [-4.025721, 41.06147], [-4.026423, 41.061069], [-4.027268, 41.060948], [-4.027613, 41.060719], [-4.026963, 41.059608], [-4.026389, 41.059871], [-4.026131, 41.059787], [-4.025591, 41.059504], [-4.025641, 41.059376], [-4.026433, 41.059023], [-4.026534, 41.058768], [-4.026314, 41.058498], [-4.02594, 41.058251], [-4.024915, 41.058277], [-4.024056, 41.058339], [-4.024502, 41.059599], [-4.02327, 41.059414], [-4.022067, 41.059706], [-4.021958, 41.058879], [-4.021086, 41.058883], [-4.020827, 41.058439], [-4.020342, 41.058749], [-4.01964, 41.05915], [-4.019269, 41.059263], [-4.019123, 41.058622], [-4.018781, 41.059212], [-4.018707, 41.059584], [-4.018479, 41.059977], [-4.018689, 41.060549], [-4.017737, 41.060203], [-4.017337, 41.059839], [-4.016987, 41.059348], [-4.016428, 41.060029], [-4.016073, 41.060561], [-4.015769, 41.060965], [-4.016142, 41.061212], [-4.017107, 41.061616], [-4.016921, 41.062545], [-4.016529, 41.063262], [-4.016495, 41.063808], [-4.018069, 41.065147], [-4.017407, 41.065723], [-4.016498, 41.065913], [-4.015809, 41.066372], [-4.014486, 41.066139], [-4.014815, 41.065491], [-4.015385, 41.064508], [-4.015318, 41.064217], [-4.015456, 41.063776], [-4.015377, 41.063426], [-4.014545, 41.063605], [-4.013636, 41.063795], [-4.01381, 41.063169], [-4.014166, 41.062637], [-4.013485, 41.062433], [-4.013016, 41.063162], [-4.012872, 41.062881], [-4.013034, 41.062197], [-4.013283, 41.061199], [-4.012705, 41.061101], [-4.012157, 41.06148], [-4.010559, 41.062129], [-4.010178, 41.062544], [-4.009165, 41.062628], [-4.008251, 41.062758], [-4.007994, 41.063757]], [[-3.994629, 41.066703], [-3.993736, 41.06678], [-3.993448, 41.066082], [-3.992121, 41.06425], [-3.991302, 41.064367], [-3.991055, 41.063564], [-3.992037, 41.062734], [-3.99152, 41.062463], [-3.991068, 41.062478], [-3.990782, 41.062075], [-3.990393, 41.062081], [-3.990187, 41.062603], [-3.989811, 41.062953], [-3.989876, 41.063239], [-3.990099, 41.063651], [-3.989749, 41.064686], [-3.990077, 41.064985], [-3.989703, 41.065629], [-3.989265, 41.065988], [-3.989877, 41.066393], [-3.990387, 41.067208], [-3.990726, 41.067554], [-3.992276, 41.068368], [-3.994629, 41.066703]], [[-3.984801, 41.066376], [-3.983577, 41.065565], [-3.983153, 41.065132], [-3.981357, 41.06524], [-3.981233, 41.065553], [-3.981131, 41.065962], [-3.980996, 41.066227], [-3.98122, 41.066639], [-3.981571, 41.067329], [-3.981165, 41.06783], [-3.98136, 41.068689], [-3.981214, 41.068907], [-3.983369, 41.068946], [-3.983649, 41.069892], [-3.984919, 41.06976], [-3.984801, 41.066376]], [[-3.978805, 41.065455], [-3.97957, 41.0651], [-3.978895, 41.064703], [-3.979079, 41.064085], [-3.978467, 41.063679], [-3.977952, 41.063703], [-3.977818, 41.063969], [-3.976745, 41.063826], [-3.975971, 41.065858], [-3.976444, 41.065938], [-3.977211, 41.065879], [-3.978201, 41.066231], [-3.978805, 41.065455]], [[-3.969119, 41.081519], [-3.969085, 41.08108], [-3.969165, 41.080576], [-3.969615, 41.080265], [-3.969842, 41.079543], [-3.969577, 41.079236], [-3.969129, 41.079842], [-3.96846, 41.078902], [-3.968195, 41.080024], [-3.966296, 41.08054], [-3.967722, 41.081668], [-3.968398, 41.082065], [-3.969119, 41.081519]], [[-3.960652, 41.083756], [-3.960923, 41.083521], [-3.962036, 41.083264], [-3.962507, 41.083049], [-3.963307, 41.083133], [-3.963715, 41.082927], [-3.962577, 41.082497], [-3.962739, 41.081489], [-3.961416, 41.081676], [-3.961025, 41.081387], [-3.960962, 41.081396], [-3.960143, 41.081512], [-3.959534, 41.081697], [-3.958694, 41.081718], [-3.957864, 41.081786], [-3.957763, 41.082491], [-3.957238, 41.082467], [-3.959037, 41.08438], [-3.960652, 41.083756]], [[-3.984982, 41.08779], [-3.983375, 41.086441], [-3.982944, 41.086552], [-3.983129, 41.085934], [-3.982591, 41.085567], [-3.981824, 41.085627], [-3.981402, 41.08549], [-3.98056, 41.085215], [-3.980014, 41.085391], [-3.980774, 41.085875], [-3.980854, 41.0868], [-3.98305, 41.088163], [-3.984982, 41.08779]], [[-3.965074, 41.07544], [-3.964609, 41.075112], [-3.963835, 41.07399], [-3.962913, 41.074515], [-3.963721, 41.07578], [-3.964878, 41.07601], [-3.965074, 41.07544]], [[-3.987685, 41.056453], [-3.98714, 41.05663], [-3.986595, 41.056806], [-3.986334, 41.057089], [-3.98598, 41.057534], [-3.985982, 41.057829], [-3.985899, 41.058038], [-3.985198, 41.058385], [-3.984989, 41.058611], [-3.984377, 41.058206], [-3.984053, 41.058498], [-3.983193, 41.058719], [-3.983666, 41.0588], [-3.983794, 41.059077], [-3.983807, 41.05942], [-3.983557, 41.059752], [-3.984135, 41.059719], [-3.984808, 41.05982], [-3.985271, 41.059853], [-3.985879, 41.059668], [-3.986257, 41.059614], [-3.986411, 41.059148], [-3.986885, 41.059229], [-3.987195, 41.058593], [-3.987758, 41.057922], [-3.987685, 41.056453]], [[-3.963706, 41.078296], [-3.962902, 41.077621], [-3.962461, 41.077684], [-3.961493, 41.077427], [-3.961128, 41.077824], [-3.963225, 41.078758], [-3.963706, 41.078296]], [[-3.961586, 41.093037], [-3.959662, 41.093162], [-3.959771, 41.09364], [-3.9618, 41.093696], [-3.961586, 41.093037]], [[-4.031715, 41.055944], [-4.031746, 41.055792], [-4.031867, 41.055183], [-4.031242, 41.054434], [-4.030853, 41.05444], [-4.029848, 41.05488], [-4.029494, 41.055324], [-4.029857, 41.056061], [-4.029533, 41.056354], [-4.030146, 41.056759], [-4.031715, 41.055944]]]}}]}