{"type": "FeatureCollection", "name": "PINOFRANQUEADO", "features": [{"type": "Feature", "properties": {"id": "636507", "FIREDATE": "2026-08-18T13:29:00", "FINALDATE": "2026-08-19T09:05:00", "LASTUPDATE": "2026-08-19 08:03:03.317758", "COUNTRY": "ES", "PROVINCE": "Cáceres", "COMMUNE": "Pinofranqueado", "AREA_HA": 5205.0, "BROADLEA": 0.4613, "CONIFER": 3.8439, "MIXED": 11.5895, "SCLEROPH": 25.6583, "TRANSIT": 29.5022, "OTHERNATLC": 27.7724, "AGRIAREAS": 1.1724, "ARTIFSURF": 0.0, "OTHERLC": 0.0, "PERCNA2K": 32.6832, "CLASS": "1DAY", "AÑO": 2026, "LATITUD": 40.36934819234676, "LONGITUD": -6.312590981437114}, "geometry": {"type": "Polygon", "coordinates": [[[-6.357019, 40.395663], [-6.35605, 40.3997], [-6.353479, 40.403426], [-6.351151, 40.407111], [-6.347657, 40.410217], [-6.342608, 40.41126], [-6.338433, 40.408863], [-6.335082, 40.405747], [-6.32984, 40.405079], [-6.326054, 40.402229], [-6.322899, 40.398886], [-6.318482, 40.39653], [-6.31392, 40.394585], [-6.308825, 40.393504], [-6.303389, 40.393061], [-6.297662, 40.394409], [-6.292807, 40.396192], [-6.287517, 40.396305], [-6.28242, 40.397159], [-6.277032, 40.397869], [-6.272132, 40.39656], [-6.268786, 40.393441], [-6.26777, 40.389544], [-6.268211, 40.385404], [-6.269719, 40.381472], [-6.270693, 40.377435], [-6.271134, 40.373295], [-6.270604, 40.369317], [-6.270378, 40.36845], [-6.270188, 40.368369], [-6.268194, 40.367583], [-6.266159, 40.366846], [-6.26403, 40.365958], [-6.261808, 40.364921], [-6.260168, 40.363619], [-6.25911, 40.362055], [-6.258104, 40.360481], [-6.257151, 40.358899], [-6.256862, 40.357164], [-6.257238, 40.355276], [-6.258383, 40.353841], [-6.260295, 40.352857], [-6.262114, 40.351723], [-6.263839, 40.350438], [-6.265482, 40.349043], [-6.267042, 40.347538], [-6.268497, 40.346049], [-6.269849, 40.344579], [-6.271491, 40.343391], [-6.273424, 40.342486], [-6.27546, 40.341564], [-6.2776, 40.340625], [-6.279647, 40.339535], [-6.281601, 40.338295], [-6.283398, 40.337081], [-6.28504, 40.335893], [-6.286682, 40.334705], [-6.288323, 40.333517], [-6.290037, 40.332399], [-6.291824, 40.331353], [-6.293829, 40.330519], [-6.296051, 40.329897], [-6.298222, 40.329283], [-6.30034, 40.328679], [-6.302604, 40.328423], [-6.305013, 40.328516], [-6.307151, 40.329027], [-6.30902, 40.329958], [-6.310712, 40.331042], [-6.312227, 40.332281], [-6.313452, 40.333858], [-6.314386, 40.335775], [-6.314914, 40.337594], [-6.315038, 40.339315], [-6.315474, 40.340984], [-6.316221, 40.342601], [-6.317446, 40.343971], [-6.319149, 40.345095], [-6.32106, 40.345976], [-6.323178, 40.346616], [-6.325213, 40.347093], [-6.327163, 40.347408], [-6.328961, 40.347366], [-6.330606, 40.346967], [-6.332792, 40.346433], [-6.335519, 40.345763], [-6.338192, 40.34489], [-6.340812, 40.343814], [-6.343261, 40.343931], [-6.345537, 40.345239], [-6.348012, 40.346249], [-6.350685, 40.346961], [-6.352936, 40.348168], [-6.354763, 40.349869], [-6.356087, 40.35176], [-6.356908, 40.353841], [-6.357531, 40.355956], [-6.357955, 40.358105], [-6.358075, 40.359688], [-6.35789, 40.360705], [-6.358963, 40.361634], [-6.361293, 40.362475], [-6.362604, 40.363981], [-6.362896, 40.366152], [-6.363255, 40.368312], [-6.363679, 40.37046], [-6.363548, 40.372596], [-6.362861, 40.374721], [-6.361643, 40.37667], [-6.359896, 40.378445], [-6.358547, 40.380416], [-6.357594, 40.382585], [-6.35729, 40.384856], [-6.357636, 40.38723], [-6.357544, 40.389518], [-6.357015, 40.391721], [-6.35629, 40.393419], [-6.357019, 40.395663]]]}}]}