{"type": "FeatureCollection", "name": "SANMARTINDEVALDEIGLESIAS", "features": [{"type": "Feature", "properties": {"id": "565281", "FIREDATE": "2026-07-23T13:53:00", "FINALDATE": "2026-07-26T03:49:00", "LASTUPDATE": "2026-07-23 21:05:26.133833", "COUNTRY": "ES", "PROVINCE": "Madrid", "COMMUNE": "San Martín de Valdeiglesias", "AREA_HA": 16648.0, "BROADLEA": 17.6393, "CONIFER": 14.4032, "MIXED": 22.0641, "SCLEROPH": 18.9481, "TRANSIT": 7.4388, "OTHERNATLC": 5.0372, "AGRIAREAS": 10.873, "ARTIFSURF": 3.4642, "OTHERLC": 0.1321, "PERCNA2K": 99.9952, "CLASS": "7DAYS", "AÑO": 2026, "LATITUD": 40.39818397210939, "LONGITUD": -4.27065748728161}, "geometry": {"type": "Polygon", "coordinates": [[[-4.390532, 40.359893], [-4.389131, 40.364233], [-4.386615, 40.366327], [-4.383284, 40.366819], [-4.380933, 40.366363], [-4.379787, 40.369861], [-4.376196, 40.373147], [-4.373013, 40.373834], [-4.372518, 40.374363], [-4.371217, 40.375609], [-4.369829, 40.376705], [-4.368353, 40.377653], [-4.365863, 40.379479], [-4.362357, 40.382185], [-4.360049, 40.383446], [-4.358939, 40.383263], [-4.357125, 40.382963], [-4.354607, 40.382546], [-4.351578, 40.381302], [-4.348037, 40.37923], [-4.345368, 40.378533], [-4.34357, 40.37921], [-4.342645, 40.379542], [-4.342592, 40.379528], [-4.342102, 40.37942], [-4.341172, 40.379218], [-4.340173, 40.379023], [-4.339102, 40.378834], [-4.338017, 40.378644], [-4.336915, 40.378452], [-4.335798, 40.378258], [-4.334664, 40.378063], [-4.333515, 40.377866], [-4.332351, 40.377667], [-4.33117, 40.377467], [-4.329974, 40.377266], [-4.328833, 40.377069], [-4.327746, 40.376877], [-4.326714, 40.37669], [-4.325737, 40.376507], [-4.324774, 40.376523], [-4.324389, 40.37661], [-4.322504, 40.375434], [-4.320824, 40.372008], [-4.318514, 40.368445], [-4.31566, 40.368406], [-4.312663, 40.371027], [-4.310638, 40.373965], [-4.310912, 40.377139], [-4.312048, 40.379497], [-4.313457, 40.382389], [-4.311877, 40.383999], [-4.311268, 40.385925], [-4.31278, 40.391901], [-4.31175, 40.395267], [-4.310195, 40.396987], [-4.309952, 40.399204], [-4.306538, 40.401313], [-4.30744, 40.405269], [-4.302779, 40.410101], [-4.300014, 40.412975], [-4.29937, 40.413661], [-4.299383, 40.415476], [-4.300054, 40.41842], [-4.29845, 40.422248], [-4.294568, 40.426958], [-4.29047, 40.429564], [-4.286155, 40.430066], [-4.283302, 40.430398], [-4.281911, 40.43056], [-4.279306, 40.430662], [-4.275486, 40.430704], [-4.272794, 40.430753], [-4.27123, 40.43081], [-4.268743, 40.433244], [-4.265333, 40.438056], [-4.263751, 40.441997], [-4.263999, 40.445065], [-4.263409, 40.448536], [-4.261981, 40.452408], [-4.261005, 40.455052], [-4.260483, 40.456468], [-4.258085, 40.460163], [-4.25381, 40.466136], [-4.248938, 40.471795], [-4.243469, 40.477142], [-4.24015, 40.480387], [-4.238981, 40.48153], [-4.23685, 40.483094], [-4.233757, 40.485078], [-4.229232, 40.487981], [-4.223274, 40.491802], [-4.214892, 40.496225], [-4.204083, 40.501249], [-4.195446, 40.504921], [-4.188983, 40.507241], [-4.182325, 40.508209], [-4.175474, 40.507825], [-4.171069, 40.507635], [-4.16911, 40.507638], [-4.166187, 40.506401], [-4.162299, 40.503924], [-4.158773, 40.502147], [-4.15561, 40.50107], [-4.152423, 40.499683], [-4.149211, 40.497985], [-4.148732, 40.496066], [-4.150984, 40.493924], [-4.154246, 40.493626], [-4.158518, 40.495169], [-4.162902, 40.495999], [-4.167398, 40.496114], [-4.169794, 40.495416], [-4.170091, 40.493908], [-4.170431, 40.492183], [-4.170813, 40.490243], [-4.173904, 40.488991], [-4.179706, 40.488427], [-4.183488, 40.487807], [-4.18525, 40.487132], [-4.187973, 40.485864], [-4.191656, 40.484002], [-4.19416, 40.481369], [-4.195486, 40.477965], [-4.195825, 40.475437], [-4.195178, 40.473787], [-4.194286, 40.472067], [-4.193151, 40.470277], [-4.191835, 40.468612], [-4.190337, 40.467072], [-4.190063, 40.465751], [-4.191014, 40.464651], [-4.191466, 40.463891], [-4.191422, 40.463471], [-4.190189, 40.462732], [-4.187766, 40.461675], [-4.184078, 40.460837], [-4.179124, 40.460217], [-4.175348, 40.459192], [-4.172749, 40.457761], [-4.171856, 40.455747], [-4.172668, 40.45315], [-4.174468, 40.451046], [-4.177253, 40.449434], [-4.179554, 40.448195], [-4.181371, 40.447328], [-4.18286, 40.445403], [-4.184022, 40.44242], [-4.183739, 40.439814], [-4.18201, 40.437587], [-4.181134, 40.435838], [-4.181109, 40.434569], [-4.182286, 40.433393], [-4.184666, 40.432309], [-4.187137, 40.432017], [-4.189699, 40.432515], [-4.193242, 40.433674], [-4.197766, 40.435494], [-4.201085, 40.436559], [-4.203198, 40.436869], [-4.204918, 40.437121], [-4.206243, 40.437315], [-4.20739, 40.43704], [-4.208359, 40.436296], [-4.208835, 40.435832], [-4.208819, 40.43565], [-4.209817, 40.435806], [-4.211829, 40.4363], [-4.213431, 40.436092], [-4.214624, 40.435181], [-4.215468, 40.433885], [-4.215962, 40.432205], [-4.215344, 40.431022], [-4.213613, 40.430336], [-4.212167, 40.429743], [-4.211004, 40.429243], [-4.2097, 40.429431], [-4.208257, 40.430307], [-4.206022, 40.430867], [-4.202995, 40.431112], [-4.200907, 40.431016], [-4.199759, 40.43058], [-4.19885, 40.429272], [-4.198181, 40.427092], [-4.199012, 40.424953], [-4.201341, 40.422856], [-4.202038, 40.421095], [-4.201103, 40.419669], [-4.200575, 40.418189], [-4.200453, 40.416654], [-4.202174, 40.413816], [-4.205739, 40.409673], [-4.209346, 40.406215], [-4.212995, 40.40344], [-4.21639, 40.401543], [-4.21953, 40.400523], [-4.221022, 40.399572], [-4.220866, 40.398689], [-4.222386, 40.398373], [-4.225582, 40.398621], [-4.228027, 40.398882], [-4.229721, 40.399156], [-4.23092, 40.398147], [-4.231624, 40.395856], [-4.230846, 40.393625], [-4.228586, 40.391454], [-4.225602, 40.389388], [-4.221895, 40.387429], [-4.2195, 40.385468], [-4.218417, 40.383505], [-4.21738, 40.381625], [-4.216387, 40.379826], [-4.21425, 40.375883], [-4.21097, 40.369797], [-4.210175, 40.364181], [-4.211865, 40.359037], [-4.214184, 40.354269], [-4.217132, 40.349879], [-4.220613, 40.346348], [-4.224629, 40.343677], [-4.227469, 40.342116], [-4.229133, 40.341664], [-4.230425, 40.341371], [-4.231346, 40.341236], [-4.233447, 40.340616], [-4.236729, 40.339511], [-4.238108, 40.337798], [-4.237582, 40.335478], [-4.237614, 40.334119], [-4.238203, 40.33372], [-4.239155, 40.333424], [-4.24047, 40.333232], [-4.24256, 40.33376], [-4.245424, 40.335008], [-4.248628, 40.336259], [-4.252173, 40.337512], [-4.25631, 40.338855], [-4.261039, 40.340289], [-4.264043, 40.340646], [-4.265324, 40.339927], [-4.267004, 40.339305], [-4.269086, 40.33878], [-4.270723, 40.338502], [-4.271918, 40.33847], [-4.275352, 40.338849], [-4.281026, 40.339638], [-4.287112, 40.340609], [-4.29361, 40.341762], [-4.299644, 40.341808], [-4.305215, 40.340746], [-4.309065, 40.339086], [-4.311193, 40.336828], [-4.312843, 40.334851], [-4.314017, 40.333156], [-4.314892, 40.331893], [-4.315468, 40.331061], [-4.316731, 40.330056], [-4.318682, 40.328877], [-4.321042, 40.32857], [-4.323813, 40.329135], [-4.326021, 40.329783], [-4.327667, 40.330513], [-4.329014, 40.331321], [-4.330062, 40.332206], [-4.332343, 40.332466], [-4.335855, 40.332102], [-4.338247, 40.330884], [-4.339518, 40.328812], [-4.340589, 40.327712], [-4.341459, 40.327583], [-4.343763, 40.32733], [-4.347501, 40.326952], [-4.350607, 40.325286], [-4.353082, 40.322332], [-4.355781, 40.32064], [-4.358703, 40.320209], [-4.360728, 40.319599], [-4.361856, 40.318812], [-4.364327, 40.317975], [-4.368139, 40.317087], [-4.370781, 40.316859], [-4.372254, 40.31729], [-4.373467, 40.318206], [-4.374421, 40.319605], [-4.374839, 40.320766], [-4.374722, 40.321689], [-4.374849, 40.322257], [-4.37522, 40.322468], [-4.377034, 40.323432], [-4.380289, 40.325147], [-4.382398, 40.325344], [-4.383359, 40.324022], [-4.38393, 40.323064], [-4.384111, 40.322469], [-4.384106, 40.321984], [-4.383914, 40.321607], [-4.383626, 40.321041], [-4.383242, 40.320287], [-4.382934, 40.319401], [-4.3827, 40.318381], [-4.382941, 40.317819], [-4.383657, 40.317713], [-4.384919, 40.318378], [-4.386726, 40.319813], [-4.388546, 40.32153], [-4.390377, 40.323529], [-4.392257, 40.325278], [-4.394186, 40.326776], [-4.395174, 40.327571], [-4.395222, 40.327663], [-4.395789, 40.328755], [-4.396875, 40.330846], [-4.397634, 40.332833], [-4.398065, 40.334715], [-4.399073, 40.337038], [-4.400658, 40.339803], [-4.402093, 40.342834], [-4.403377, 40.34613], [-4.403897, 40.347909], [-4.403653, 40.34817], [-4.40238, 40.349534], [-4.400078, 40.352], [-4.396134, 40.35466], [-4.390549, 40.357512], [-4.390444, 40.357571], [-4.390532, 40.359893]]]}}]}