{"type": "FeatureCollection", "name": "SOBA", "features": [{"type": "Feature", "properties": {"id": "288511", "FIREDATE": "2026-02-24T02:19:00", "FINALDATE": "2026-02-25T02:19:00", "LASTUPDATE": "2026-03-03 08:57:12.792629", "COUNTRY": "ES", "PROVINCE": "Cantabria", "COMMUNE": "Soba", "AREA_HA": 2596.0, "BROADLEA": 6.485, "CONIFER": 0.0, "MIXED": 0.0, "SCLEROPH": 0.0, "TRANSIT": 0.0, "OTHERNATLC": 91.2126, "AGRIAREAS": 2.3024, "ARTIFSURF": 0.0, "OTHERLC": 0.0, "PERCNA2K": 99.8748, "CLASS": "FireSeason", "AÑO": 2026, "LATITUD": 43.221636582878645, "LONGITUD": -3.6597675247592556}, "geometry": {"type": "Polygon", "coordinates": [[[-3.682862, 43.176039], [-3.68308, 43.176013], [-3.683283, 43.176043], [-3.683472, 43.17613], [-3.683646, 43.176273], [-3.683775, 43.176616], [-3.683859, 43.177156], [-3.683897, 43.177896], [-3.68389, 43.178834], [-3.683904, 43.179712], [-3.683939, 43.180529], [-3.683995, 43.181286], [-3.684071, 43.181982], [-3.684236, 43.182493], [-3.684488, 43.182818], [-3.684829, 43.182958], [-3.685257, 43.182913], [-3.68557, 43.1829], [-3.685768, 43.182918], [-3.68585, 43.182968], [-3.685816, 43.183049], [-3.685836, 43.183133], [-3.685909, 43.18322], [-3.686036, 43.183309], [-3.686215, 43.1834], [-3.686399, 43.183491], [-3.686587, 43.183581], [-3.68678, 43.18367], [-3.686976, 43.183759], [-3.687168, 43.183826], [-3.687354, 43.183872], [-3.687536, 43.183896], [-3.687712, 43.183897], [-3.687905, 43.183916], [-3.688115, 43.183952], [-3.688343, 43.184005], [-3.688588, 43.184074], [-3.688807, 43.184167], [-3.689001, 43.184282], [-3.68917, 43.184419], [-3.689313, 43.18458], [-3.689438, 43.184775], [-3.689545, 43.185004], [-3.689634, 43.185268], [-3.689705, 43.185567], [-3.689777, 43.185872], [-3.68985, 43.186183], [-3.689925, 43.1865], [-3.690001, 43.186824], [-3.690063, 43.187104], [-3.690111, 43.187342], [-3.690143, 43.187537], [-3.690162, 43.187688], [-3.690223, 43.187818], [-3.690328, 43.187926], [-3.690475, 43.188012], [-3.690666, 43.188076], [-3.690842, 43.188171], [-3.691004, 43.188297], [-3.691151, 43.188453], [-3.691283, 43.188641], [-3.691341, 43.188797], [-3.691327, 43.188921], [-3.691239, 43.189013], [-3.691077, 43.189073], [-3.690969, 43.189155], [-3.690915, 43.189259], [-3.690914, 43.189384], [-3.690966, 43.189531], [-3.691021, 43.189691], [-3.691079, 43.189863], [-3.691141, 43.190047], [-3.691205, 43.190244], [-3.691219, 43.190415], [-3.691183, 43.190561], [-3.691097, 43.190682], [-3.690962, 43.190778], [-3.690811, 43.190808], [-3.690644, 43.190772], [-3.690462, 43.190672], [-3.690265, 43.190506], [-3.690052, 43.190294], [-3.689825, 43.190036], [-3.689581, 43.189731], [-3.689323, 43.189381], [-3.689093, 43.189075], [-3.68889, 43.188814], [-3.688716, 43.188596], [-3.68857, 43.188424], [-3.688455, 43.188218], [-3.688372, 43.187978], [-3.688321, 43.187706], [-3.688302, 43.1874], [-3.68827, 43.187119], [-3.688227, 43.186862], [-3.688172, 43.186628], [-3.688105, 43.186419], [-3.688033, 43.186149], [-3.687955, 43.18582], [-3.687872, 43.18543], [-3.687783, 43.184979], [-3.687671, 43.184638], [-3.687538, 43.184406], [-3.687381, 43.184282], [-3.687202, 43.184268], [-3.687026, 43.18425], [-3.686854, 43.184228], [-3.686686, 43.184203], [-3.686521, 43.184174], [-3.686284, 43.184119], [-3.685975, 43.184039], [-3.685595, 43.183933], [-3.685142, 43.183802], [-3.684761, 43.183712], [-3.684451, 43.183664], [-3.684212, 43.183658], [-3.684045, 43.183693], [-3.68391, 43.183753], [-3.683807, 43.183838], [-3.683736, 43.183947], [-3.683697, 43.184081], [-3.683644, 43.18421], [-3.683577, 43.184334], [-3.683496, 43.184455], [-3.6834, 43.18457], [-3.683292, 43.184691], [-3.683173, 43.184816], [-3.683041, 43.184946], [-3.682897, 43.185081], [-3.682795, 43.185243], [-3.682734, 43.185431], [-3.682714, 43.185645], [-3.682736, 43.185886], [-3.682741, 43.186133], [-3.68273, 43.186385], [-3.682703, 43.186642], [-3.68266, 43.186905], [-3.682584, 43.187085], [-3.682475, 43.187183], [-3.682334, 43.187199], [-3.68216, 43.187133], [-3.681979, 43.187055], [-3.681791, 43.186964], [-3.681596, 43.186862], [-3.681393, 43.186749], [-3.681204, 43.186559], [-3.681027, 43.186294], [-3.680863, 43.185953], [-3.680712, 43.185537], [-3.680579, 43.185234], [-3.680464, 43.185044], [-3.680367, 43.184967], [-3.680288, 43.185004], [-3.68016, 43.18506], [-3.679985, 43.185135], [-3.679761, 43.185229], [-3.679489, 43.185343], [-3.679253, 43.185423], [-3.679054, 43.185469], [-3.67889, 43.185482], [-3.678762, 43.185461], [-3.678619, 43.185451], [-3.678461, 43.185453], [-3.678289, 43.185467], [-3.678102, 43.185492], [-3.677934, 43.185527], [-3.677787, 43.185573], [-3.67766, 43.185629], [-3.677552, 43.185695], [-3.677419, 43.185764], [-3.677261, 43.185837], [-3.677077, 43.185913], [-3.676867, 43.185993], [-3.676636, 43.186075], [-3.676384, 43.186161], [-3.676111, 43.186249], [-3.675816, 43.18634], [-3.67558, 43.186428], [-3.675404, 43.186511], [-3.675286, 43.186592], [-3.675227, 43.186668], [-3.675168, 43.186746], [-3.675107, 43.186825], [-3.675046, 43.186904], [-3.674984, 43.186986], [-3.674996, 43.18704], [-3.675084, 43.187068], [-3.675247, 43.187069], [-3.675484, 43.187043], [-3.675714, 43.18704], [-3.675936, 43.18706], [-3.67615, 43.187102], [-3.676357, 43.187167], [-3.676549, 43.187224], [-3.676726, 43.187273], [-3.676889, 43.187312], [-3.677037, 43.187344], [-3.677185, 43.187414], [-3.677333, 43.187522], [-3.677482, 43.187669], [-3.677631, 43.187854], [-3.67779, 43.187968], [-3.677958, 43.188009], [-3.678135, 43.187979], [-3.678322, 43.187876], [-3.678513, 43.187793], [-3.678708, 43.187728], [-3.678908, 43.187682], [-3.679112, 43.187654], [-3.679355, 43.18764], [-3.679636, 43.187641], [-3.679956, 43.187656], [-3.680314, 43.187684], [-3.680611, 43.187753], [-3.680848, 43.187862], [-3.681024, 43.188012], [-3.681139, 43.188202], [-3.68121, 43.188391], [-3.681237, 43.18858], [-3.68122, 43.188769], [-3.681159, 43.188957], [-3.681007, 43.18917], [-3.680765, 43.189408], [-3.680432, 43.189672], [-3.680008, 43.18996], [-3.679662, 43.190206], [-3.679394, 43.190409], [-3.679203, 43.19057], [-3.67909, 43.190687], [-3.679098, 43.190796], [-3.679227, 43.190894], [-3.679476, 43.190982], [-3.679846, 43.191061], [-3.680216, 43.191139], [-3.680586, 43.191217], [-3.680956, 43.191296], [-3.681326, 43.191374], [-3.681572, 43.191489], [-3.681696, 43.191639], [-3.681696, 43.191825], [-3.681572, 43.192047], [-3.681482, 43.192258], [-3.681424, 43.192459], [-3.681398, 43.192649], [-3.681405, 43.192827], [-3.681439, 43.19297], [-3.681499, 43.193078], [-3.681587, 43.19315], [-3.681701, 43.193186], [-3.681905, 43.193196], [-3.6822, 43.193182], [-3.682586, 43.193143], [-3.683063, 43.193078], [-3.683432, 43.19308], [-3.683694, 43.193147], [-3.683849, 43.19328], [-3.683896, 43.19348], [-3.683839, 43.193648], [-3.683678, 43.193785], [-3.683413, 43.193891], [-3.683045, 43.193967], [-3.682652, 43.194091], [-3.682236, 43.194262], [-3.681796, 43.194482], [-3.681332, 43.194751], [-3.680935, 43.195003], [-3.680604, 43.195241], [-3.680341, 43.195463], [-3.680143, 43.195669], [-3.680023, 43.195865], [-3.679979, 43.196051], [-3.680011, 43.196226], [-3.680121, 43.196391], [-3.680223, 43.196488], [-3.680318, 43.196516], [-3.680406, 43.196476], [-3.680487, 43.196368], [-3.680538, 43.196262], [-3.68056, 43.196158], [-3.680552, 43.196056], [-3.680514, 43.195956], [-3.680512, 43.195884], [-3.680547, 43.19584], [-3.680619, 43.195823], [-3.680727, 43.195834], [-3.68082, 43.195849], [-3.680899, 43.195866], [-3.680962, 43.195888], [-3.681011, 43.195912], [-3.68106, 43.195938], [-3.68111, 43.195963], [-3.68116, 43.195989], [-3.681212, 43.196015], [-3.681254, 43.196022], [-3.681288, 43.196011], [-3.681314, 43.195982], [-3.681331, 43.195935], [-3.681352, 43.195874], [-3.681379, 43.1958], [-3.68141, 43.195712], [-3.681446, 43.195611], [-3.681482, 43.195518], [-3.681518, 43.195433], [-3.681554, 43.195356], [-3.681591, 43.195287], [-3.681661, 43.195252], [-3.681766, 43.195251], [-3.681906, 43.195283], [-3.68208, 43.195349], [-3.682211, 43.195405], [-3.682301, 43.19545], [-3.682349, 43.195485], [-3.682354, 43.195509], [-3.682362, 43.195526], [-3.682371, 43.195536], [-3.682381, 43.195539], [-3.682394, 43.195535], [-3.682486, 43.195624], [-3.682658, 43.195805], [-3.682911, 43.196078], [-3.683243, 43.196444], [-3.683552, 43.196711], [-3.683837, 43.196878], [-3.684099, 43.196945], [-3.684338, 43.196913], [-3.684551, 43.196922], [-3.684739, 43.196974], [-3.684901, 43.197068], [-3.685039, 43.197203], [-3.685208, 43.197314], [-3.685409, 43.197402], [-3.685641, 43.197465], [-3.685905, 43.197503], [-3.686132, 43.197569], [-3.686323, 43.19766], [-3.686477, 43.197778], [-3.686594, 43.197922], [-3.686686, 43.198001], [-3.686751, 43.198014], [-3.686791, 43.197963], [-3.686805, 43.197847], [-3.686866, 43.19778], [-3.686974, 43.197764], [-3.687129, 43.197798], [-3.687332, 43.197882], [-3.687443, 43.197993], [-3.687464, 43.198131], [-3.687393, 43.198297], [-3.687231, 43.198489], [-3.687075, 43.198658], [-3.686927, 43.198801], [-3.686785, 43.19892], [-3.686651, 43.199015], [-3.686542, 43.19911], [-3.68646, 43.199204], [-3.686403, 43.199298], [-3.686373, 43.199392], [-3.686347, 43.199489], [-3.686327, 43.199588], [-3.686311, 43.199689], [-3.686301, 43.199793], [-3.686369, 43.199861], [-3.686517, 43.199893], [-3.686745, 43.199888], [-3.687051, 43.199846], [-3.68733, 43.199802], [-3.687583, 43.199755], [-3.687808, 43.199705], [-3.688007, 43.199653], [-3.688174, 43.199589], [-3.688311, 43.199513], [-3.688416, 43.199425], [-3.68849, 43.199326], [-3.688584, 43.199262], [-3.688697, 43.199232], [-3.688831, 43.199237], [-3.688984, 43.199276], [-3.689203, 43.199407], [-3.689485, 43.19963], [-3.689833, 43.199945], [-3.690245, 43.200352], [-3.690561, 43.200681], [-3.690779, 43.200934], [-3.690899, 43.201111], [-3.690923, 43.20121], [-3.690811, 43.201219], [-3.690563, 43.201137], [-3.690179, 43.200964], [-3.68966, 43.2007], [-3.689166, 43.200543], [-3.688697, 43.20049], [-3.688253, 43.200544], [-3.687833, 43.200703], [-3.687485, 43.200866], [-3.687208, 43.201032], [-3.687002, 43.201201], [-3.686867, 43.201373], [-3.686861, 43.201535], [-3.686985, 43.201685], [-3.687237, 43.201824], [-3.687619, 43.201952], [-3.687975, 43.202123], [-3.688307, 43.202335], [-3.688613, 43.202589], [-3.688893, 43.202884], [-3.689131, 43.203071], [-3.689325, 43.203147], [-3.689475, 43.203114], [-3.689582, 43.202971], [-3.689748, 43.202859], [-3.689975, 43.202777], [-3.690262, 43.202725], [-3.690608, 43.202704], [-3.690918, 43.202713], [-3.691191, 43.202754], [-3.691427, 43.202824], [-3.691627, 43.202926], [-3.691817, 43.203022], [-3.691996, 43.203113], [-3.692166, 43.2032], [-3.692326, 43.203281], [-3.69248, 43.203375], [-3.692629, 43.203484], [-3.692772, 43.203606], [-3.692909, 43.203741], [-3.692967, 43.203875], [-3.692945, 43.204006], [-3.692844, 43.204135], [-3.692663, 43.204262], [-3.692561, 43.204424], [-3.692537, 43.20462], [-3.692591, 43.20485], [-3.692724, 43.205115], [-3.6929, 43.205303], [-3.69312, 43.205414], [-3.693383, 43.205449], [-3.69369, 43.205408], [-3.693911, 43.205416], [-3.694048, 43.205475], [-3.6941, 43.205583], [-3.694067, 43.205742], [-3.694141, 43.205867], [-3.694321, 43.205958], [-3.694607, 43.206016], [-3.694999, 43.20604], [-3.695344, 43.20616], [-3.695641, 43.206377], [-3.695891, 43.206689], [-3.696093, 43.207099], [-3.696246, 43.20745], [-3.696351, 43.207744], [-3.696407, 43.207981], [-3.696414, 43.20816], [-3.696464, 43.208333], [-3.696556, 43.2085], [-3.696691, 43.208662], [-3.696868, 43.208817], [-3.697073, 43.208976], [-3.697304, 43.209137], [-3.697563, 43.209301], [-3.697848, 43.209468], [-3.698023, 43.20965], [-3.698087, 43.209847], [-3.69804, 43.210059], [-3.697883, 43.210285], [-3.697898, 43.210534], [-3.698085, 43.210804], [-3.698444, 43.211096], [-3.698975, 43.211409], [-3.699401, 43.211647], [-3.699722, 43.211811], [-3.699938, 43.211899], [-3.700049, 43.211913], [-3.700156, 43.211954], [-3.70026, 43.212024], [-3.700361, 43.212121], [-3.700459, 43.212246], [-3.700599, 43.212325], [-3.700781, 43.212356], [-3.701006, 43.212341], [-3.701272, 43.212279], [-3.701536, 43.212225], [-3.701797, 43.212176], [-3.702055, 43.212135], [-3.702311, 43.2121], [-3.702546, 43.212056], [-3.702762, 43.212001], [-3.702957, 43.211936], [-3.703133, 43.211861], [-3.703294, 43.2118], [-3.703442, 43.211755], [-3.703575, 43.211724], [-3.703694, 43.211708], [-3.703829, 43.211695], [-3.703979, 43.211685], [-3.704145, 43.211678], [-3.704326, 43.211675], [-3.704449, 43.211717], [-3.704513, 43.211804], [-3.70452, 43.211937], [-3.704468, 43.212116], [-3.704454, 43.212322], [-3.704478, 43.212556], [-3.704541, 43.212817], [-3.704641, 43.213105], [-3.704664, 43.213343], [-3.704612, 43.21353], [-3.704483, 43.213666], [-3.704278, 43.213751], [-3.70415, 43.213852], [-3.704098, 43.213968], [-3.704122, 43.2141], [-3.704223, 43.214247], [-3.704284, 43.214383], [-3.704305, 43.214509], [-3.704286, 43.214624], [-3.704227, 43.214728], [-3.7042, 43.214842], [-3.704205, 43.214966], [-3.704242, 43.215101], [-3.704312, 43.215246], [-3.704393, 43.215335], [-3.704487, 43.21537], [-3.704593, 43.215349], [-3.704711, 43.215273], [-3.70481, 43.215233], [-3.704888, 43.215229], [-3.704946, 43.215261], [-3.704984, 43.215328], [-3.705056, 43.215376], [-3.705161, 43.215405], [-3.705301, 43.215413], [-3.705474, 43.215403], [-3.705628, 43.215366], [-3.705762, 43.215303], [-3.705877, 43.215213], [-3.705973, 43.215098], [-3.706057, 43.215006], [-3.706129, 43.214939], [-3.706189, 43.214895], [-3.706237, 43.214876], [-3.70627, 43.214923], [-3.706288, 43.215036], [-3.706291, 43.215215], [-3.706279, 43.215461], [-3.706291, 43.215657], [-3.706327, 43.215804], [-3.706387, 43.215901], [-3.706472, 43.215948], [-3.706541, 43.216065], [-3.706593, 43.21625], [-3.70663, 43.216505], [-3.706651, 43.216828], [-3.706822, 43.21721], [-3.707145, 43.217651], [-3.707618, 43.21815], [-3.708242, 43.218707], [-3.708912, 43.219085], [-3.709627, 43.219284], [-3.710387, 43.219303], [-3.711193, 43.219143], [-3.711967, 43.218961], [-3.71271, 43.218757], [-3.713422, 43.218532], [-3.714102, 43.218286], [-3.714795, 43.217987], [-3.715503, 43.217634], [-3.716224, 43.217228], [-3.716959, 43.216769], [-3.717535, 43.216415], [-3.717952, 43.216165], [-3.718211, 43.21602], [-3.71831, 43.21598], [-3.718506, 43.215947], [-3.718799, 43.21592], [-3.719188, 43.2159], [-3.719673, 43.215886], [-3.720073, 43.215878], [-3.720387, 43.215874], [-3.720615, 43.215876], [-3.720757, 43.215882], [-3.720878, 43.21586], [-3.72098, 43.21581], [-3.72106, 43.215732], [-3.721121, 43.215626], [-3.721239, 43.215574], [-3.721415, 43.215576], [-3.721649, 43.215631], [-3.721941, 43.215741], [-3.722184, 43.215885], [-3.722376, 43.216062], [-3.722519, 43.216273], [-3.722612, 43.216517], [-3.722665, 43.216718], [-3.722676, 43.216877], [-3.722648, 43.216992], [-3.722578, 43.217065], [-3.722455, 43.217136], [-3.722278, 43.217205], [-3.722047, 43.217272], [-3.721762, 43.217337], [-3.721584, 43.217423], [-3.721512, 43.217529], [-3.721546, 43.217657], [-3.721687, 43.217804], [-3.721829, 43.217923], [-3.721973, 43.218013], [-3.72212, 43.218073], [-3.722268, 43.218105], [-3.722408, 43.218126], [-3.722539, 43.218138], [-3.722663, 43.218141], [-3.722779, 43.218134], [-3.72288, 43.218128], [-3.722966, 43.218122], [-3.723038, 43.218118], [-3.723096, 43.218114], [-3.723244, 43.218126], [-3.723482, 43.218154], [-3.72381, 43.218197], [-3.724228, 43.218256], [-3.724551, 43.218321], [-3.724779, 43.218392], [-3.724911, 43.218468], [-3.724947, 43.21855], [-3.724975, 43.218613], [-3.724994, 43.218655], [-3.725004, 43.218678], [-3.725005, 43.21868], [-3.724974, 43.218734], [-3.724912, 43.21884], [-3.724817, 43.218998], [-3.724691, 43.219208], [-3.724589, 43.219372], [-3.72451, 43.219489], [-3.724455, 43.219561], [-3.724423, 43.219587], [-3.724202, 43.219621], [-3.72379, 43.219664], [-3.723188, 43.219716], [-3.722396, 43.219776], [-3.721797, 43.219725], [-3.721391, 43.219564], [-3.721178, 43.219292], [-3.721158, 43.21891], [-3.72093, 43.218729], [-3.720496, 43.218749], [-3.719854, 43.218971], [-3.719005, 43.219394], [-3.718267, 43.219655], [-3.717639, 43.219753], [-3.717123, 43.219688], [-3.716718, 43.21946], [-3.716123, 43.219361], [-3.715339, 43.21939], [-3.714365, 43.219548], [-3.713202, 43.219834], [-3.712261, 43.220128], [-3.711542, 43.220431], [-3.711044, 43.220742], [-3.710769, 43.221062], [-3.710855, 43.221352], [-3.711303, 43.221613], [-3.712114, 43.221843], [-3.713286, 43.222044], [-3.714255, 43.222163], [-3.71502, 43.222201], [-3.715581, 43.222157], [-3.715938, 43.222031], [-3.716314, 43.221948], [-3.716709, 43.221908], [-3.717122, 43.22191], [-3.717554, 43.221954], [-3.717965, 43.222052], [-3.718352, 43.222205], [-3.718718, 43.222413], [-3.719061, 43.222674], [-3.719493, 43.222866], [-3.720015, 43.222988], [-3.720625, 43.22304], [-3.721324, 43.223023], [-3.721826, 43.223064], [-3.722131, 43.223164], [-3.722239, 43.223322], [-3.722149, 43.22354], [-3.721899, 43.223709], [-3.721488, 43.223829], [-3.720916, 43.2239], [-3.720183, 43.223922], [-3.71945, 43.223906], [-3.718716, 43.223851], [-3.717982, 43.223758], [-3.717248, 43.223626], [-3.716546, 43.223522], [-3.715877, 43.223446], [-3.715242, 43.223397], [-3.714639, 43.223376], [-3.714153, 43.223355], [-3.713782, 43.223333], [-3.713528, 43.223312], [-3.71339, 43.22329], [-3.71324, 43.223255], [-3.713079, 43.223206], [-3.712907, 43.223144], [-3.712723, 43.223068], [-3.712473, 43.222984], [-3.712158, 43.222893], [-3.711776, 43.222794], [-3.711329, 43.222688], [-3.710929, 43.222613], [-3.710577, 43.222571], [-3.710271, 43.222561], [-3.710013, 43.222583], [-3.709805, 43.222603], [-3.70965, 43.222621], [-3.709545, 43.222636], [-3.709492, 43.222649], [-3.709408, 43.22267], [-3.709291, 43.222699], [-3.709143, 43.222735], [-3.708964, 43.222779], [-3.708813, 43.222837], [-3.708691, 43.222908], [-3.708598, 43.222993], [-3.708533, 43.223092], [-3.708492, 43.223197], [-3.708475, 43.223309], [-3.708481, 43.223427], [-3.70851, 43.223551], [-3.708513, 43.223676], [-3.70849, 43.223801], [-3.708441, 43.223926], [-3.708365, 43.224052], [-3.708241, 43.224124], [-3.70807, 43.22414], [-3.70785, 43.224103], [-3.707582, 43.224011], [-3.707371, 43.223936], [-3.707216, 43.22388], [-3.707118, 43.223841], [-3.707078, 43.22382], [-3.706972, 43.223876], [-3.706801, 43.224008], [-3.706565, 43.224217], [-3.706264, 43.224503], [-3.705974, 43.224815], [-3.705695, 43.225155], [-3.705426, 43.225522], [-3.705167, 43.225917], [-3.704866, 43.226426], [-3.704522, 43.227051], [-3.704134, 43.22779], [-3.703704, 43.228645], [-3.703201, 43.229419], [-3.702627, 43.230113], [-3.701981, 43.230727], [-3.701264, 43.231261], [-3.700722, 43.231679], [-3.700357, 43.231981], [-3.700168, 43.232168], [-3.700154, 43.232239], [-3.70012, 43.232307], [-3.700065, 43.232373], [-3.69999, 43.232435], [-3.699893, 43.232494], [-3.699816, 43.232555], [-3.699758, 43.232618], [-3.699719, 43.232683], [-3.6997, 43.23275], [-3.699704, 43.232823], [-3.699733, 43.232901], [-3.699785, 43.232985], [-3.699861, 43.233075], [-3.699936, 43.233163], [-3.700009, 43.233249], [-3.70008, 43.233334], [-3.700151, 43.233417], [-3.700208, 43.233498], [-3.700252, 43.233577], [-3.700283, 43.233654], [-3.7003, 43.233728], [-3.700306, 43.233824], [-3.700298, 43.23394], [-3.700278, 43.234078], [-3.700245, 43.234237], [-3.700219, 43.234404], [-3.700199, 43.23458], [-3.700185, 43.234765], [-3.700178, 43.234958], [-3.700164, 43.235159], [-3.700143, 43.235368], [-3.700115, 43.235583], [-3.70008, 43.235806], [-3.700025, 43.235981], [-3.699949, 43.236106], [-3.699853, 43.236184], [-3.699737, 43.236212], [-3.699583, 43.23623], [-3.699391, 43.236237], [-3.699161, 43.236232], [-3.698894, 43.236217], [-3.698679, 43.236186], [-3.698516, 43.236139], [-3.698406, 43.236076], [-3.698347, 43.235997], [-3.698287, 43.235936], [-3.698224, 43.235894], [-3.698159, 43.235869], [-3.698091, 43.235862], [-3.697925, 43.235776], [-3.697659, 43.235611], [-3.697295, 43.235368], [-3.696832, 43.235045], [-3.696169, 43.234621], [-3.695306, 43.234095], [-3.694244, 43.233469], [-3.692981, 43.23274], [-3.691901, 43.232], [-3.691002, 43.231249], [-3.690285, 43.230485], [-3.68975, 43.22971], [-3.689192, 43.22906], [-3.688611, 43.228535], [-3.688007, 43.228135], [-3.687379, 43.22786], [-3.686777, 43.227396], [-3.686201, 43.226742], [-3.68565, 43.225898], [-3.685124, 43.224865], [-3.684821, 43.224065], [-3.68474, 43.223498], [-3.68488, 43.223164], [-3.685243, 43.223064], [-3.685545, 43.223074], [-3.685784, 43.223196], [-3.685963, 43.223429], [-3.686079, 43.223773], [-3.686324, 43.224067], [-3.686699, 43.224312], [-3.687202, 43.224507], [-3.687834, 43.224653], [-3.688332, 43.224714], [-3.688695, 43.22469], [-3.688925, 43.224582], [-3.68902, 43.22439], [-3.689234, 43.224219], [-3.689569, 43.224072], [-3.690022, 43.223946], [-3.690596, 43.223843], [-3.691151, 43.223774], [-3.691688, 43.22374], [-3.692206, 43.223741], [-3.692707, 43.223776], [-3.693123, 43.223899], [-3.693454, 43.224111], [-3.693701, 43.224412], [-3.693863, 43.224801], [-3.694102, 43.225102], [-3.694416, 43.225317], [-3.694807, 43.225444], [-3.695273, 43.225483], [-3.695657, 43.225516], [-3.695959, 43.225542], [-3.696178, 43.225561], [-3.696315, 43.225573], [-3.696454, 43.225544], [-3.696595, 43.225473], [-3.696739, 43.225361], [-3.696885, 43.225208], [-3.697023, 43.22508], [-3.697151, 43.224977], [-3.697271, 43.224899], [-3.697381, 43.224845], [-3.697436, 43.224764], [-3.697437, 43.224654], [-3.697383, 43.224517], [-3.697273, 43.224352], [-3.69719, 43.224203], [-3.697132, 43.22407], [-3.697099, 43.223952], [-3.697093, 43.22385], [-3.697106, 43.223739], [-3.697139, 43.223619], [-3.697192, 43.22349], [-3.697265, 43.223352], [-3.697363, 43.223229], [-3.697488, 43.223123], [-3.697638, 43.223032], [-3.697813, 43.222957], [-3.697956, 43.222892], [-3.698067, 43.222839], [-3.698144, 43.222796], [-3.69819, 43.222764], [-3.698205, 43.222663], [-3.698191, 43.222491], [-3.698147, 43.22225], [-3.698073, 43.221939], [-3.698012, 43.221681], [-3.697964, 43.221476], [-3.697928, 43.221323], [-3.697904, 43.221224], [-3.697891, 43.221058], [-3.69789, 43.220827], [-3.697898, 43.220531], [-3.697918, 43.220169], [-3.698022, 43.219866], [-3.698211, 43.219622], [-3.698484, 43.219437], [-3.698841, 43.219312], [-3.699157, 43.219089], [-3.699433, 43.218769], [-3.699668, 43.218352], [-3.699863, 43.217838], [-3.699998, 43.21737], [-3.700074, 43.216949], [-3.700091, 43.216574], [-3.700049, 43.216246], [-3.699856, 43.21606], [-3.699511, 43.216017], [-3.699016, 43.216116], [-3.69837, 43.216358], [-3.697932, 43.216622], [-3.697701, 43.216911], [-3.697678, 43.217222], [-3.697863, 43.217556], [-3.69796, 43.217858], [-3.697971, 43.218126], [-3.697895, 43.218361], [-3.697732, 43.218563], [-3.69752, 43.218746], [-3.69726, 43.218909], [-3.696951, 43.219054], [-3.696594, 43.219179], [-3.696141, 43.219343], [-3.695591, 43.219546], [-3.694945, 43.219787], [-3.694203, 43.220068], [-3.693523, 43.220314], [-3.692905, 43.220526], [-3.692349, 43.220703], [-3.691856, 43.220847], [-3.691442, 43.220955], [-3.691107, 43.221026], [-3.690852, 43.22106], [-3.690676, 43.221058], [-3.690455, 43.221017], [-3.69019, 43.220938], [-3.689881, 43.220819], [-3.689527, 43.220661], [-3.689136, 43.220567], [-3.688706, 43.220535], [-3.688239, 43.220566], [-3.687734, 43.22066], [-3.687336, 43.220688], [-3.687046, 43.22065], [-3.686863, 43.220546], [-3.686788, 43.220377], [-3.686886, 43.220196], [-3.687157, 43.220006], [-3.687602, 43.219804], [-3.68822, 43.219592], [-3.688665, 43.219359], [-3.688939, 43.219104], [-3.689041, 43.218827], [-3.68897, 43.218528], [-3.688875, 43.218239], [-3.688757, 43.21796], [-3.688614, 43.21769], [-3.688447, 43.21743], [-3.688422, 43.217177], [-3.688539, 43.21693], [-3.688799, 43.216689], [-3.689201, 43.216455], [-3.689684, 43.216268], [-3.690248, 43.216127], [-3.690894, 43.216033], [-3.691621, 43.215986], [-3.692211, 43.215804], [-3.692663, 43.215486], [-3.692977, 43.215033], [-3.693154, 43.214444], [-3.693213, 43.213838], [-3.693154, 43.213217], [-3.692977, 43.21258], [-3.692682, 43.211926], [-3.692381, 43.211396], [-3.692074, 43.210988], [-3.69176, 43.210703], [-3.691441, 43.21054], [-3.691118, 43.210327], [-3.690792, 43.210063], [-3.690463, 43.209748], [-3.69013, 43.209382], [-3.689892, 43.209042], [-3.689747, 43.208728], [-3.689696, 43.208439], [-3.68974, 43.208176], [-3.689708, 43.208007], [-3.689603, 43.207932], [-3.689422, 43.20795], [-3.689168, 43.208061], [-3.688883, 43.208234], [-3.68857, 43.208469], [-3.688227, 43.208766], [-3.687855, 43.209125], [-3.687528, 43.209342], [-3.687248, 43.209419], [-3.687013, 43.209354], [-3.686824, 43.209148], [-3.686744, 43.208922], [-3.686773, 43.208674], [-3.686911, 43.208405], [-3.687159, 43.208114], [-3.687217, 43.207728], [-3.687086, 43.207245], [-3.686764, 43.206665], [-3.686253, 43.20599], [-3.685733, 43.205463], [-3.685205, 43.205085], [-3.684667, 43.204856], [-3.684121, 43.204775], [-3.683733, 43.204622], [-3.683504, 43.204396], [-3.683434, 43.204098], [-3.683522, 43.203726], [-3.683474, 43.20345], [-3.683291, 43.203269], [-3.682972, 43.203184], [-3.682518, 43.203194], [-3.682037, 43.203317], [-3.68153, 43.203552], [-3.680997, 43.2039], [-3.680438, 43.204361], [-3.679879, 43.204745], [-3.679319, 43.205052], [-3.678758, 43.205282], [-3.678197, 43.205435], [-3.677797, 43.205604], [-3.67756, 43.20579], [-3.677485, 43.205993], [-3.677572, 43.206212], [-3.677572, 43.206437], [-3.677486, 43.206667], [-3.677313, 43.206902], [-3.677054, 43.207143], [-3.676908, 43.207381], [-3.676875, 43.207616], [-3.676957, 43.207849], [-3.677152, 43.20808], [-3.677362, 43.208263], [-3.677588, 43.2084], [-3.677828, 43.208489], [-3.678084, 43.208532], [-3.678247, 43.208664], [-3.678317, 43.208885], [-3.678294, 43.209197], [-3.678178, 43.209598], [-3.678189, 43.209866], [-3.678326, 43.210001], [-3.67859, 43.210004], [-3.678981, 43.209874], [-3.679326, 43.209809], [-3.679624, 43.209807], [-3.679876, 43.209869], [-3.680082, 43.209995], [-3.680261, 43.210157], [-3.680413, 43.210355], [-3.680538, 43.210589], [-3.680637, 43.210858], [-3.680714, 43.211111], [-3.68077, 43.211347], [-3.680805, 43.211567], [-3.680818, 43.211771], [-3.680858, 43.212016], [-3.680925, 43.212302], [-3.68102, 43.212629], [-3.681143, 43.212998], [-3.681276, 43.213301], [-3.68142, 43.213539], [-3.681574, 43.21371], [-3.68174, 43.213816], [-3.681899, 43.21393], [-3.68205, 43.21405], [-3.682195, 43.214179], [-3.682332, 43.214314], [-3.682444, 43.214453], [-3.682531, 43.214596], [-3.682591, 43.214741], [-3.682627, 43.214891], [-3.682616, 43.215033], [-3.682561, 43.215169], [-3.682459, 43.215299], [-3.682313, 43.215421], [-3.682153, 43.215488], [-3.681979, 43.215498], [-3.681793, 43.215453], [-3.681593, 43.215351], [-3.681408, 43.215274], [-3.681237, 43.21522], [-3.68108, 43.21519], [-3.680938, 43.215183], [-3.680717, 43.215213], [-3.680416, 43.215279], [-3.680036, 43.215382], [-3.679577, 43.215521], [-3.679128, 43.215595], [-3.678691, 43.215602], [-3.678264, 43.215544], [-3.677848, 43.215421], [-3.677587, 43.21543], [-3.67748, 43.215573], [-3.677528, 43.215849], [-3.67773, 43.216259], [-3.677929, 43.216617], [-3.678124, 43.216924], [-3.678317, 43.217181], [-3.678506, 43.217387], [-3.678697, 43.217598], [-3.678889, 43.217816], [-3.679082, 43.218041], [-3.679277, 43.218271], [-3.679337, 43.218488], [-3.679262, 43.218691], [-3.679052, 43.218879], [-3.678706, 43.219054], [-3.678467, 43.219267], [-3.678332, 43.219516], [-3.678303, 43.219802], [-3.67838, 43.220126], [-3.678398, 43.220425], [-3.678357, 43.2207], [-3.678258, 43.220951], [-3.678101, 43.221178], [-3.677937, 43.221341], [-3.677767, 43.221441], [-3.677592, 43.221478], [-3.677409, 43.221451], [-3.677247, 43.221358], [-3.677103, 43.221197], [-3.676979, 43.22097], [-3.676875, 43.220676], [-3.676665, 43.220422], [-3.676351, 43.220207], [-3.675932, 43.220033], [-3.675408, 43.219898], [-3.674949, 43.219889], [-3.674555, 43.220007], [-3.674226, 43.22025], [-3.673961, 43.22062], [-3.673665, 43.220853], [-3.673336, 43.220948], [-3.672975, 43.220907], [-3.672581, 43.220729], [-3.672381, 43.220551], [-3.672374, 43.220372], [-3.67256, 43.220193], [-3.672939, 43.220013], [-3.673197, 43.219766], [-3.673334, 43.219453], [-3.67335, 43.219072], [-3.673244, 43.218624], [-3.673223, 43.218273], [-3.673286, 43.218021], [-3.673434, 43.217866], [-3.673667, 43.217809], [-3.67396, 43.217821], [-3.674313, 43.217902], [-3.674726, 43.218051], [-3.675199, 43.21827], [-3.675524, 43.218232], [-3.675701, 43.217939], [-3.675729, 43.217389], [-3.67561, 43.216584], [-3.675495, 43.215951], [-3.675386, 43.21549], [-3.675283, 43.215202], [-3.675186, 43.215087], [-3.675024, 43.21507], [-3.674797, 43.215152], [-3.674506, 43.215333], [-3.67415, 43.215612], [-3.673815, 43.215683], [-3.673501, 43.215546], [-3.673209, 43.2152], [-3.672938, 43.214646], [-3.672724, 43.214219], [-3.672568, 43.213919], [-3.672471, 43.213746], [-3.672431, 43.213701], [-3.672411, 43.213623], [-3.672412, 43.213514], [-3.672433, 43.213373], [-3.672474, 43.2132], [-3.672454, 43.213068], [-3.672373, 43.212975], [-3.672232, 43.212924], [-3.67203, 43.212912], [-3.671868, 43.212892], [-3.671747, 43.212863], [-3.671667, 43.212826], [-3.671627, 43.212781], [-3.671483, 43.21271], [-3.671235, 43.212616], [-3.670884, 43.212496], [-3.670428, 43.212352], [-3.670143, 43.212449], [-3.670029, 43.212785], [-3.670086, 43.213361], [-3.670314, 43.214178], [-3.670445, 43.214809], [-3.67048, 43.215254], [-3.670418, 43.215512], [-3.670259, 43.215585], [-3.670162, 43.215733], [-3.670127, 43.215956], [-3.670154, 43.216254], [-3.670242, 43.216628], [-3.670353, 43.216985], [-3.670486, 43.217327], [-3.670642, 43.217652], [-3.67082, 43.217962], [-3.670844, 43.218248], [-3.670712, 43.21851], [-3.670426, 43.218747], [-3.669984, 43.218961], [-3.669672, 43.219202], [-3.669489, 43.219471], [-3.669436, 43.219767], [-3.669512, 43.220091], [-3.669712, 43.220378], [-3.670035, 43.22063], [-3.670482, 43.220846], [-3.671051, 43.221026], [-3.671447, 43.22121], [-3.671667, 43.221398], [-3.671712, 43.221591], [-3.671583, 43.221789], [-3.671493, 43.222038], [-3.671441, 43.222341], [-3.671428, 43.222696], [-3.671454, 43.223103], [-3.671527, 43.223414], [-3.671648, 43.223629], [-3.671817, 43.223747], [-3.672033, 43.22377], [-3.67221, 43.223887], [-3.672348, 43.224099], [-3.672447, 43.224407], [-3.672507, 43.22481], [-3.672523, 43.225174], [-3.672494, 43.225499], [-3.672421, 43.225785], [-3.672304, 43.226032], [-3.672345, 43.226244], [-3.672545, 43.226423], [-3.672905, 43.226567], [-3.673423, 43.226677], [-3.673648, 43.226884], [-3.673579, 43.227188], [-3.673217, 43.22759], [-3.672561, 43.22809], [-3.671918, 43.228491], [-3.671286, 43.228795], [-3.670667, 43.229], [-3.670059, 43.229108], [-3.669519, 43.229316], [-3.669047, 43.229624], [-3.668642, 43.230031], [-3.668305, 43.230539], [-3.667923, 43.230969], [-3.667497, 43.231322], [-3.667026, 43.231598], [-3.66651, 43.231796], [-3.665915, 43.23203], [-3.66524, 43.232301], [-3.664487, 43.232608], [-3.663654, 43.232952], [-3.662813, 43.233226], [-3.661964, 43.23343], [-3.661108, 43.233565], [-3.660245, 43.23363], [-3.659578, 43.233636], [-3.659109, 43.233584], [-3.658837, 43.233473], [-3.658761, 43.233303], [-3.658631, 43.23316], [-3.658445, 43.233044], [-3.658204, 43.232955], [-3.657908, 43.232892], [-3.657547, 43.232889], [-3.657121, 43.232947], [-3.656631, 43.233064], [-3.656075, 43.233242], [-3.65557, 43.233451], [-3.655117, 43.233692], [-3.654716, 43.233964], [-3.654365, 43.234268], [-3.6541, 43.234497], [-3.65392, 43.234649], [-3.653825, 43.234725], [-3.653815, 43.234725], [-3.653795, 43.234754], [-3.653767, 43.234811], [-3.65373, 43.234896], [-3.653683, 43.235009], [-3.653589, 43.235086], [-3.653448, 43.235126], [-3.653259, 43.23513], [-3.653023, 43.235098], [-3.652808, 43.235063], [-3.652614, 43.235025], [-3.652442, 43.234984], [-3.652291, 43.23494], [-3.652139, 43.234893], [-3.651987, 43.234843], [-3.651834, 43.234789], [-3.65168, 43.234733], [-3.651534, 43.234676], [-3.651398, 43.234617], [-3.651269, 43.234557], [-3.651149, 43.234496], [-3.651057, 43.234439], [-3.650991, 43.234383], [-3.650952, 43.234331], [-3.650941, 43.234282], [-3.650808, 43.234171], [-3.650554, 43.233998], [-3.650179, 43.233763], [-3.649683, 43.233467], [-3.649304, 43.233202], [-3.649043, 43.232968], [-3.6489, 43.232766], [-3.648875, 43.232595], [-3.648839, 43.232462], [-3.648792, 43.232367], [-3.648735, 43.23231], [-3.648668, 43.232292], [-3.648623, 43.232248], [-3.648602, 43.232179], [-3.648603, 43.232085], [-3.648628, 43.231966], [-3.648652, 43.231875], [-3.648675, 43.23181], [-3.648696, 43.231773], [-3.648718, 43.231763], [-3.648803, 43.231722], [-3.648953, 43.231651], [-3.649168, 43.231548], [-3.649447, 43.231415], [-3.649661, 43.231295], [-3.649808, 43.231189], [-3.649891, 43.231096], [-3.649907, 43.231017], [-3.649918, 43.230944], [-3.649922, 43.230877], [-3.649921, 43.230816], [-3.649913, 43.230762], [-3.650063, 43.230626], [-3.65037, 43.23041], [-3.650835, 43.230113], [-3.651456, 43.229735], [-3.651897, 43.229378], [-3.652155, 43.229041], [-3.652232, 43.228726], [-3.652128, 43.228432], [-3.651927, 43.228138], [-3.651629, 43.227845], [-3.651234, 43.227551], [-3.650743, 43.227258], [-3.65031, 43.227021], [-3.649933, 43.226841], [-3.649614, 43.226717], [-3.649352, 43.226649], [-3.648867, 43.226644], [-3.64816, 43.226701], [-3.64723, 43.22682], [-3.646077, 43.227001], [-3.645315, 43.227046], [-3.644942, 43.226955], [-3.644958, 43.226728], [-3.645365, 43.226365], [-3.645799, 43.225857], [-3.64626, 43.225204], [-3.646749, 43.224406], [-3.647265, 43.223464], [-3.647347, 43.22299], [-3.646995, 43.222986], [-3.646208, 43.223452], [-3.644987, 43.224387], [-3.643969, 43.225063], [-3.643153, 43.225481], [-3.64254, 43.225641], [-3.64213, 43.225542], [-3.641705, 43.225529], [-3.641265, 43.225601], [-3.64081, 43.225758], [-3.64034, 43.226002], [-3.639882, 43.226256], [-3.639435, 43.226522], [-3.638999, 43.226799], [-3.638575, 43.227087], [-3.638092, 43.227428], [-3.637552, 43.227821], [-3.636954, 43.228268], [-3.636299, 43.228767], [-3.635686, 43.22919], [-3.635117, 43.229536], [-3.634592, 43.229806], [-3.63411, 43.229999], [-3.633634, 43.230217], [-3.633164, 43.23046], [-3.6327, 43.230728], [-3.632242, 43.231021], [-3.631758, 43.231394], [-3.63125, 43.231848], [-3.630716, 43.232382], [-3.630158, 43.232996], [-3.629654, 43.233546], [-3.629206, 43.23403], [-3.628812, 43.234449], [-3.628474, 43.234802], [-3.627975, 43.235036], [-3.627316, 43.235151], [-3.626498, 43.235145], [-3.625519, 43.23502], [-3.624648, 43.235015], [-3.623884, 43.235131], [-3.623227, 43.235367], [-3.622678, 43.235723], [-3.622383, 43.236039], [-3.622343, 43.236314], [-3.622556, 43.236548], [-3.623024, 43.236742], [-3.623379, 43.236945], [-3.623622, 43.237156], [-3.623753, 43.237376], [-3.623772, 43.237605], [-3.623638, 43.237783], [-3.623352, 43.237912], [-3.622913, 43.23799], [-3.622322, 43.238018], [-3.621893, 43.238101], [-3.621627, 43.23824], [-3.621523, 43.238434], [-3.621582, 43.238682], [-3.62163, 43.238888], [-3.621668, 43.23905], [-3.621696, 43.239168], [-3.621713, 43.239243], [-3.621785, 43.239323], [-3.621911, 43.239409], [-3.62209, 43.2395], [-3.622324, 43.239597], [-3.622552, 43.239631], [-3.622773, 43.239601], [-3.622989, 43.239508], [-3.623198, 43.239351], [-3.623584, 43.239196], [-3.624145, 43.239044], [-3.624883, 43.238893], [-3.625798, 43.238745], [-3.626483, 43.238704], [-3.626938, 43.238771], [-3.627164, 43.238946], [-3.62716, 43.239229], [-3.62751, 43.239297], [-3.628214, 43.239151], [-3.629272, 43.238791], [-3.630684, 43.238216], [-3.631803, 43.237706], [-3.63263, 43.23726], [-3.633164, 43.23688], [-3.633407, 43.236565], [-3.633607, 43.236224], [-3.633767, 43.235855], [-3.633885, 43.235461], [-3.633961, 43.23504], [-3.634047, 43.234656], [-3.634141, 43.234309], [-3.634244, 43.234], [-3.634356, 43.233728], [-3.634533, 43.233435], [-3.634775, 43.23312], [-3.635082, 43.232783], [-3.635455, 43.232425], [-3.635818, 43.232138], [-3.636172, 43.231924], [-3.636516, 43.231781], [-3.636851, 43.23171], [-3.637231, 43.231569], [-3.637656, 43.231358], [-3.638126, 43.231076], [-3.638641, 43.230725], [-3.639242, 43.230515], [-3.639929, 43.230448], [-3.640703, 43.230524], [-3.641563, 43.230742], [-3.642259, 43.230975], [-3.642793, 43.231225], [-3.643163, 43.231489], [-3.643369, 43.23177], [-3.643688, 43.231964], [-3.644118, 43.232073], [-3.644659, 43.232097], [-3.645313, 43.232034], [-3.645832, 43.232074], [-3.646216, 43.232214], [-3.646467, 43.232457], [-3.646583, 43.232801], [-3.646685, 43.233121], [-3.646772, 43.233417], [-3.646845, 43.23369], [-3.646904, 43.233939], [-3.646814, 43.234188], [-3.646574, 43.234439], [-3.646185, 43.23469], [-3.645647, 43.234943], [-3.645275, 43.235192], [-3.645069, 43.235438], [-3.645029, 43.235681], [-3.645156, 43.23592], [-3.645354, 43.236086], [-3.645621, 43.236179], [-3.64596, 43.236197], [-3.646369, 43.236142], [-3.64677, 43.236127], [-3.647162, 43.236151], [-3.647546, 43.236215], [-3.647922, 43.236318], [-3.648301, 43.236434], [-3.648683, 43.236562], [-3.649068, 43.236703], [-3.649456, 43.236856], [-3.649893, 43.236958], [-3.650379, 43.237008], [-3.650915, 43.237006], [-3.6515, 43.236953], [-3.652101, 43.236891], [-3.652717, 43.236821], [-3.653349, 43.236742], [-3.653997, 43.236655], [-3.654578, 43.236513], [-3.655094, 43.236315], [-3.655544, 43.236061], [-3.655929, 43.235753], [-3.656305, 43.235561], [-3.656674, 43.235485], [-3.657036, 43.235526], [-3.657389, 43.235684], [-3.657785, 43.235798], [-3.658224, 43.235867], [-3.658704, 43.235892], [-3.659227, 43.235873], [-3.659763, 43.23591], [-3.660312, 43.236003], [-3.660875, 43.236151], [-3.661451, 43.236356], [-3.661965, 43.236563], [-3.662419, 43.236771], [-3.662812, 43.236982], [-3.663143, 43.237194], [-3.663471, 43.237316], [-3.663795, 43.23735], [-3.664116, 43.237294], [-3.664433, 43.237148], [-3.664776, 43.237038], [-3.665145, 43.236962], [-3.66554, 43.236922], [-3.665961, 43.236916], [-3.666498, 43.23703], [-3.66715, 43.237263], [-3.667919, 43.237615], [-3.668804, 43.238086], [-3.669624, 43.238432], [-3.670379, 43.238651], [-3.671069, 43.238744], [-3.671694, 43.238711], [-3.672157, 43.23877], [-3.672456, 43.238923], [-3.672593, 43.239167], [-3.672568, 43.239505], [-3.67244, 43.239747], [-3.672211, 43.239893], [-3.67188, 43.239944], [-3.671448, 43.2399], [-3.671108, 43.239875], [-3.67086, 43.23987], [-3.670706, 43.239884], [-3.670643, 43.239918], [-3.670653, 43.240071], [-3.670735, 43.240343], [-3.670888, 43.240733], [-3.671114, 43.241242], [-3.671338, 43.241667], [-3.671559, 43.24201], [-3.671779, 43.242269], [-3.671996, 43.242445], [-3.672306, 43.242564], [-3.672707, 43.242625], [-3.6732, 43.242629], [-3.673786, 43.242576], [-3.674245, 43.242662], [-3.67458, 43.242886], [-3.674789, 43.24325], [-3.674872, 43.243752], [-3.674777, 43.244279], [-3.674503, 43.244829], [-3.674049, 43.245404], [-3.673417, 43.246003], [-3.672971, 43.246532], [-3.67271, 43.246991], [-3.672635, 43.24738], [-3.672745, 43.247699], [-3.672671, 43.247979], [-3.672411, 43.248219], [-3.671966, 43.24842], [-3.671336, 43.248582], [-3.670748, 43.248623], [-3.670201, 43.248543], [-3.669696, 43.248341], [-3.669233, 43.248019], [-3.668764, 43.247742], [-3.668287, 43.247511], [-3.667804, 43.247326], [-3.667313, 43.247186], [-3.666926, 43.246924], [-3.666642, 43.246539], [-3.66646, 43.24603], [-3.666381, 43.245399], [-3.666141, 43.244828], [-3.665739, 43.244317], [-3.665175, 43.243866], [-3.66445, 43.243476], [-3.663797, 43.243205], [-3.663216, 43.243052], [-3.662707, 43.243018], [-3.66227, 43.243103], [-3.661727, 43.243112], [-3.661078, 43.243045], [-3.660324, 43.242903], [-3.659463, 43.242685], [-3.658633, 43.242669], [-3.657833, 43.242854], [-3.657062, 43.24324], [-3.656322, 43.243828], [-3.655734, 43.244279], [-3.655298, 43.244595], [-3.655015, 43.244774], [-3.654885, 43.244817], [-3.654815, 43.244968], [-3.654806, 43.245226], [-3.654857, 43.245592], [-3.654968, 43.246065], [-3.655119, 43.246442], [-3.655309, 43.246725], [-3.655538, 43.246912], [-3.655806, 43.247005], [-3.65617, 43.247244], [-3.656631, 43.247632], [-3.657188, 43.248167], [-3.657841, 43.248849], [-3.658422, 43.249374], [-3.658931, 43.249742], [-3.659368, 43.249953], [-3.659732, 43.250006], [-3.660074, 43.250114], [-3.660394, 43.250277], [-3.660691, 43.250494], [-3.660966, 43.250765], [-3.661273, 43.250871], [-3.661611, 43.250813], [-3.66198, 43.250589], [-3.662381, 43.250201], [-3.66265, 43.250075], [-3.662787, 43.250211], [-3.662793, 43.250608], [-3.662668, 43.251267], [-3.662499, 43.251784], [-3.662289, 43.252159], [-3.662036, 43.252392], [-3.661741, 43.252483], [-3.661339, 43.25264], [-3.660829, 43.252863], [-3.660211, 43.253152], [-3.659486, 43.253507], [-3.658718, 43.253719], [-3.657908, 43.25379], [-3.657056, 43.253719], [-3.656162, 43.253505], [-3.655484, 43.253316], [-3.655023, 43.253151], [-3.654778, 43.253009], [-3.654751, 43.252892], [-3.654768, 43.252775], [-3.654831, 43.252659], [-3.654939, 43.252544], [-3.655092, 43.252429], [-3.655154, 43.252309], [-3.655124, 43.252183], [-3.655003, 43.25205], [-3.65479, 43.251912], [-3.654629, 43.251802], [-3.654519, 43.251719], [-3.654461, 43.251663], [-3.654454, 43.251635], [-3.654368, 43.251567], [-3.654201, 43.251459], [-3.653956, 43.251312], [-3.65363, 43.251124], [-3.653319, 43.250999], [-3.653023, 43.250937], [-3.652742, 43.250936], [-3.652475, 43.250998], [-3.652058, 43.250983], [-3.651492, 43.250893], [-3.650775, 43.250726], [-3.649909, 43.250483], [-3.649024, 43.250384], [-3.64812, 43.250429], [-3.647197, 43.250617], [-3.646256, 43.250949], [-3.64551, 43.251255], [-3.644961, 43.251535], [-3.644607, 43.251788], [-3.64445, 43.252015], [-3.644163, 43.252252], [-3.643747, 43.252501], [-3.643201, 43.25276], [-3.642526, 43.253031], [-3.641744, 43.253368], [-3.640854, 43.25377], [-3.639857, 43.254238], [-3.638752, 43.254772], [-3.637689, 43.255114], [-3.636669, 43.255264], [-3.635692, 43.255222], [-3.634758, 43.254988], [-3.633889, 43.254958], [-3.633085, 43.25513], [-3.632347, 43.255505], [-3.631675, 43.256084], [-3.631052, 43.256424], [-3.630478, 43.256527], [-3.629954, 43.256392], [-3.629479, 43.25602], [-3.62915, 43.255666], [-3.628965, 43.255331], [-3.628926, 43.255016], [-3.629032, 43.254719], [-3.629054, 43.254478], [-3.628993, 43.254294], [-3.628849, 43.254166], [-3.628621, 43.254094], [-3.6283, 43.254002], [-3.627887, 43.253891], [-3.627382, 43.25376], [-3.626783, 43.253609], [-3.626217, 43.25348], [-3.625681, 43.253372], [-3.625177, 43.253286], [-3.624705, 43.253221], [-3.624167, 43.253139], [-3.623563, 43.25304], [-3.622894, 43.252925], [-3.62216, 43.252793], [-3.621623, 43.25264], [-3.621283, 43.252467], [-3.621141, 43.252275], [-3.621197, 43.252062], [-3.62133, 43.251845], [-3.621542, 43.251624], [-3.621832, 43.251399], [-3.6222, 43.251169], [-3.622647, 43.250942], [-3.623175, 43.250717], [-3.623782, 43.250494], [-3.624468, 43.250274], [-3.624949, 43.250074], [-3.625223, 43.249896], [-3.625292, 43.249739], [-3.625154, 43.249604], [-3.624906, 43.249445], [-3.624546, 43.249262], [-3.624076, 43.249055], [-3.623494, 43.248825], [-3.622961, 43.248653], [-3.622477, 43.248539], [-3.622042, 43.248482], [-3.621655, 43.248482], [-3.621348, 43.248446], [-3.62112, 43.248374], [-3.620971, 43.248266], [-3.620902, 43.248121], [-3.620774, 43.247952], [-3.620588, 43.247759], [-3.620344, 43.247541], [-3.620041, 43.2473], [-3.619763, 43.247241], [-3.619511, 43.247364], [-3.619284, 43.247671], [-3.619083, 43.24816], [-3.61889, 43.248424], [-3.618705, 43.248461], [-3.618529, 43.248273], [-3.618361, 43.247859], [-3.618083, 43.247537], [-3.617695, 43.247307], [-3.617196, 43.247168], [-3.616588, 43.247122], [-3.616059, 43.247077], [-3.615609, 43.247035], [-3.615239, 43.246995], [-3.614949, 43.246957], [-3.614433, 43.24693], [-3.613691, 43.246914], [-3.612722, 43.246909], [-3.611528, 43.246916], [-3.610699, 43.246867], [-3.610235, 43.246762], [-3.610136, 43.246602], [-3.610402, 43.246387], [-3.610641, 43.246168], [-3.610852, 43.245947], [-3.611037, 43.245724], [-3.611195, 43.245497], [-3.611345, 43.245239], [-3.611488, 43.24495], [-3.611624, 43.24463], [-3.611752, 43.244279], [-3.611937, 43.243908], [-3.612179, 43.243516], [-3.612478, 43.243103], [-3.612833, 43.24267], [-3.612967, 43.242344], [-3.612881, 43.242125], [-3.612573, 43.242012], [-3.612044, 43.242006], [-3.611533, 43.241966], [-3.611041, 43.24189], [-3.610567, 43.241781], [-3.610111, 43.241637], [-3.60976, 43.241491], [-3.609515, 43.241344], [-3.609375, 43.241196], [-3.60934, 43.241047], [-3.609371, 43.240844], [-3.609469, 43.240587], [-3.609633, 43.240276], [-3.609864, 43.239911], [-3.610024, 43.239598], [-3.610113, 43.239337], [-3.610131, 43.239127], [-3.610079, 43.238969], [-3.609983, 43.23883], [-3.609842, 43.238709], [-3.609658, 43.238607], [-3.609429, 43.238523], [-3.609278, 43.238419], [-3.609206, 43.238294], [-3.609212, 43.238149], [-3.609296, 43.237984], [-3.609378, 43.237845], [-3.609457, 43.237731], [-3.609533, 43.237644], [-3.609606, 43.237583], [-3.609708, 43.237498], [-3.609838, 43.23739], [-3.609995, 43.237259], [-3.610181, 43.237104], [-3.610385, 43.236935], [-3.610605, 43.236751], [-3.610843, 43.236553], [-3.611098, 43.23634], [-3.61128, 43.23616], [-3.611389, 43.236011], [-3.611424, 43.235894], [-3.611387, 43.235809], [-3.611284, 43.235765], [-3.611116, 43.235762], [-3.610883, 43.2358], [-3.610586, 43.235879], [-3.610345, 43.235949], [-3.610161, 43.236011], [-3.610035, 43.236066], [-3.609967, 43.236112], [-3.609891, 43.236152], [-3.609809, 43.236187], [-3.609721, 43.236217], [-3.609626, 43.236241], [-3.609434, 43.23623], [-3.609145, 43.236185], [-3.608758, 43.236105], [-3.608274, 43.23599], [-3.607935, 43.235856], [-3.60774, 43.235702], [-3.607691, 43.235529], [-3.607786, 43.235337], [-3.607941, 43.235098], [-3.608155, 43.234812], [-3.608429, 43.23448], [-3.608761, 43.234101], [-3.609113, 43.233727], [-3.609483, 43.233356], [-3.609871, 43.232989], [-3.610278, 43.232627], [-3.610689, 43.232282], [-3.611105, 43.231957], [-3.611525, 43.23165], [-3.611949, 43.231362], [-3.612227, 43.231079], [-3.612359, 43.230802], [-3.612344, 43.23053], [-3.612183, 43.230264], [-3.612061, 43.230005], [-3.611978, 43.229755], [-3.611934, 43.229512], [-3.611929, 43.229278], [-3.61198, 43.229053], [-3.612086, 43.228838], [-3.612248, 43.228632], [-3.612465, 43.228436], [-3.612668, 43.228287], [-3.612855, 43.228184], [-3.613026, 43.228129], [-3.613182, 43.228121], [-3.613264, 43.228056], [-3.61327, 43.227933], [-3.613201, 43.227753], [-3.613058, 43.227515], [-3.612928, 43.227331], [-3.612814, 43.227201], [-3.612714, 43.227124], [-3.612628, 43.2271], [-3.612565, 43.227081], [-3.612524, 43.227065], [-3.612505, 43.227054], [-3.612509, 43.227047], [-3.612478, 43.226975], [-3.612414, 43.226839], [-3.612316, 43.226639], [-3.612183, 43.226374], [-3.611974, 43.226159], [-3.611689, 43.225991], [-3.611327, 43.225873], [-3.610889, 43.225804], [-3.610597, 43.225721], [-3.610451, 43.225625], [-3.610452, 43.225516], [-3.610599, 43.225393], [-3.610769, 43.225255], [-3.610961, 43.225101], [-3.611176, 43.224931], [-3.611413, 43.224745], [-3.611649, 43.224582], [-3.611882, 43.224443], [-3.612113, 43.224328], [-3.612342, 43.224236], [-3.612538, 43.224122], [-3.612701, 43.223986], [-3.612832, 43.223828], [-3.612931, 43.223648], [-3.613078, 43.223529], [-3.613275, 43.22347], [-3.613522, 43.223472], [-3.613818, 43.223535], [-3.614086, 43.223609], [-3.614325, 43.223692], [-3.614536, 43.223786], [-3.614718, 43.223889], [-3.61492, 43.224], [-3.615141, 43.224118], [-3.615382, 43.224243], [-3.615641, 43.224375], [-3.615844, 43.224509], [-3.61599, 43.224643], [-3.616079, 43.224779], [-3.616111, 43.224916], [-3.616136, 43.225019], [-3.616153, 43.225088], [-3.616163, 43.225124], [-3.616165, 43.225126], [-3.616199, 43.225155], [-3.616265, 43.22521], [-3.616362, 43.225292], [-3.616491, 43.225401], [-3.616606, 43.225486], [-3.616707, 43.225548], [-3.616794, 43.225587], [-3.616867, 43.225602], [-3.616931, 43.225616], [-3.616986, 43.225628], [-3.617033, 43.225638], [-3.617072, 43.225646], [-3.617146, 43.225659], [-3.617256, 43.225676], [-3.617402, 43.225699], [-3.617584, 43.225725], [-3.617745, 43.225771], [-3.617883, 43.225836], [-3.617999, 43.22592], [-3.618094, 43.226023], [-3.618197, 43.226128], [-3.61831, 43.226234], [-3.618433, 43.226343], [-3.618564, 43.226454], [-3.618674, 43.226567], [-3.618763, 43.226684], [-3.618831, 43.226803], [-3.618877, 43.226925], [-3.618921, 43.227054], [-3.618961, 43.22719], [-3.618999, 43.227333], [-3.619034, 43.227482], [-3.619059, 43.227604], [-3.619072, 43.227698], [-3.619075, 43.227766], [-3.619066, 43.227805], [-3.61902, 43.227815], [-3.618936, 43.227794], [-3.618815, 43.227743], [-3.618655, 43.227661], [-3.618516, 43.227599], [-3.618398, 43.227555], [-3.618301, 43.227529], [-3.618224, 43.227523], [-3.618172, 43.227536], [-3.618142, 43.227571], [-3.618137, 43.227626], [-3.618155, 43.227702], [-3.618187, 43.227839], [-3.618234, 43.228039], [-3.618295, 43.2283], [-3.618371, 43.228624], [-3.618575, 43.228854], [-3.618905, 43.228989], [-3.619363, 43.22903], [-3.619949, 43.228977], [-3.620466, 43.228972], [-3.620915, 43.229014], [-3.621297, 43.229104], [-3.62161, 43.229241], [-3.622007, 43.229376], [-3.622488, 43.229509], [-3.623052, 43.229639], [-3.623699, 43.229767], [-3.624216, 43.229851], [-3.624604, 43.22989], [-3.624862, 43.229886], [-3.624989, 43.229838], [-3.625086, 43.229802], [-3.625152, 43.229777], [-3.625186, 43.229764], [-3.62519, 43.229763], [-3.625203, 43.229751], [-3.625226, 43.229728], [-3.625259, 43.229694], [-3.625301, 43.22965], [-3.625341, 43.229558], [-3.625378, 43.229418], [-3.625413, 43.229231], [-3.625446, 43.228995], [-3.625502, 43.228766], [-3.625581, 43.228544], [-3.625684, 43.228327], [-3.62581, 43.228118], [-3.625862, 43.227928], [-3.62584, 43.227758], [-3.625743, 43.227607], [-3.625571, 43.227476], [-3.625433, 43.227374], [-3.625327, 43.227301], [-3.625255, 43.227258], [-3.625215, 43.227243], [-3.625168, 43.227181], [-3.625114, 43.227071], [-3.625052, 43.226914], [-3.624983, 43.226708], [-3.624883, 43.226465], [-3.624754, 43.226182], [-3.624594, 43.225861], [-3.624404, 43.225502], [-3.624229, 43.225133], [-3.62407, 43.224757], [-3.623927, 43.224372], [-3.623799, 43.223978], [-3.62368, 43.223647], [-3.62357, 43.22338], [-3.623468, 43.223176], [-3.623375, 43.223035], [-3.623297, 43.222922], [-3.623235, 43.222836], [-3.623189, 43.222776], [-3.623158, 43.222745], [-3.623087, 43.222669], [-3.622977, 43.22255], [-3.622828, 43.222388], [-3.622639, 43.222182], [-3.622448, 43.22197], [-3.622256, 43.221752], [-3.622063, 43.221528], [-3.621868, 43.221297], [-3.621672, 43.22108], [-3.621475, 43.220875], [-3.621276, 43.220684], [-3.621076, 43.220505], [-3.620887, 43.220338], [-3.62071, 43.220182], [-3.620544, 43.220037], [-3.620389, 43.219904], [-3.620335, 43.219783], [-3.620379, 43.219674], [-3.620524, 43.219578], [-3.620767, 43.219494], [-3.62103, 43.219414], [-3.621311, 43.219337], [-3.62161, 43.219265], [-3.621928, 43.219196], [-3.622264, 43.219132], [-3.622619, 43.219071], [-3.622992, 43.219015], [-3.623384, 43.218962], [-3.623718, 43.218943], [-3.623993, 43.218957], [-3.624211, 43.219005], [-3.624371, 43.219086], [-3.624499, 43.219184], [-3.624597, 43.2193], [-3.624663, 43.219432], [-3.624698, 43.219581], [-3.624767, 43.219707], [-3.62487, 43.219809], [-3.625007, 43.219886], [-3.625178, 43.21994], [-3.625292, 43.219996], [-3.625349, 43.220052], [-3.62535, 43.22011], [-3.625293, 43.220169], [-3.625213, 43.220229], [-3.625107, 43.22029], [-3.624977, 43.220353], [-3.624823, 43.220417], [-3.624665, 43.220539], [-3.624503, 43.22072], [-3.624338, 43.220959], [-3.624168, 43.221256], [-3.624121, 43.221559], [-3.624197, 43.221866], [-3.624395, 43.222177], [-3.624716, 43.222494], [-3.625051, 43.222763], [-3.625402, 43.222985], [-3.625769, 43.223161], [-3.626151, 43.223289], [-3.626609, 43.223446], [-3.627145, 43.223631], [-3.627757, 43.223843], [-3.628447, 43.224085], [-3.629198, 43.224253], [-3.630012, 43.224349], [-3.630887, 43.224372], [-3.631825, 43.224323], [-3.632663, 43.224223], [-3.6334, 43.224073], [-3.634038, 43.223871], [-3.634577, 43.223619], [-3.635087, 43.223396], [-3.635568, 43.223203], [-3.636022, 43.223039], [-3.636447, 43.222905], [-3.636857, 43.222779], [-3.637251, 43.222662], [-3.63763, 43.222553], [-3.637993, 43.222453], [-3.638366, 43.222341], [-3.638749, 43.222218], [-3.639141, 43.222084], [-3.639544, 43.221939], [-3.639923, 43.221833], [-3.640279, 43.221768], [-3.640611, 43.221742], [-3.64092, 43.221756], [-3.641176, 43.221702], [-3.641377, 43.221578], [-3.641525, 43.221386], [-3.641619, 43.221124], [-3.64172, 43.220893], [-3.641829, 43.22069], [-3.641944, 43.220517], [-3.642067, 43.220374], [-3.642245, 43.220184], [-3.642478, 43.219948], [-3.642767, 43.219665], [-3.643112, 43.219336], [-3.643438, 43.219042], [-3.643746, 43.218782], [-3.644035, 43.218557], [-3.644307, 43.218366], [-3.64456, 43.218184], [-3.644795, 43.218011], [-3.645013, 43.217846], [-3.645212, 43.21769], [-3.645317, 43.217577], [-3.645329, 43.217506], [-3.645248, 43.217478], [-3.645072, 43.217493], [-3.644916, 43.217495], [-3.64478, 43.217483], [-3.644664, 43.217458], [-3.644567, 43.21742], [-3.644473, 43.217375], [-3.644381, 43.217323], [-3.644293, 43.217264], [-3.644207, 43.217199], [-3.644103, 43.217129], [-3.64398, 43.217056], [-3.643839, 43.216979], [-3.643679, 43.216897], [-3.643515, 43.216809], [-3.643347, 43.216714], [-3.643174, 43.216612], [-3.642997, 43.216503], [-3.642857, 43.216417], [-3.642754, 43.216354], [-3.642688, 43.216313], [-3.64266, 43.216296], [-3.642597, 43.216273], [-3.642499, 43.216243], [-3.642366, 43.216208], [-3.642198, 43.216166], [-3.642049, 43.216155], [-3.641919, 43.216175], [-3.641809, 43.216226], [-3.641718, 43.216307], [-3.641647, 43.21637], [-3.641596, 43.216416], [-3.641566, 43.216443], [-3.641555, 43.216452], [-3.641514, 43.216467], [-3.641442, 43.216487], [-3.641339, 43.216513], [-3.641206, 43.216544], [-3.641067, 43.21653], [-3.640921, 43.216473], [-3.64077, 43.216371], [-3.640613, 43.216225], [-3.640507, 43.2161], [-3.640454, 43.215996], [-3.640454, 43.215912], [-3.640505, 43.215848], [-3.640538, 43.215795], [-3.640552, 43.215753], [-3.640548, 43.215722], [-3.640525, 43.215701], [-3.640527, 43.215619], [-3.640555, 43.215475], [-3.640607, 43.21527], [-3.640685, 43.215002], [-3.640841, 43.214808], [-3.641076, 43.214686], [-3.64139, 43.214638], [-3.641782, 43.214662], [-3.642123, 43.214731], [-3.642414, 43.214846], [-3.642654, 43.215007], [-3.642843, 43.215212], [-3.643078, 43.215315], [-3.64336, 43.215316], [-3.643687, 43.215214], [-3.644061, 43.21501], [-3.644363, 43.214802], [-3.644595, 43.214591], [-3.644755, 43.214377], [-3.644844, 43.214159], [-3.644951, 43.214017], [-3.645076, 43.213948], [-3.645218, 43.213955], [-3.645378, 43.214036], [-3.645597, 43.214071], [-3.645875, 43.214059], [-3.646213, 43.214001], [-3.64661, 43.213896], [-3.647031, 43.21382], [-3.647477, 43.213772], [-3.647947, 43.213754], [-3.648442, 43.213764], [-3.648828, 43.213725], [-3.649106, 43.213636], [-3.649275, 43.213498], [-3.649336, 43.21331], [-3.649604, 43.213139], [-3.650077, 43.212985], [-3.650757, 43.212849], [-3.651642, 43.212729], [-3.652466, 43.212535], [-3.653229, 43.212265], [-3.65393, 43.21192], [-3.654569, 43.2115], [-3.65519, 43.211044], [-3.655795, 43.210552], [-3.656382, 43.210023], [-3.656952, 43.209458], [-3.657411, 43.209045], [-3.657759, 43.208782], [-3.657996, 43.208671], [-3.658122, 43.208711], [-3.65823, 43.20871], [-3.658319, 43.208667], [-3.658389, 43.208583], [-3.65844, 43.208459], [-3.658508, 43.208342], [-3.658593, 43.208233], [-3.658695, 43.208132], [-3.658813, 43.208039], [-3.658918, 43.20796], [-3.659008, 43.207897], [-3.659085, 43.207848], [-3.659147, 43.207814], [-3.659192, 43.207763], [-3.65922, 43.207695], [-3.659231, 43.20761], [-3.659224, 43.207508], [-3.659235, 43.207421], [-3.659262, 43.207349], [-3.659305, 43.207292], [-3.659366, 43.207249], [-3.659409, 43.207216], [-3.659436, 43.207191], [-3.659447, 43.207176], [-3.659441, 43.207169], [-3.659483, 43.2071], [-3.659573, 43.206969], [-3.65971, 43.206775], [-3.659896, 43.206519], [-3.660098, 43.206222], [-3.660317, 43.205884], [-3.660553, 43.205505], [-3.660806, 43.205086], [-3.661053, 43.204719], [-3.661295, 43.204404], [-3.661532, 43.204141], [-3.661763, 43.20393], [-3.662012, 43.203716], [-3.662277, 43.203501], [-3.662559, 43.203283], [-3.662859, 43.203063], [-3.663193, 43.202953], [-3.663563, 43.202955], [-3.663967, 43.203067], [-3.664406, 43.20329], [-3.664814, 43.203492], [-3.66519, 43.203672], [-3.665535, 43.203831], [-3.665849, 43.203969], [-3.666223, 43.204066], [-3.666658, 43.204123], [-3.667154, 43.204139], [-3.667711, 43.204116], [-3.668134, 43.204091], [-3.668424, 43.204065], [-3.668581, 43.204039], [-3.668604, 43.204011], [-3.668656, 43.203996], [-3.668737, 43.203993], [-3.668846, 43.204002], [-3.668984, 43.204024], [-3.669094, 43.204014], [-3.669177, 43.203972], [-3.669232, 43.203897], [-3.66926, 43.203791], [-3.669278, 43.203686], [-3.669286, 43.203583], [-3.669285, 43.203483], [-3.669274, 43.203383], [-3.669276, 43.203297], [-3.669292, 43.203222], [-3.66932, 43.20316], [-3.669362, 43.203111], [-3.669422, 43.202974], [-3.669501, 43.202748], [-3.669599, 43.202435], [-3.669715, 43.202034], [-3.669771, 43.201703], [-3.669768, 43.201441], [-3.669704, 43.20125], [-3.66958, 43.201127], [-3.669472, 43.201035], [-3.66938, 43.200972], [-3.669305, 43.200938], [-3.669245, 43.200934], [-3.669143, 43.20091], [-3.668997, 43.200866], [-3.668809, 43.200802], [-3.668579, 43.200717], [-3.6684, 43.200629], [-3.668273, 43.200537], [-3.668197, 43.200442], [-3.668174, 43.200342], [-3.668154, 43.200219], [-3.668137, 43.200074], [-3.668124, 43.199906], [-3.668114, 43.199714], [-3.66811, 43.199493], [-3.668112, 43.199243], [-3.668121, 43.198962], [-3.668135, 43.198652], [-3.668181, 43.198422], [-3.668258, 43.198273], [-3.668366, 43.198204], [-3.668504, 43.198215], [-3.668639, 43.198204], [-3.66877, 43.198172], [-3.668897, 43.198118], [-3.66902, 43.198043], [-3.669073, 43.197934], [-3.669057, 43.197791], [-3.668971, 43.197615], [-3.668816, 43.197405], [-3.668633, 43.197185], [-3.668421, 43.196957], [-3.66818, 43.19672], [-3.667912, 43.196474], [-3.667619, 43.196237], [-3.667302, 43.19601], [-3.66696, 43.195793], [-3.666595, 43.195586], [-3.666295, 43.195356], [-3.66606, 43.195106], [-3.665891, 43.194833], [-3.665786, 43.194539], [-3.665726, 43.194283], [-3.665709, 43.194066], [-3.665737, 43.193886], [-3.665809, 43.193745], [-3.665804, 43.193591], [-3.665723, 43.193423], [-3.665565, 43.193243], [-3.665331, 43.19305], [-3.665144, 43.192855], [-3.665004, 43.192659], [-3.66491, 43.192462], [-3.664863, 43.192262], [-3.664825, 43.192065], [-3.664797, 43.19187], [-3.664778, 43.191677], [-3.664768, 43.191486], [-3.6647, 43.191331], [-3.664576, 43.191213], [-3.664394, 43.191132], [-3.664155, 43.191087], [-3.663917, 43.19099], [-3.663681, 43.190843], [-3.663445, 43.190643], [-3.66321, 43.190393], [-3.663005, 43.190157], [-3.66283, 43.189937], [-3.662685, 43.189731], [-3.66257, 43.189541], [-3.662489, 43.189366], [-3.662443, 43.189206], [-3.66243, 43.18906], [-3.662452, 43.188928], [-3.662434, 43.188796], [-3.662376, 43.188662], [-3.662279, 43.188528], [-3.662141, 43.188392], [-3.662076, 43.188263], [-3.662082, 43.18814], [-3.66216, 43.188024], [-3.662309, 43.187914], [-3.662441, 43.1878], [-3.662553, 43.187682], [-3.662648, 43.18756], [-3.662723, 43.187434], [-3.662814, 43.187258], [-3.662918, 43.187032], [-3.663038, 43.186756], [-3.663172, 43.18643], [-3.663347, 43.186111], [-3.663563, 43.185799], [-3.663821, 43.185495], [-3.66412, 43.185197], [-3.664348, 43.184919], [-3.664507, 43.18466], [-3.664595, 43.184421], [-3.664613, 43.1842], [-3.664632, 43.18396], [-3.66465, 43.183701], [-3.664667, 43.183422], [-3.664685, 43.183124], [-3.66476, 43.182864], [-3.664892, 43.182641], [-3.66508, 43.182455], [-3.665326, 43.182306], [-3.665559, 43.182136], [-3.665777, 43.181946], [-3.665982, 43.181736], [-3.666174, 43.181504], [-3.666237, 43.181345], [-3.666173, 43.181257], [-3.66598, 43.181242], [-3.66566, 43.181298], [-3.665402, 43.181284], [-3.665207, 43.181202], [-3.665074, 43.181049], [-3.665004, 43.180828], [-3.664862, 43.180561], [-3.664649, 43.18025], [-3.664363, 43.179893], [-3.664005, 43.179492], [-3.663744, 43.179152], [-3.663582, 43.178872], [-3.663517, 43.178653], [-3.66355, 43.178494], [-3.66354, 43.17838], [-3.663489, 43.17831], [-3.663395, 43.178284], [-3.663259, 43.178302], [-3.663098, 43.178331], [-3.662914, 43.178368], [-3.662706, 43.178416], [-3.662473, 43.178473], [-3.662238, 43.178482], [-3.662001, 43.178443], [-3.661761, 43.178357], [-3.661519, 43.178223], [-3.661398, 43.178085], [-3.6614, 43.177943], [-3.661524, 43.177798], [-3.66177, 43.177649], [-3.661909, 43.177493], [-3.66194, 43.177328], [-3.661864, 43.177155], [-3.661681, 43.176974], [-3.661528, 43.17679], [-3.661404, 43.176601], [-3.661311, 43.176408], [-3.661247, 43.176211], [-3.661272, 43.176041], [-3.661388, 43.175897], [-3.661593, 43.175779], [-3.661888, 43.175688], [-3.662166, 43.175657], [-3.662427, 43.175686], [-3.662672, 43.175775], [-3.6629, 43.175924], [-3.663174, 43.176022], [-3.663492, 43.176069], [-3.663855, 43.176065], [-3.664264, 43.176009], [-3.664696, 43.175996], [-3.66515, 43.176025], [-3.665628, 43.176095], [-3.666128, 43.176207], [-3.666536, 43.176335], [-3.666851, 43.176479], [-3.667073, 43.176638], [-3.667202, 43.176813], [-3.667316, 43.177016], [-3.667414, 43.177247], [-3.667497, 43.177505], [-3.667564, 43.177792], [-3.667661, 43.178032], [-3.667786, 43.178227], [-3.667939, 43.178377], [-3.668122, 43.17848], [-3.668268, 43.178596], [-3.668377, 43.178722], [-3.668449, 43.17886], [-3.668484, 43.179009], [-3.668525, 43.179148], [-3.668573, 43.179277], [-3.668627, 43.179395], [-3.668688, 43.179502], [-3.668805, 43.179608], [-3.668979, 43.179713], [-3.66921, 43.179817], [-3.669497, 43.179919], [-3.669764, 43.180024], [-3.670009, 43.180133], [-3.670233, 43.180244], [-3.670435, 43.180357], [-3.670599, 43.180419], [-3.670724, 43.180428], [-3.67081, 43.180384], [-3.670858, 43.180288], [-3.670939, 43.180209], [-3.671055, 43.180148], [-3.671206, 43.180106], [-3.67139, 43.180081], [-3.671576, 43.180056], [-3.671763, 43.18003], [-3.671952, 43.180005], [-3.672142, 43.179979], [-3.672338, 43.179946], [-3.672541, 43.179906], [-3.67275, 43.179859], [-3.672966, 43.179804], [-3.673153, 43.179743], [-3.673313, 43.179677], [-3.673445, 43.179604], [-3.67355, 43.179526], [-3.673565, 43.179462], [-3.673489, 43.179414], [-3.673324, 43.17938], [-3.67307, 43.179361], [-3.672804, 43.179342], [-3.672527, 43.179322], [-3.672239, 43.1793], [-3.671939, 43.179278], [-3.671697, 43.179242], [-3.671511, 43.179191], [-3.671383, 43.179125], [-3.671311, 43.179045], [-3.671202, 43.178992], [-3.671056, 43.178967], [-3.670872, 43.178969], [-3.670651, 43.178999], [-3.670436, 43.178983], [-3.670228, 43.178922], [-3.670027, 43.178814], [-3.669833, 43.17866], [-3.669668, 43.178464], [-3.669533, 43.178226], [-3.669427, 43.177945], [-3.669351, 43.177621], [-3.669329, 43.177322], [-3.669361, 43.177048], [-3.669447, 43.176799], [-3.669587, 43.176575], [-3.66969, 43.176342], [-3.669757, 43.176102], [-3.669786, 43.175854], [-3.669779, 43.175599], [-3.669732, 43.175364], [-3.669647, 43.175151], [-3.669522, 43.174959], [-3.669359, 43.174788], [-3.669135, 43.174658], [-3.668851, 43.174568], [-3.668505, 43.174519], [-3.668099, 43.174509], [-3.667752, 43.174473], [-3.667465, 43.174409], [-3.667237, 43.174317], [-3.667069, 43.174199], [-3.666929, 43.174051], [-3.666816, 43.173873], [-3.666733, 43.173666], [-3.666677, 43.17343], [-3.666738, 43.173223], [-3.666915, 43.173045], [-3.66721, 43.172896], [-3.66762, 43.172776], [-3.667997, 43.172699], [-3.668341, 43.172666], [-3.66865, 43.172675], [-3.668926, 43.172728], [-3.669264, 43.172766], [-3.669665, 43.172789], [-3.670128, 43.172797], [-3.670653, 43.17279], [-3.671111, 43.172796], [-3.671502, 43.172814], [-3.671825, 43.172844], [-3.672081, 43.172886], [-3.67232, 43.172896], [-3.672543, 43.172872], [-3.672749, 43.172815], [-3.672939, 43.172725], [-3.673172, 43.172655], [-3.67345, 43.172605], [-3.673772, 43.172574], [-3.674139, 43.172563], [-3.674499, 43.172678], [-3.674855, 43.172919], [-3.675205, 43.173286], [-3.675549, 43.173779], [-3.675837, 43.174141], [-3.676067, 43.174373], [-3.67624, 43.174475], [-3.676357, 43.174447], [-3.676488, 43.174409], [-3.676636, 43.174364], [-3.676798, 43.17431], [-3.676977, 43.174247], [-3.677138, 43.174225], [-3.677282, 43.174245], [-3.677408, 43.174305], [-3.677517, 43.174406], [-3.677608, 43.174442], [-3.67768, 43.174413], [-3.677734, 43.174319], [-3.677769, 43.17416], [-3.677891, 43.174072], [-3.678099, 43.174057], [-3.678394, 43.174113], [-3.678776, 43.174242], [-3.679083, 43.174277], [-3.679315, 43.17422], [-3.679473, 43.17407], [-3.679556, 43.173828], [-3.67963, 43.17358], [-3.679693, 43.173328], [-3.679746, 43.17307], [-3.67979, 43.172807], [-3.679916, 43.172617], [-3.680125, 43.172499], [-3.680418, 43.172453], [-3.680793, 43.172479], [-3.68107, 43.172407], [-3.681249, 43.172235], [-3.68133, 43.171964], [-3.681312, 43.171594], [-3.681367, 43.171361], [-3.681494, 43.171267], [-3.681694, 43.171311], [-3.681965, 43.171493], [-3.682244, 43.171654], [-3.682532, 43.171795], [-3.682828, 43.171915], [-3.683133, 43.172015], [-3.683419, 43.172034], [-3.683685, 43.171973], [-3.683932, 43.17183], [-3.684161, 43.171607], [-3.684351, 43.171411], [-3.684505, 43.171242], [-3.684621, 43.171101], [-3.6847, 43.170988], [-3.684769, 43.170985], [-3.68483, 43.171092], [-3.684881, 43.17131], [-3.684923, 43.171638], [-3.684946, 43.17194], [-3.68495, 43.172216], [-3.684934, 43.172465], [-3.684899, 43.172688], [-3.684844, 43.172904], [-3.684771, 43.173113], [-3.684678, 43.173315], [-3.684566, 43.17351], [-3.684429, 43.173692], [-3.684267, 43.173862], [-3.68408, 43.174019], [-3.683868, 43.174163], [-3.683643, 43.174271], [-3.683405, 43.174341], [-3.683154, 43.174375], [-3.68289, 43.174372], [-3.682653, 43.174353], [-3.682442, 43.174317], [-3.682259, 43.174265], [-3.682102, 43.174196], [-3.681963, 43.174164], [-3.681841, 43.174168], [-3.681736, 43.174207], [-3.681648, 43.174283], [-3.681578, 43.174376], [-3.681525, 43.174486], [-3.681489, 43.174613], [-3.68147, 43.174757], [-3.681471, 43.174892], [-3.681492, 43.175017], [-3.681533, 43.175134], [-3.681593, 43.175241], [-3.681679, 43.175361], [-3.681789, 43.175494], [-3.681925, 43.175639], [-3.682085, 43.175798], [-3.682202, 43.175929], [-3.682277, 43.176035], [-3.682309, 43.176114], [-3.682298, 43.176166], [-3.682348, 43.176185], [-3.682458, 43.17617], [-3.68263, 43.176121], [-3.682862, 43.176039]]]}}]}