{"type": "FeatureCollection", "name": "UNADEQUINTANA", "features": [{"type": "Feature", "properties": {"id": "277940", "FIREDATE": "2025-08-10T12:32:00", "FINALDATE": "2025-08-14T02:51:00", "LASTUPDATE": "2025-08-12 07:45:43.513607", "COUNTRY": "ES", "PROVINCE": "Zamora", "COMMUNE": "Uña de Quintana", "AREA_HA": 40081.0, "BROADLEA": 16.0268, "CONIFER": 3.3625, "MIXED": 0.1796, "SCLEROPH": 19.5315, "TRANSIT": 11.3473, "OTHERNATLC": 6.735, "AGRIAREAS": 42.2734, "ARTIFSURF": 0.4889, "OTHERLC": 0.0549, "PERCNA2K": 20.9814, "CLASS": "FireSeason", "AÑO": 2025, "LATITUD": 42.1862983880949, "LONGITUD": -6.021768554926457}, "geometry": {"type": "Polygon", "coordinates": [[[-6.112868, 42.243497], [-6.112802, 42.243591], [-6.112689, 42.243861], [-6.112527, 42.244306], [-6.112428, 42.244701], [-6.112391, 42.245047], [-6.112365, 42.245296], [-6.112349, 42.245447], [-6.112341, 42.245785], [-6.112342, 42.246309], [-6.112181, 42.246666], [-6.111856, 42.246859], [-6.111477, 42.247093], [-6.111043, 42.247369], [-6.110822, 42.247509], [-6.110814, 42.247514], [-6.110803, 42.247531], [-6.110789, 42.247559], [-6.110681, 42.247768], [-6.110479, 42.248159], [-6.110326, 42.248386], [-6.110221, 42.248448], [-6.110118, 42.248509], [-6.110019, 42.248567], [-6.10995, 42.248608], [-6.109911, 42.248631], [-6.109423, 42.248736], [-6.108484, 42.248923], [-6.107609, 42.249082], [-6.106796, 42.249213], [-6.1061, 42.2493], [-6.10552, 42.249343], [-6.104735, 42.2494], [-6.103744, 42.249472], [-6.102987, 42.249585], [-6.102464, 42.24974], [-6.102207, 42.249825], [-6.102215, 42.249842], [-6.102323, 42.250069], [-6.102533, 42.250506], [-6.102417, 42.250952], [-6.101976, 42.251407], [-6.101574, 42.251664], [-6.101213, 42.251723], [-6.101091, 42.251533], [-6.101208, 42.251095], [-6.101148, 42.250878], [-6.100914, 42.250881], [-6.100291, 42.250842], [-6.099279, 42.250761], [-6.098575, 42.25077], [-6.098178, 42.250869], [-6.097659, 42.250866], [-6.097018, 42.25076], [-6.096288, 42.250659], [-6.095469, 42.250561], [-6.09491, 42.250495], [-6.094608, 42.250459], [-6.093889, 42.250428], [-6.092751, 42.250402], [-6.091221, 42.250405], [-6.089298, 42.250437], [-6.088373, 42.250237], [-6.088444, 42.249807], [-6.087748, 42.249588], [-6.086286, 42.249579], [-6.085419, 42.249811], [-6.085148, 42.250281], [-6.085004, 42.250531], [-6.084987, 42.250561], [-6.084789, 42.250572], [-6.08441, 42.250563], [-6.08401, 42.250568], [-6.083589, 42.250586], [-6.083147, 42.250605], [-6.082683, 42.250625], [-6.082307, 42.250886], [-6.082019, 42.251386], [-6.082029, 42.251856], [-6.082336, 42.252295], [-6.082535, 42.252523], [-6.082624, 42.25254], [-6.083071, 42.252625], [-6.083876, 42.252778], [-6.084581, 42.252927], [-6.085186, 42.253074], [-6.085606, 42.252884], [-6.085839, 42.252357], [-6.086345, 42.252311], [-6.087122, 42.252744], [-6.087484, 42.253122], [-6.08743, 42.253444], [-6.087119, 42.253687], [-6.086551, 42.253848], [-6.086215, 42.254012], [-6.086111, 42.254179], [-6.085882, 42.254548], [-6.085526, 42.255119], [-6.08631, 42.255563], [-6.088234, 42.255881], [-6.08948, 42.255697], [-6.090047, 42.255012], [-6.090383, 42.254573], [-6.090489, 42.254381], [-6.090646, 42.254094], [-6.090856, 42.253711], [-6.091128, 42.253528], [-6.091462, 42.253544], [-6.091637, 42.253778], [-6.091653, 42.25423], [-6.091667, 42.254629], [-6.09168, 42.254975], [-6.091865, 42.255204], [-6.092224, 42.255317], [-6.092482, 42.255397], [-6.092638, 42.255446], [-6.092767, 42.256265], [-6.092869, 42.257855], [-6.092982, 42.259914], [-6.093104, 42.262443], [-6.093193, 42.264208], [-6.093248, 42.265209], [-6.093483, 42.26613], [-6.093897, 42.266971], [-6.094054, 42.267715], [-6.093952, 42.268363], [-6.094122, 42.268781], [-6.094564, 42.26897], [-6.094723, 42.269553], [-6.094598, 42.270528], [-6.094488, 42.271384], [-6.094394, 42.272121], [-6.094313, 42.272756], [-6.094245, 42.273291], [-6.093672, 42.273909], [-6.092596, 42.274609], [-6.091915, 42.275052], [-6.09163, 42.275237], [-6.091354, 42.275516], [-6.091085, 42.275888], [-6.090873, 42.276183], [-6.090715, 42.276401], [-6.090277, 42.276771], [-6.089559, 42.277292], [-6.089365, 42.277729], [-6.089695, 42.278081], [-6.089768, 42.278778], [-6.089583, 42.279822], [-6.089824, 42.280709], [-6.090492, 42.281441], [-6.090864, 42.28209], [-6.09094, 42.282657], [-6.090304, 42.282832], [-6.088955, 42.282615], [-6.088307, 42.282315], [-6.088358, 42.28193], [-6.087957, 42.281821], [-6.087104, 42.281988], [-6.086059, 42.282026], [-6.084823, 42.281937], [-6.084376, 42.281444], [-6.084719, 42.280549], [-6.085299, 42.280238], [-6.086116, 42.280512], [-6.086524, 42.280504], [-6.086524, 42.280214], [-6.087051, 42.279926], [-6.088107, 42.27964], [-6.088709, 42.279123], [-6.088857, 42.278375], [-6.088216, 42.277958], [-6.086785, 42.27787], [-6.086103, 42.27759], [-6.08617, 42.277116], [-6.085712, 42.276944], [-6.084731, 42.277073], [-6.084245, 42.277296], [-6.084253, 42.277613], [-6.083965, 42.277703], [-6.08338, 42.277566], [-6.083028, 42.27742], [-6.082908, 42.277266], [-6.08253, 42.27724], [-6.081893, 42.277343], [-6.081151, 42.277281], [-6.080304, 42.277054], [-6.079629, 42.276873], [-6.079128, 42.276739], [-6.078915, 42.276773], [-6.078991, 42.276976], [-6.079063, 42.277168], [-6.07913, 42.277347], [-6.079317, 42.277499], [-6.079624, 42.277623], [-6.079774, 42.277816], [-6.079767, 42.278077], [-6.080026, 42.27831], [-6.080551, 42.278515], [-6.080585, 42.278712], [-6.080128, 42.278902], [-6.079475, 42.278894], [-6.078625, 42.278688], [-6.078123, 42.278566], [-6.077969, 42.278529], [-6.077886, 42.27891], [-6.077875, 42.279708], [-6.077869, 42.280187], [-6.077866, 42.280346], [-6.077663, 42.280617], [-6.07726, 42.281001], [-6.077029, 42.281191], [-6.076973, 42.281187], [-6.076415, 42.281146], [-6.075355, 42.28107], [-6.075107, 42.281237], [-6.07567, 42.281648], [-6.07606, 42.281933], [-6.076277, 42.282091], [-6.076577, 42.282443], [-6.07696, 42.282989], [-6.077511, 42.283218], [-6.07823, 42.283131], [-6.079357, 42.283109], [-6.080892, 42.28315], [-6.081398, 42.283358], [-6.080875, 42.283732], [-6.081014, 42.283883], [-6.081815, 42.283812], [-6.082257, 42.284073], [-6.082341, 42.284668], [-6.081732, 42.285302], [-6.080429, 42.285975], [-6.079779, 42.286529], [-6.079779, 42.286963], [-6.079357, 42.287495], [-6.078512, 42.288123], [-6.078011, 42.288942], [-6.077856, 42.289952], [-6.078314, 42.290413], [-6.079385, 42.290327], [-6.080418, 42.290103], [-6.081414, 42.289739], [-6.081714, 42.290053], [-6.081319, 42.291043], [-6.080474, 42.291816], [-6.079179, 42.292373], [-6.07843, 42.292928], [-6.078229, 42.293481], [-6.077971, 42.293827], [-6.077657, 42.293965], [-6.077377, 42.294444], [-6.077131, 42.295265], [-6.07657, 42.29579], [-6.075694, 42.296018], [-6.074869, 42.297512], [-6.074094, 42.300272], [-6.073456, 42.301735], [-6.072954, 42.301903], [-6.07246, 42.302099], [-6.071973, 42.302322], [-6.072008, 42.302519], [-6.072562, 42.30269], [-6.073154, 42.30271], [-6.073783, 42.30258], [-6.074285, 42.302412], [-6.074659, 42.302207], [-6.074959, 42.301942], [-6.075183, 42.301616], [-6.076052, 42.301577], [-6.077566, 42.301825], [-6.077975, 42.302323], [-6.07728, 42.303073], [-6.076782, 42.303471], [-6.076483, 42.30352], [-6.075876, 42.303806], [-6.074963, 42.304329], [-6.074001, 42.304673], [-6.072989, 42.304836], [-6.07215, 42.304913], [-6.071483, 42.304905], [-6.071026, 42.304733], [-6.070778, 42.304397], [-6.070396, 42.304574], [-6.06988, 42.305265], [-6.069219, 42.306428], [-6.068413, 42.308064], [-6.067885, 42.308888], [-6.067637, 42.3089], [-6.067432, 42.309078], [-6.067268, 42.309422], [-6.066864, 42.30992], [-6.066221, 42.310574], [-6.065862, 42.311196], [-6.065788, 42.311787], [-6.065051, 42.312456], [-6.063651, 42.313203], [-6.062984, 42.313267], [-6.063051, 42.312649], [-6.062683, 42.312447], [-6.061882, 42.312663], [-6.06144, 42.312691], [-6.061359, 42.312529], [-6.061231, 42.312275], [-6.061057, 42.311927], [-6.06058, 42.311758], [-6.059801, 42.311768], [-6.059468, 42.312488], [-6.059583, 42.313917], [-6.059273, 42.314792], [-6.058539, 42.315113], [-6.057828, 42.315517], [-6.057139, 42.316004], [-6.056755, 42.316318], [-6.056675, 42.316459], [-6.056477, 42.316809], [-6.056161, 42.317369], [-6.056808, 42.317664], [-6.058419, 42.317694], [-6.059139, 42.317896], [-6.058967, 42.318271], [-6.058649, 42.318612], [-6.058185, 42.318919], [-6.058429, 42.319096], [-6.059381, 42.319146], [-6.059213, 42.319535], [-6.057925, 42.320263], [-6.056787, 42.320895], [-6.055798, 42.321431], [-6.054277, 42.321589], [-6.052223, 42.32137], [-6.050964, 42.321414], [-6.050499, 42.32172], [-6.050185, 42.322147], [-6.050021, 42.322694], [-6.049474, 42.323057], [-6.048545, 42.323236], [-6.047811, 42.32334], [-6.047271, 42.323369], [-6.046822, 42.323514], [-6.046462, 42.323774], [-6.045521, 42.323839], [-6.044, 42.323707], [-6.04322, 42.323934], [-6.043184, 42.324519], [-6.043001, 42.324997], [-6.042671, 42.325369], [-6.042496, 42.32573], [-6.042474, 42.326081], [-6.042204, 42.32624], [-6.041687, 42.326207], [-6.041132, 42.326181], [-6.04054, 42.32616], [-6.040184, 42.326362], [-6.040065, 42.326787], [-6.039821, 42.327115], [-6.039454, 42.327348], [-6.038697, 42.327441], [-6.037551, 42.327394], [-6.036868, 42.327475], [-6.036651, 42.327683], [-6.036258, 42.327819], [-6.035688, 42.327882], [-6.035149, 42.328055], [-6.034639, 42.32834], [-6.034156, 42.328432], [-6.033699, 42.328332], [-6.03341, 42.328205], [-6.03329, 42.328051], [-6.032836, 42.328037], [-6.032049, 42.328163], [-6.031701, 42.328465], [-6.031792, 42.328943], [-6.031567, 42.329268], [-6.031028, 42.329442], [-6.030267, 42.329521], [-6.029285, 42.329505], [-6.028764, 42.329386], [-6.028703, 42.329165], [-6.028002, 42.328959], [-6.02666, 42.328769], [-6.025854, 42.328754], [-6.025585, 42.328913], [-6.024989, 42.328951], [-6.024067, 42.328868], [-6.023564, 42.328674], [-6.023482, 42.328369], [-6.023298, 42.328123], [-6.023013, 42.327937], [-6.023091, 42.327433], [-6.023532, 42.326609], [-6.02409, 42.326071], [-6.024765, 42.325818], [-6.026005, 42.325705], [-6.027812, 42.325733], [-6.029292, 42.325857], [-6.030447, 42.326076], [-6.03117, 42.325931], [-6.031462, 42.325421], [-6.032556, 42.325201], [-6.034452, 42.325273], [-6.035461, 42.325603], [-6.035581, 42.326191], [-6.035923, 42.32644], [-6.036485, 42.32635], [-6.036822, 42.325861], [-6.036933, 42.324975], [-6.037319, 42.324594], [-6.037978, 42.32472], [-6.038323, 42.324549], [-6.038352, 42.324081], [-6.038138, 42.32358], [-6.03768, 42.323045], [-6.037548, 42.321909], [-6.03774, 42.32017], [-6.037776, 42.319006], [-6.037656, 42.318418], [-6.037348, 42.318149], [-6.036854, 42.318199], [-6.036239, 42.31853], [-6.035506, 42.31914], [-6.035243, 42.318893], [-6.035452, 42.317788], [-6.036077, 42.317282], [-6.037119, 42.317375], [-6.037819, 42.317147], [-6.038178, 42.316597], [-6.038672, 42.316112], [-6.039301, 42.315692], [-6.040287, 42.315505], [-6.041628, 42.315549], [-6.042411, 42.315481], [-6.042636, 42.3153], [-6.04246, 42.31501], [-6.041882, 42.314611], [-6.041705, 42.314321], [-6.04193, 42.31414], [-6.042353, 42.314115], [-6.042976, 42.314247], [-6.043335, 42.314131], [-6.043432, 42.313768], [-6.04387, 42.313654], [-6.04465, 42.313789], [-6.045054, 42.313478], [-6.045083, 42.312721], [-6.044723, 42.312258], [-6.043973, 42.312089], [-6.043722, 42.311738], [-6.043969, 42.311207], [-6.043297, 42.310678], [-6.041708, 42.310152], [-6.040932, 42.309669], [-6.040969, 42.309229], [-6.041241, 42.308577], [-6.04175, 42.307714], [-6.041742, 42.307469], [-6.041218, 42.307843], [-6.040277, 42.307763], [-6.03892, 42.307228], [-6.037965, 42.307165], [-6.037411, 42.307573], [-6.03701, 42.30768], [-6.036763, 42.307489], [-6.036605, 42.30734], [-6.036537, 42.307235], [-6.035612, 42.307066], [-6.033828, 42.306832], [-6.032831, 42.306761], [-6.032622, 42.306852], [-6.032307, 42.306845], [-6.031887, 42.306739], [-6.03158, 42.306832], [-6.031386, 42.307124], [-6.030566, 42.307632], [-6.02912, 42.308357], [-6.028416, 42.308571], [-6.028453, 42.308276], [-6.028352, 42.308118], [-6.028112, 42.308099], [-6.027951, 42.307937], [-6.027868, 42.307632], [-6.027961, 42.30711], [-6.02823, 42.306372], [-6.028035, 42.306013], [-6.027376, 42.306032], [-6.026964, 42.306243], [-6.026799, 42.306646], [-6.026425, 42.306778], [-6.02584, 42.306641], [-6.025518, 42.306389], [-6.025457, 42.306022], [-6.0244, 42.305729], [-6.022347, 42.305509], [-6.021459, 42.304795], [-6.021736, 42.303588], [-6.021971, 42.302869], [-6.022165, 42.302641], [-6.022277, 42.302076], [-6.022306, 42.301173], [-6.024134, 42.300778], [-6.02776, 42.30089], [-6.029555, 42.301238], [-6.029518, 42.301823], [-6.029728, 42.302093], [-6.030185, 42.302048], [-6.030608, 42.301734], [-6.030997, 42.30115], [-6.030952, 42.300839], [-6.030472, 42.300801], [-6.030356, 42.30066], [-6.030603, 42.300418], [-6.030895, 42.30027], [-6.031232, 42.300215], [-6.031359, 42.300036], [-6.031277, 42.29973], [-6.029916, 42.299399], [-6.027279, 42.299042], [-6.02599, 42.298685], [-6.026049, 42.298328], [-6.025742, 42.297987], [-6.025067, 42.297661], [-6.025809, 42.297513], [-6.027967, 42.297542], [-6.028986, 42.297696], [-6.028866, 42.297976], [-6.029466, 42.298169], [-6.030784, 42.298275], [-6.031575, 42.29809], [-6.031836, 42.297614], [-6.030083, 42.297129], [-6.026314, 42.296635], [-6.024512, 42.296187], [-6.024676, 42.295784], [-6.026665, 42.295768], [-6.030479, 42.296139], [-6.032112, 42.29618], [-6.031565, 42.295892], [-6.02962, 42.295351], [-6.026278, 42.294557], [-6.024248, 42.294348], [-6.023529, 42.294724], [-6.022795, 42.294972], [-6.022046, 42.295093], [-6.021211, 42.295329], [-6.020289, 42.295679], [-6.019181, 42.295771], [-6.017884, 42.295603], [-6.016584, 42.295421], [-6.015281, 42.295225], [-6.014681, 42.29496], [-6.014786, 42.294625], [-6.014138, 42.294396], [-6.012736, 42.294274], [-6.011834, 42.294621], [-6.01143, 42.295439], [-6.01143, 42.295945], [-6.011835, 42.296141], [-6.011734, 42.296418], [-6.011127, 42.296776], [-6.009967, 42.296897], [-6.008252, 42.296781], [-6.007274, 42.296715], [-6.007035, 42.296699], [-6.006877, 42.296689], [-6.006801, 42.296683], [-6.00655, 42.296831], [-6.006123, 42.297131], [-6.005355, 42.297689], [-6.004247, 42.298503], [-6.003652, 42.299193], [-6.00357, 42.299756], [-6.003045, 42.300129], [-6.002079, 42.300313], [-6.001495, 42.300538], [-6.001293, 42.300802], [-6.001457, 42.30105], [-6.00199, 42.301283], [-6.002435, 42.301371], [-6.002794, 42.301313], [-6.003188, 42.30125], [-6.003615, 42.301181], [-6.003709, 42.301788], [-6.00347, 42.303071], [-6.002939, 42.303779], [-6.002115, 42.303912], [-6.001557, 42.30416], [-6.001265, 42.304526], [-6.000747, 42.304825], [-6.000004, 42.305059], [-5.999536, 42.305207], [-5.999342, 42.305268], [-5.998957, 42.305316], [-5.99838, 42.305351], [-5.997818, 42.30576], [-5.99727, 42.306545], [-5.996974, 42.306969], [-5.99693, 42.307032], [-5.996118, 42.307103], [-5.994537, 42.307183], [-5.993402, 42.307539], [-5.992713, 42.308171], [-5.992042, 42.308799], [-5.991391, 42.309425], [-5.991582, 42.309626], [-5.992616, 42.309402], [-5.993264, 42.309558], [-5.993527, 42.310095], [-5.993058, 42.310388], [-5.991859, 42.310435], [-5.990027, 42.310454], [-5.987562, 42.310445], [-5.986393, 42.310675], [-5.98652, 42.311147], [-5.986359, 42.311347], [-5.98591, 42.311274], [-5.985412, 42.311528], [-5.984865, 42.312107], [-5.984299, 42.312328], [-5.983714, 42.312191], [-5.983482, 42.311837], [-5.983602, 42.311268], [-5.983182, 42.310872], [-5.982223, 42.31065], [-5.981764, 42.310416], [-5.981805, 42.31017], [-5.981741, 42.310079], [-5.981573, 42.310142], [-5.98078, 42.310157], [-5.979364, 42.310124], [-5.978273, 42.310067], [-5.977509, 42.309987], [-5.977037, 42.309687], [-5.976857, 42.309165], [-5.976981, 42.308827], [-5.977408, 42.308672], [-5.977842, 42.308327], [-5.978284, 42.307793], [-5.978618, 42.307436], [-5.978842, 42.307255], [-5.978947, 42.306992], [-5.978932, 42.306647], [-5.978936, 42.3063], [-5.978958, 42.305949], [-5.97876, 42.305648], [-5.97834, 42.305396], [-5.978126, 42.305112], [-5.978119, 42.304795], [-5.978295, 42.304549], [-5.978654, 42.304373], [-5.979449, 42.303985], [-5.980677, 42.303385], [-5.981284, 42.302768], [-5.981269, 42.302134], [-5.98119, 42.301408], [-5.981048, 42.300592], [-5.981126, 42.299797], [-5.981426, 42.299026], [-5.981759, 42.298741], [-5.982126, 42.298942], [-5.982227, 42.298666], [-5.982062, 42.297911], [-5.981554, 42.297499], [-5.980701, 42.297429], [-5.980042, 42.297376], [-5.979576, 42.297338], [-5.979425, 42.297118], [-5.97959, 42.296715], [-5.979878, 42.2965], [-5.980288, 42.296471], [-5.980921, 42.296428], [-5.981777, 42.296369], [-5.982362, 42.296054], [-5.982676, 42.295482], [-5.982304, 42.295226], [-5.981245, 42.295286], [-5.980687, 42.295318], [-5.98063, 42.295321], [-5.980391, 42.295487], [-5.979972, 42.295815], [-5.979035, 42.296399], [-5.977582, 42.29724], [-5.976852, 42.297357], [-5.976844, 42.29675], [-5.976181, 42.296394], [-5.974862, 42.296287], [-5.974211, 42.296406], [-5.974226, 42.29675], [-5.974117, 42.297216], [-5.973885, 42.297804], [-5.973608, 42.29808], [-5.973286, 42.298044], [-5.972933, 42.297971], [-5.972551, 42.297858], [-5.972319, 42.297649], [-5.972237, 42.297344], [-5.972349, 42.296313], [-5.972656, 42.294556], [-5.973068, 42.293622], [-5.973585, 42.29351], [-5.973652, 42.293253], [-5.97327, 42.292851], [-5.973413, 42.292365], [-5.974079, 42.291795], [-5.974476, 42.29124], [-5.974604, 42.290698], [-5.975293, 42.290212], [-5.976544, 42.289779], [-5.97754, 42.289417], [-5.978282, 42.289124], [-5.979154, 42.288811], [-5.980158, 42.288476], [-5.978948, 42.288193], [-5.975525, 42.28796], [-5.973907, 42.28725], [-5.974094, 42.286062], [-5.976087, 42.285989], [-5.979884, 42.287029], [-5.981783, 42.28726], [-5.981783, 42.286681], [-5.981465, 42.286298], [-5.980828, 42.286111], [-5.980547, 42.28536], [-5.980622, 42.284045], [-5.980775, 42.283312], [-5.981007, 42.283159], [-5.981202, 42.28265], [-5.981359, 42.281785], [-5.981448, 42.281337], [-5.981467, 42.281304], [-5.981388, 42.281184], [-5.981211, 42.280976], [-5.980635, 42.280779], [-5.979662, 42.280593], [-5.979022, 42.280076], [-5.978715, 42.279228], [-5.978846, 42.2787], [-5.979416, 42.278493], [-5.979843, 42.278338], [-5.980127, 42.278234], [-5.980396, 42.277641], [-5.980651, 42.276558], [-5.980557, 42.275975], [-5.980115, 42.27589], [-5.979827, 42.275835], [-5.979692, 42.27581], [-5.979565, 42.27543], [-5.979445, 42.274697], [-5.979609, 42.273788], [-5.980059, 42.272702], [-5.980062, 42.27192], [-5.979621, 42.271441], [-5.979149, 42.271068], [-5.978647, 42.270801], [-5.978272, 42.270355], [-5.978025, 42.269729], [-5.978542, 42.269472], [-5.979823, 42.269585], [-5.980957, 42.270026], [-5.981946, 42.270793], [-5.98244, 42.271394], [-5.98244, 42.271828], [-5.982852, 42.272196], [-5.983676, 42.272498], [-5.984253, 42.272753], [-5.984582, 42.272961], [-5.98511, 42.273108], [-5.985837, 42.273194], [-5.986466, 42.273426], [-5.986997, 42.273803], [-5.987889, 42.273776], [-5.989139, 42.273344], [-5.989993, 42.273323], [-5.99045, 42.273712], [-5.99062, 42.274092], [-5.990503, 42.274462], [-5.990387, 42.274828], [-5.990272, 42.27519], [-5.989964, 42.275382], [-5.989462, 42.275405], [-5.989233, 42.275717], [-5.989279, 42.276317], [-5.989646, 42.276808], [-5.990335, 42.27719], [-5.991196, 42.277269], [-5.99223, 42.277045], [-5.992724, 42.277211], [-5.992679, 42.277769], [-5.993117, 42.278161], [-5.994039, 42.27839], [-5.995076, 42.278469], [-5.99623, 42.2784], [-5.997124, 42.278097], [-5.997761, 42.277561], [-5.999068, 42.277191], [-6.001045, 42.27699], [-6.002033, 42.276792], [-6.002033, 42.276597], [-6.002033, 42.27638], [-6.002033, 42.27614], [-6.001707, 42.275899], [-6.001055, 42.275656], [-6.000658, 42.275633], [-6.000516, 42.27583], [-6.000052, 42.275919], [-5.999266, 42.2759], [-5.999172, 42.275626], [-5.999771, 42.275096], [-5.999774, 42.274748], [-5.999183, 42.274582], [-5.99901, 42.274161], [-5.999257, 42.273485], [-5.999684, 42.273112], [-6.00029, 42.273044], [-6.000462, 42.272814], [-6.0002, 42.272422], [-6.000627, 42.272049], [-6.001743, 42.271696], [-6.003128, 42.271401], [-6.004783, 42.271164], [-6.005573, 42.270907], [-6.005498, 42.27063], [-6.005872, 42.270642], [-6.006696, 42.270944], [-6.007119, 42.270847], [-6.007141, 42.270351], [-6.007594, 42.269931], [-6.008478, 42.269586], [-6.009125, 42.269381], [-6.009537, 42.269315], [-6.009878, 42.269274], [-6.010147, 42.26926], [-6.010361, 42.269399], [-6.010518, 42.269692], [-6.010724, 42.269804], [-6.010979, 42.269734], [-6.0112, 42.269757], [-6.011387, 42.269871], [-6.011798, 42.269901], [-6.012433, 42.269848], [-6.012815, 42.269815], [-6.012944, 42.269804], [-6.013181, 42.269858], [-6.013525, 42.269976], [-6.01421, 42.269909], [-6.015236, 42.269658], [-6.015809, 42.269319], [-6.015928, 42.268895], [-6.015767, 42.268443], [-6.015325, 42.267964], [-6.014943, 42.267635], [-6.014621, 42.267455], [-6.014359, 42.266994], [-6.014158, 42.266252], [-6.014042, 42.265822], [-6.01401, 42.265704], [-6.013971, 42.265485], [-6.013923, 42.265163], [-6.013807, 42.264371], [-6.013621, 42.263109], [-6.013214, 42.262399], [-6.012584, 42.262239], [-6.012212, 42.262176], [-6.012098, 42.262208], [-6.011607, 42.262344], [-6.010741, 42.262586], [-6.010247, 42.262648], [-6.010123, 42.262532], [-6.009939, 42.262358], [-6.009696, 42.262129], [-6.009496, 42.262063], [-6.009338, 42.262162], [-6.009121, 42.262298], [-6.008844, 42.262472], [-6.008586, 42.262621], [-6.008347, 42.262747], [-6.007714, 42.263008], [-6.006688, 42.263404], [-6.005876, 42.263795], [-6.005277, 42.264181], [-6.004746, 42.264382], [-6.004282, 42.264399], [-6.004049, 42.264262], [-6.004049, 42.263973], [-6.003813, 42.26375], [-6.003341, 42.263595], [-6.003031, 42.263312], [-6.002881, 42.262902], [-6.00242, 42.262643], [-6.001649, 42.262535], [-6.001544, 42.262219], [-6.002105, 42.261695], [-6.003187, 42.261579], [-6.00479, 42.261871], [-6.005516, 42.26174], [-6.005366, 42.261185], [-6.005834, 42.260821], [-6.006919, 42.260646], [-6.007458, 42.260255], [-6.00745, 42.259649], [-6.00681, 42.259375], [-6.005537, 42.259435], [-6.004897, 42.25909], [-6.004889, 42.258338], [-6.004458, 42.258046], [-6.003605, 42.258212], [-6.003118, 42.258507], [-6.002999, 42.258931], [-6.00319, 42.259205], [-6.003691, 42.259327], [-6.003894, 42.259497], [-6.003796, 42.259715], [-6.003153, 42.260007], [-6.001962, 42.260372], [-6.001333, 42.259995], [-6.001265, 42.258877], [-6.001299, 42.25816], [-6.001435, 42.257843], [-6.001554, 42.257564], [-6.001658, 42.257321], [-6.001721, 42.256879], [-6.001743, 42.256238], [-6.001556, 42.25569], [-6.001159, 42.255232], [-6.000774, 42.25554], [-6.0004, 42.256614], [-5.999857, 42.257135], [-5.999146, 42.257104], [-5.998521, 42.257333], [-5.997983, 42.257822], [-5.997654, 42.258121], [-5.997533, 42.25823], [-5.997373, 42.258249], [-5.997173, 42.258176], [-5.99687, 42.258065], [-5.996463, 42.257917], [-5.995957, 42.258022], [-5.99535, 42.25838], [-5.994785, 42.257733], [-5.99426, 42.25608], [-5.993646, 42.255542], [-5.992943, 42.256118], [-5.992815, 42.256515], [-5.993265, 42.256732], [-5.993418, 42.257011], [-5.993276, 42.257353], [-5.993276, 42.257714], [-5.993418, 42.258097], [-5.993317, 42.258518], [-5.992973, 42.258979], [-5.992639, 42.259275], [-5.992314, 42.259407], [-5.992138, 42.259479], [-5.992111, 42.25949], [-5.992131, 42.25991], [-5.992199, 42.260739], [-5.992038, 42.261011], [-5.991648, 42.260726], [-5.991413, 42.260364], [-5.991333, 42.259926], [-5.991292, 42.259701], [-5.99129, 42.259689], [-5.990585, 42.259536], [-5.989177, 42.259241], [-5.988552, 42.258951], [-5.988709, 42.258665], [-5.988368, 42.257909], [-5.98753, 42.256683], [-5.987208, 42.256648], [-5.987402, 42.257804], [-5.98723, 42.258468], [-5.986691, 42.258641], [-5.986418, 42.258859], [-5.986411, 42.259121], [-5.986516, 42.259437], [-5.986733, 42.259807], [-5.986844, 42.260299], [-5.986848, 42.260912], [-5.986852, 42.261433], [-5.986855, 42.26186], [-5.986723, 42.261931], [-5.986456, 42.261645], [-5.986209, 42.261381], [-5.985982, 42.261138], [-5.985778, 42.260756], [-5.985598, 42.260235], [-5.98534, 42.259929], [-5.985003, 42.259839], [-5.984745, 42.259605], [-5.984565, 42.259229], [-5.984093, 42.259073], [-5.98333, 42.259138], [-5.982948, 42.259749], [-5.982948, 42.260907], [-5.982544, 42.261652], [-5.981735, 42.261984], [-5.981046, 42.262109], [-5.980477, 42.262027], [-5.980039, 42.261851], [-5.979732, 42.261582], [-5.979564, 42.261247], [-5.979534, 42.260847], [-5.979324, 42.260649], [-5.978935, 42.260653], [-5.978692, 42.26105], [-5.978595, 42.26184], [-5.978547, 42.262239], [-5.978546, 42.262246], [-5.97819, 42.262307], [-5.977478, 42.262421], [-5.976984, 42.262761], [-5.976707, 42.263326], [-5.976284, 42.263857], [-5.975715, 42.264354], [-5.97497, 42.264777], [-5.974049, 42.265128], [-5.974019, 42.265451], [-5.97488, 42.265747], [-5.975112, 42.266028], [-5.974715, 42.266294], [-5.973757, 42.266578], [-5.972237, 42.26688], [-5.971549, 42.266859], [-5.971694, 42.266516], [-5.971825, 42.266206], [-5.971942, 42.265928], [-5.971716, 42.265675], [-5.971147, 42.265448], [-5.970687, 42.264827], [-5.970335, 42.263813], [-5.969851, 42.263828], [-5.969236, 42.264874], [-5.968887, 42.265465], [-5.968807, 42.265602], [-5.96768, 42.2657], [-5.965509, 42.265759], [-5.96436, 42.265263], [-5.964232, 42.264212], [-5.964511, 42.263619], [-5.965195, 42.263483], [-5.965955, 42.263333], [-5.966791, 42.263167], [-5.967213, 42.262519], [-5.967221, 42.261389], [-5.967629, 42.260947], [-5.968437, 42.261194], [-5.968437, 42.261049], [-5.967629, 42.260513], [-5.966974, 42.260184], [-5.966472, 42.260062], [-5.966, 42.259471], [-5.965559, 42.258413], [-5.964928, 42.257846], [-5.964109, 42.257769], [-5.963547, 42.257504], [-5.963242, 42.25705], [-5.963378, 42.256148], [-5.963957, 42.254798], [-5.963733, 42.254466], [-5.962707, 42.255151], [-5.962233, 42.25564], [-5.962312, 42.255931], [-5.962364, 42.256125], [-5.96239, 42.256222], [-5.962153, 42.256716], [-5.961651, 42.257607], [-5.96155, 42.258101], [-5.961849, 42.258198], [-5.961939, 42.258603], [-5.961819, 42.259317], [-5.961085, 42.259709], [-5.959737, 42.259781], [-5.959258, 42.259597], [-5.959648, 42.259158], [-5.959539, 42.258828], [-5.958933, 42.258607], [-5.958671, 42.258287], [-5.958753, 42.257869], [-5.959307, 42.257606], [-5.960333, 42.2575], [-5.960882, 42.256889], [-5.960953, 42.255775], [-5.960995, 42.255131], [-5.961006, 42.254959], [-5.960577, 42.254639], [-5.959709, 42.25417], [-5.959198, 42.253903], [-5.959045, 42.253837], [-5.958581, 42.253636], [-5.957806, 42.253301], [-5.9571, 42.252967], [-5.956464, 42.252635], [-5.955936, 42.252488], [-5.955517, 42.252526], [-5.955045, 42.252949], [-5.954521, 42.253757], [-5.954274, 42.253782], [-5.954304, 42.253024], [-5.954514, 42.252137], [-5.954904, 42.251119], [-5.955468, 42.25063], [-5.956206, 42.250668], [-5.956747, 42.250696], [-5.957092, 42.250714], [-5.957337, 42.250727], [-5.957482, 42.250734], [-5.957588, 42.250752], [-5.957655, 42.250779], [-5.957962, 42.250904], [-5.958508, 42.251125], [-5.9588, 42.251378], [-5.958838, 42.251661], [-5.959148, 42.251872], [-5.959732, 42.25201], [-5.960293, 42.252282], [-5.960832, 42.252687], [-5.961671, 42.252756], [-5.962809, 42.252486], [-5.963296, 42.252119], [-5.963131, 42.251653], [-5.963588, 42.251392], [-5.964666, 42.251335], [-5.9655, 42.250883], [-5.966092, 42.250035], [-5.966264, 42.249516], [-5.966017, 42.249324], [-5.965909, 42.248921], [-5.965939, 42.248309], [-5.965786, 42.248029], [-5.965449, 42.248083], [-5.965157, 42.248449], [-5.964909, 42.249125], [-5.964157, 42.249448], [-5.962899, 42.249418], [-5.962147, 42.249163], [-5.9619, 42.248681], [-5.961522, 42.248293], [-5.961013, 42.247998], [-5.960524, 42.248133], [-5.960053, 42.248698], [-5.959802, 42.248998], [-5.959771, 42.249035], [-5.958584, 42.249054], [-5.956241, 42.249053], [-5.954463, 42.249338], [-5.95325, 42.249908], [-5.952605, 42.249961], [-5.95253, 42.249496], [-5.95247, 42.249129], [-5.952426, 42.248861], [-5.952704, 42.248606], [-5.953303, 42.248366], [-5.953632, 42.247995], [-5.953693, 42.247493], [-5.953738, 42.246719], [-5.953768, 42.245672], [-5.953439, 42.245102], [-5.95275, 42.24501], [-5.952028, 42.245372], [-5.951272, 42.246187], [-5.950919, 42.246837], [-5.950972, 42.247321], [-5.950515, 42.24751], [-5.949549, 42.247404], [-5.948733, 42.247636], [-5.948067, 42.248206], [-5.947198, 42.248316], [-5.946128, 42.247966], [-5.945426, 42.248047], [-5.945093, 42.248559], [-5.944872, 42.248898], [-5.944763, 42.249065], [-5.944394, 42.248997], [-5.943766, 42.248692], [-5.943456, 42.248513], [-5.943465, 42.24846], [-5.94351, 42.248192], [-5.943591, 42.24771], [-5.94304, 42.247593], [-5.941857, 42.24784], [-5.940791, 42.247793], [-5.93984, 42.247454], [-5.939474, 42.246745], [-5.939692, 42.245668], [-5.939546, 42.244983], [-5.939038, 42.244688], [-5.938274, 42.244752], [-5.937256, 42.245176], [-5.936492, 42.245891], [-5.935982, 42.246899], [-5.935323, 42.247352], [-5.934515, 42.24725], [-5.934009, 42.247768], [-5.933806, 42.248906], [-5.933639, 42.249621], [-5.93351, 42.24991], [-5.933265, 42.250575], [-5.932906, 42.251614], [-5.933074, 42.252578], [-5.933772, 42.253467], [-5.933649, 42.253821], [-5.932706, 42.253641], [-5.93213, 42.25353], [-5.93192, 42.25349], [-5.931597, 42.253896], [-5.931163, 42.254747], [-5.930485, 42.255202], [-5.929564, 42.255263], [-5.929369, 42.255699], [-5.9299, 42.256511], [-5.930362, 42.256971], [-5.930757, 42.257078], [-5.931494, 42.257279], [-5.932574, 42.257572], [-5.932721, 42.258144], [-5.931934, 42.258993], [-5.931245, 42.25948], [-5.930653, 42.259603], [-5.930348, 42.25966], [-5.93033, 42.259648], [-5.930049, 42.259476], [-5.929507, 42.259143], [-5.928958, 42.259108], [-5.928404, 42.25937], [-5.927898, 42.259523], [-5.927442, 42.259567], [-5.927022, 42.259895], [-5.92664, 42.260506], [-5.926097, 42.260737], [-5.925393, 42.260589], [-5.925041, 42.260733], [-5.925041, 42.261167], [-5.925486, 42.261371], [-5.926377, 42.261344], [-5.926681, 42.261788], [-5.926397, 42.262702], [-5.926251, 42.263174], [-5.926241, 42.263204], [-5.926233, 42.263217], [-5.926225, 42.263215], [-5.925866, 42.263114], [-5.925155, 42.262912], [-5.92447, 42.262893], [-5.923811, 42.263056], [-5.923534, 42.263622], [-5.923637, 42.264589], [-5.923641, 42.265142], [-5.923544, 42.265279], [-5.923233, 42.265719], [-5.922708, 42.266463], [-5.922168, 42.266821], [-5.921614, 42.266794], [-5.921325, 42.266595], [-5.921302, 42.266223], [-5.921272, 42.26575], [-5.921237, 42.265176], [-5.92117, 42.264781], [-5.921073, 42.264565], [-5.920871, 42.263816], [-5.920566, 42.262533], [-5.920488, 42.261591], [-5.920638, 42.260988], [-5.919991, 42.260758], [-5.918546, 42.260903], [-5.91761, 42.261125], [-5.917182, 42.261424], [-5.916759, 42.261721], [-5.916339, 42.262014], [-5.915993, 42.262182], [-5.915723, 42.262225], [-5.915356, 42.262185], [-5.914894, 42.262062], [-5.914404, 42.262129], [-5.913887, 42.262385], [-5.913554, 42.262525], [-5.913404, 42.262549], [-5.913301, 42.262986], [-5.913246, 42.263836], [-5.913216, 42.264304], [-5.91321, 42.26439], [-5.913158, 42.264759], [-5.91306, 42.265411], [-5.912693, 42.265716], [-5.912057, 42.265673], [-5.911746, 42.265533], [-5.911762, 42.265297], [-5.911777, 42.265063], [-5.911792, 42.264831], [-5.911646, 42.264581], [-5.911339, 42.264312], [-5.910879, 42.264125], [-5.910265, 42.26402], [-5.909921, 42.263684], [-5.909847, 42.263117], [-5.909627, 42.262667], [-5.909261, 42.262335], [-5.908976, 42.262076], [-5.908774, 42.261892], [-5.908197, 42.262136], [-5.907245, 42.262809], [-5.906751, 42.263004], [-5.906714, 42.262721], [-5.907052, 42.262015], [-5.907764, 42.260889], [-5.908114, 42.259502], [-5.908101, 42.257854], [-5.90796, 42.256675], [-5.907691, 42.255966], [-5.90756, 42.255548], [-5.907567, 42.255423], [-5.907605, 42.254693], [-5.907675, 42.253359], [-5.907074, 42.252505], [-5.905802, 42.252129], [-5.904249, 42.251943], [-5.902414, 42.251947], [-5.901299, 42.252308], [-5.900901, 42.253028], [-5.900613, 42.253552], [-5.900432, 42.253879], [-5.89996, 42.254002], [-5.899197, 42.253922], [-5.8988, 42.253754], [-5.89877, 42.253498], [-5.898813, 42.253129], [-5.898927, 42.252646], [-5.898991, 42.252375], [-5.899005, 42.252317], [-5.898589, 42.252094], [-5.897744, 42.251708], [-5.897385, 42.2511], [-5.897513, 42.250269], [-5.896882, 42.249588], [-5.89549, 42.249058], [-5.894267, 42.248863], [-5.893211, 42.249002], [-5.892342, 42.249184], [-5.891661, 42.249409], [-5.891185, 42.249383], [-5.890916, 42.249108], [-5.890659, 42.248657], [-5.890413, 42.248031], [-5.889796, 42.24755], [-5.888808, 42.247216], [-5.888243, 42.247364], [-5.8881, 42.247995], [-5.888294, 42.248354], [-5.888825, 42.248443], [-5.889079, 42.248834], [-5.889055, 42.249526], [-5.889039, 42.249977], [-5.889032, 42.250187], [-5.888489, 42.250392], [-5.887411, 42.250593], [-5.886022, 42.250873], [-5.884322, 42.251231], [-5.883356, 42.251127], [-5.883123, 42.250562], [-5.882955, 42.250155], [-5.882852, 42.249905], [-5.882868, 42.249668], [-5.883004, 42.249444], [-5.88287, 42.248945], [-5.882467, 42.24817], [-5.881776, 42.247791], [-5.880796, 42.247808], [-5.87998, 42.247822], [-5.879328, 42.247834], [-5.878915, 42.248099], [-5.878742, 42.248619], [-5.877843, 42.248907], [-5.876219, 42.248963], [-5.875702, 42.248785], [-5.876294, 42.248372], [-5.876969, 42.24812], [-5.877725, 42.248029], [-5.87804, 42.247819], [-5.877913, 42.247492], [-5.877573, 42.247315], [-5.877019, 42.247287], [-5.876212, 42.246534], [-5.875151, 42.245053], [-5.875112, 42.244096], [-5.876095, 42.243662], [-5.876968, 42.243277], [-5.87773, 42.242941], [-5.877858, 42.242552], [-5.877349, 42.242112], [-5.877665, 42.241469], [-5.878804, 42.240622], [-5.879583, 42.23989], [-5.880004, 42.239273], [-5.880001, 42.23868], [-5.879575, 42.238111], [-5.878613, 42.238163], [-5.877115, 42.238836], [-5.876008, 42.238709], [-5.875291, 42.237781], [-5.87512, 42.237143], [-5.875495, 42.236794], [-5.875604, 42.236328], [-5.875448, 42.235745], [-5.875572, 42.235335], [-5.875977, 42.235096], [-5.876418, 42.235214], [-5.876896, 42.235688], [-5.877536, 42.235673], [-5.878338, 42.235169], [-5.878272, 42.234267], [-5.877339, 42.232969], [-5.877149, 42.232189], [-5.877704, 42.231927], [-5.877772, 42.231381], [-5.877354, 42.23055], [-5.877531, 42.230045], [-5.878302, 42.229864], [-5.878442, 42.229075], [-5.87795, 42.227677], [-5.876351, 42.227279], [-5.873643, 42.227879], [-5.872306, 42.228056], [-5.872339, 42.227809], [-5.872215, 42.227672], [-5.871933, 42.227645], [-5.871788, 42.227545], [-5.871781, 42.227373], [-5.871943, 42.227236], [-5.872273, 42.227135], [-5.872472, 42.227075], [-5.872538, 42.227055], [-5.872676, 42.226854], [-5.872887, 42.226473], [-5.874234, 42.226041], [-5.876719, 42.225558], [-5.877648, 42.224947], [-5.877021, 42.224208], [-5.875738, 42.223934], [-5.873799, 42.224125], [-5.872374, 42.224265], [-5.871461, 42.224355], [-5.871133, 42.224076], [-5.871388, 42.223427], [-5.87143, 42.222828], [-5.871258, 42.222276], [-5.871121, 42.221835], [-5.871017, 42.221504], [-5.870849, 42.221329], [-5.870614, 42.22131], [-5.870375, 42.22129], [-5.87013, 42.22127], [-5.869971, 42.221105], [-5.869898, 42.220795], [-5.869746, 42.220154], [-5.869515, 42.219181], [-5.869071, 42.218721], [-5.868415, 42.218773], [-5.86769, 42.218831], [-5.866894, 42.218894], [-5.866059, 42.218605], [-5.865185, 42.217963], [-5.864595, 42.217435], [-5.864289, 42.21702], [-5.863982, 42.216968], [-5.863675, 42.217277], [-5.863107, 42.217194], [-5.862277, 42.216719], [-5.862073, 42.2161], [-5.862493, 42.215339], [-5.862071, 42.215073], [-5.860806, 42.215304], [-5.860045, 42.214499], [-5.859787, 42.212659], [-5.860025, 42.211559], [-5.86076, 42.2112], [-5.861243, 42.210964], [-5.861474, 42.210851], [-5.861606, 42.210126], [-5.861639, 42.20879], [-5.861361, 42.207315], [-5.860774, 42.205701], [-5.860291, 42.204887], [-5.859913, 42.204872], [-5.859401, 42.204853], [-5.858754, 42.204828], [-5.858403, 42.203908], [-5.858347, 42.202094], [-5.858289, 42.200805], [-5.858229, 42.200039], [-5.858189, 42.199525], [-5.858169, 42.199261], [-5.858484, 42.199106], [-5.859135, 42.19906], [-5.85933, 42.198479], [-5.859071, 42.197363], [-5.858591, 42.196901], [-5.85789, 42.197092], [-5.857254, 42.197266], [-5.856683, 42.197422], [-5.856312, 42.19718], [-5.856141, 42.196542], [-5.856372, 42.196215], [-5.857005, 42.196199], [-5.85776, 42.19618], [-5.858638, 42.196158], [-5.859052, 42.195688], [-5.859002, 42.19477], [-5.858487, 42.194302], [-5.857507, 42.194284], [-5.857111, 42.194043], [-5.857299, 42.193579], [-5.857693, 42.193083], [-5.858292, 42.192553], [-5.858357, 42.191993], [-5.857887, 42.191402], [-5.857151, 42.191204], [-5.856149, 42.191399], [-5.855532, 42.191426], [-5.855302, 42.191287], [-5.854874, 42.190484], [-5.854248, 42.189017], [-5.85362, 42.188421], [-5.852991, 42.188695], [-5.852411, 42.18886], [-5.85188, 42.188915], [-5.851623, 42.188975], [-5.85164, 42.189037], [-5.851666, 42.189135], [-5.851701, 42.189266], [-5.851464, 42.189401], [-5.850955, 42.18954], [-5.850514, 42.189712], [-5.850139, 42.189916], [-5.849586, 42.189889], [-5.848854, 42.189629], [-5.848825, 42.189373], [-5.849498, 42.189121], [-5.849719, 42.188715], [-5.849488, 42.188156], [-5.849157, 42.187355], [-5.848727, 42.186313], [-5.847659, 42.185739], [-5.845954, 42.185634], [-5.845037, 42.185592], [-5.844907, 42.185613], [-5.844215, 42.185723], [-5.842961, 42.185923], [-5.842331, 42.185791], [-5.842325, 42.185329], [-5.842767, 42.184941], [-5.843658, 42.184625], [-5.843898, 42.184138], [-5.843488, 42.18348], [-5.843173, 42.182445], [-5.842952, 42.181034], [-5.842952, 42.180301], [-5.843171, 42.180248], [-5.843519, 42.180163], [-5.843995, 42.180048], [-5.84394, 42.179317], [-5.843352, 42.17797], [-5.843051, 42.17728], [-5.843036, 42.177247], [-5.842465, 42.177161], [-5.841336, 42.177022], [-5.840533, 42.176789], [-5.840055, 42.176459], [-5.839473, 42.176104], [-5.838786, 42.175721], [-5.838191, 42.17583], [-5.837689, 42.176431], [-5.837879, 42.176849], [-5.83876, 42.177085], [-5.839145, 42.177357], [-5.839032, 42.177664], [-5.838516, 42.177703], [-5.837597, 42.177473], [-5.837018, 42.177131], [-5.83678, 42.176677], [-5.83674, 42.176307], [-5.836898, 42.176022], [-5.837336, 42.175474], [-5.838056, 42.174665], [-5.838592, 42.174262], [-5.838943, 42.174264], [-5.839227, 42.17445], [-5.839443, 42.174821], [-5.839984, 42.175096], [-5.840851, 42.175277], [-5.841654, 42.175438], [-5.842394, 42.175581], [-5.842849, 42.175669], [-5.843021, 42.175702], [-5.843309, 42.175757], [-5.843713, 42.175835], [-5.844225, 42.175655], [-5.844845, 42.175216], [-5.84532, 42.17488], [-5.845651, 42.174646], [-5.84603, 42.174597], [-5.846455, 42.174731], [-5.846882, 42.174649], [-5.847309, 42.174349], [-5.847679, 42.174276], [-5.847993, 42.174429], [-5.848128, 42.174621], [-5.848086, 42.174852], [-5.847999, 42.175329], [-5.847867, 42.176051], [-5.848201, 42.176305], [-5.849002, 42.176091], [-5.849981, 42.175964], [-5.85114, 42.175924], [-5.851842, 42.175855], [-5.852087, 42.175758], [-5.852932, 42.17542], [-5.854379, 42.174843], [-5.85562, 42.174306], [-5.856657, 42.173809], [-5.857244, 42.173528], [-5.857383, 42.173461], [-5.858002, 42.173152], [-5.859103, 42.1726], [-5.859264, 42.172184], [-5.858487, 42.171903], [-5.857703, 42.171449], [-5.856912, 42.170823], [-5.855788, 42.170336], [-5.854331, 42.169989], [-5.853196, 42.169606], [-5.852382, 42.169186], [-5.851695, 42.168803], [-5.851135, 42.168459], [-5.850676, 42.168199], [-5.850318, 42.168024], [-5.849938, 42.167622], [-5.849535, 42.166992], [-5.849056, 42.166801], [-5.848499, 42.167051], [-5.848098, 42.167231], [-5.847855, 42.16734], [-5.84718, 42.167367], [-5.846074, 42.167312], [-5.845478, 42.167038], [-5.845392, 42.166547], [-5.845318, 42.166125], [-5.845256, 42.165771], [-5.844961, 42.165681], [-5.844431, 42.165855], [-5.844001, 42.165996], [-5.84367, 42.166104], [-5.842963, 42.166172], [-5.841879, 42.1662], [-5.841184, 42.166007], [-5.840879, 42.165592], [-5.840409, 42.165001], [-5.839776, 42.164234], [-5.839646, 42.163821], [-5.84002, 42.163761], [-5.840554, 42.164009], [-5.841248, 42.164564], [-5.841718, 42.164721], [-5.841966, 42.164479], [-5.842359, 42.164127], [-5.842898, 42.163665], [-5.843215, 42.163424], [-5.843308, 42.163405], [-5.843359, 42.163395], [-5.843368, 42.163393], [-5.844006, 42.163265], [-5.845272, 42.163009], [-5.846216, 42.162659], [-5.846837, 42.162212], [-5.846905, 42.161956], [-5.84642, 42.161888], [-5.846151, 42.161468], [-5.846101, 42.160695], [-5.845919, 42.160232], [-5.845606, 42.160079], [-5.845644, 42.159784], [-5.846033, 42.159345], [-5.846468, 42.158856], [-5.846948, 42.158317], [-5.84764, 42.158134], [-5.848544, 42.158309], [-5.849303, 42.158159], [-5.849917, 42.157685], [-5.850556, 42.15738], [-5.851222, 42.157245], [-5.851797, 42.157212], [-5.852283, 42.157279], [-5.852572, 42.157363], [-5.852663, 42.157464], [-5.852939, 42.157767], [-5.853399, 42.158273], [-5.85358, 42.15878], [-5.853482, 42.159287], [-5.85381, 42.159495], [-5.854565, 42.159404], [-5.855586, 42.159068], [-5.856873, 42.158486], [-5.857464, 42.157927], [-5.857358, 42.15739], [-5.857302, 42.15711], [-5.857297, 42.157085], [-5.857401, 42.157089], [-5.857614, 42.157122], [-5.857939, 42.157171], [-5.858376, 42.157238], [-5.858834, 42.157436], [-5.859311, 42.157765], [-5.859767, 42.157866], [-5.860201, 42.157739], [-5.860652, 42.158043], [-5.861122, 42.158778], [-5.861749, 42.159014], [-5.862533, 42.158751], [-5.862945, 42.158613], [-5.862983, 42.158601], [-5.863327, 42.158716], [-5.863976, 42.15896], [-5.86485, 42.15924], [-5.865948, 42.159557], [-5.866594, 42.160076], [-5.866787, 42.160798], [-5.866844, 42.161209], [-5.866765, 42.161311], [-5.866547, 42.161592], [-5.866191, 42.162051], [-5.866293, 42.162454], [-5.866853, 42.162798], [-5.867398, 42.16281], [-5.867928, 42.162487], [-5.868347, 42.162232], [-5.868656, 42.162045], [-5.868873, 42.162187], [-5.868999, 42.162659], [-5.869062, 42.162895], [-5.869061, 42.162895], [-5.868866, 42.163042], [-5.868478, 42.163335], [-5.868715, 42.163491], [-5.869577, 42.163509], [-5.870459, 42.163528], [-5.871361, 42.163546], [-5.872084, 42.163773], [-5.872629, 42.164207], [-5.873242, 42.164167], [-5.873923, 42.163653], [-5.874319, 42.163749], [-5.87443, 42.164455], [-5.874148, 42.165151], [-5.873474, 42.165837], [-5.873383, 42.166517], [-5.873875, 42.167191], [-5.873904, 42.167592], [-5.87347, 42.167719], [-5.873719, 42.168432], [-5.874651, 42.16973], [-5.876121, 42.171073], [-5.878129, 42.17246], [-5.879469, 42.173306], [-5.880139, 42.173612], [-5.880643, 42.173965], [-5.880981, 42.174367], [-5.882021, 42.174472], [-5.883763, 42.174281], [-5.884821, 42.174083], [-5.885195, 42.173878], [-5.884662, 42.173414], [-5.88322, 42.172689], [-5.882277, 42.172144], [-5.881831, 42.171779], [-5.881432, 42.171452], [-5.881078, 42.171163], [-5.8818, 42.170731], [-5.883595, 42.170155], [-5.885154, 42.169862], [-5.886477, 42.169854], [-5.887723, 42.169922], [-5.888892, 42.170067], [-5.88986, 42.170188], [-5.890627, 42.170283], [-5.891205, 42.170256], [-5.891594, 42.170107], [-5.892621, 42.17045], [-5.894287, 42.171283], [-5.894892, 42.171432], [-5.894437, 42.170897], [-5.893915, 42.170402], [-5.893325, 42.169946], [-5.892853, 42.169506], [-5.8925, 42.16908], [-5.892299, 42.168837], [-5.892249, 42.168778], [-5.892468, 42.168492], [-5.892954, 42.16798], [-5.893777, 42.167631], [-5.894936, 42.167446], [-5.896054, 42.167253], [-5.897131, 42.167052], [-5.897972, 42.166917], [-5.898578, 42.16685], [-5.899684, 42.166832], [-5.901291, 42.166864], [-5.902697, 42.166871], [-5.9039, 42.166853], [-5.904584, 42.166958], [-5.904749, 42.167187], [-5.904924, 42.167312], [-5.905109, 42.167333], [-5.90528, 42.167438], [-5.905438, 42.167628], [-5.905734, 42.167587], [-5.906168, 42.167315], [-5.906393, 42.166989], [-5.906409, 42.166611], [-5.906383, 42.166007], [-5.906317, 42.165178], [-5.906263, 42.164319], [-5.906219, 42.163428], [-5.906136, 42.162866], [-5.906014, 42.16263], [-5.905789, 42.162195], [-5.90546, 42.16156], [-5.905279, 42.16121], [-5.905245, 42.161145], [-5.905163, 42.161105], [-5.905031, 42.16109], [-5.904609, 42.161042], [-5.903896, 42.16096], [-5.903483, 42.160784], [-5.903372, 42.160512], [-5.902927, 42.16038], [-5.90215, 42.160389], [-5.901866, 42.160275], [-5.902076, 42.160039], [-5.901844, 42.159613], [-5.901173, 42.158997], [-5.900579, 42.158672], [-5.900063, 42.158639], [-5.899739, 42.158372], [-5.899605, 42.157873], [-5.900139, 42.157758], [-5.901342, 42.158029], [-5.902258, 42.158172], [-5.902886, 42.158187], [-5.903312, 42.157815], [-5.903538, 42.157056], [-5.903828, 42.156896], [-5.904182, 42.157337], [-5.904533, 42.157773], [-5.904879, 42.158204], [-5.905236, 42.158304], [-5.905603, 42.158071], [-5.905831, 42.157543], [-5.905922, 42.156718], [-5.905977, 42.156267], [-5.905995, 42.156189], [-5.906034, 42.156026], [-5.906093, 42.155777], [-5.906147, 42.155545], [-5.906198, 42.15533], [-5.906196, 42.155197], [-5.90614, 42.155147], [-5.905909, 42.154938], [-5.905502, 42.15457], [-5.905313, 42.154225], [-5.905344, 42.153902], [-5.905523, 42.153627], [-5.905853, 42.153401], [-5.90588, 42.152774], [-5.905605, 42.151747], [-5.905535, 42.150904], [-5.90567, 42.150246], [-5.905869, 42.149824], [-5.906131, 42.149637], [-5.906303, 42.149383], [-5.906386, 42.149063], [-5.906455, 42.148793], [-5.906512, 42.148573], [-5.9067, 42.147843], [-5.907019, 42.146602], [-5.907265, 42.14565], [-5.907438, 42.144985], [-5.907806, 42.14454], [-5.908369, 42.144315], [-5.908657, 42.144199], [-5.90867, 42.144194], [-5.90911, 42.144018], [-5.909977, 42.14367], [-5.910082, 42.143361], [-5.909425, 42.14309], [-5.90925, 42.142727], [-5.909557, 42.142273], [-5.910126, 42.141849], [-5.910956, 42.141456], [-5.911635, 42.141665], [-5.912165, 42.142478], [-5.912654, 42.142776], [-5.913102, 42.142559], [-5.913607, 42.142534], [-5.914169, 42.1427], [-5.914486, 42.142794], [-5.91456, 42.142816], [-5.914726, 42.142772], [-5.914984, 42.142662], [-5.915473, 42.142453], [-5.916195, 42.142146], [-5.91691, 42.141936], [-5.91762, 42.141822], [-5.918367, 42.141781], [-5.919151, 42.141812], [-5.920017, 42.141847], [-5.920967, 42.141886], [-5.921719, 42.141991], [-5.922272, 42.142163], [-5.92312, 42.142128], [-5.924263, 42.141887], [-5.925153, 42.141643], [-5.925788, 42.141397], [-5.926397, 42.141343], [-5.92698, 42.141481], [-5.927808, 42.141451], [-5.928881, 42.141252], [-5.929457, 42.141145], [-5.929535, 42.141131], [-5.930142, 42.140989], [-5.931278, 42.14072], [-5.932454, 42.140821], [-5.933672, 42.141292], [-5.93514, 42.141245], [-5.93686, 42.14068], [-5.938153, 42.140342], [-5.939019, 42.140232], [-5.939748, 42.140188], [-5.940338, 42.140209], [-5.940985, 42.140438], [-5.941687, 42.140875], [-5.94246, 42.14107], [-5.943304, 42.141021], [-5.943801, 42.14123], [-5.94395, 42.141695], [-5.94407, 42.142067], [-5.944159, 42.142345], [-5.944556, 42.142329], [-5.945262, 42.142021], [-5.94589, 42.141747], [-5.94644, 42.141506], [-5.94704, 42.141483], [-5.947691, 42.141678], [-5.94892, 42.142045], [-5.950727, 42.142585], [-5.952225, 42.143035], [-5.953413, 42.143394], [-5.954287, 42.143674], [-5.954847, 42.143873], [-5.955867, 42.143826], [-5.957347, 42.14353], [-5.958077, 42.143157], [-5.958058, 42.142707], [-5.958047, 42.142448], [-5.958044, 42.142381], [-5.958551, 42.142136], [-5.959568, 42.141712], [-5.96013, 42.141508], [-5.960239, 42.141523], [-5.960482, 42.141556], [-5.960859, 42.141608], [-5.961436, 42.141485], [-5.962213, 42.141186], [-5.96221, 42.14081], [-5.961425, 42.140357], [-5.960964, 42.139957], [-5.960825, 42.139609], [-5.960705, 42.139309], [-5.960606, 42.139059], [-5.960466, 42.138456], [-5.960288, 42.137501], [-5.960053, 42.136409], [-5.959762, 42.135182], [-5.959117, 42.134374], [-5.958116, 42.133985], [-5.957668, 42.133406], [-5.957773, 42.132636], [-5.957927, 42.132092], [-5.95813, 42.131774], [-5.957867, 42.131462], [-5.957137, 42.131158], [-5.956665, 42.13094], [-5.956451, 42.130809], [-5.955606, 42.130546], [-5.954128, 42.130151], [-5.953543, 42.129147], [-5.953851, 42.127534], [-5.95495, 42.125968], [-5.956841, 42.124449], [-5.958109, 42.12363], [-5.958753, 42.12351], [-5.959328, 42.123403], [-5.959835, 42.123309], [-5.959965, 42.123022], [-5.959719, 42.12254], [-5.959809, 42.122077], [-5.960235, 42.121632], [-5.960055, 42.121249], [-5.959269, 42.120928], [-5.958481, 42.120606], [-5.957691, 42.120283], [-5.957626, 42.119783], [-5.958285, 42.119106], [-5.958623, 42.118759], [-5.95864, 42.118741], [-5.958845, 42.11853], [-5.959238, 42.118127], [-5.960368, 42.117775], [-5.962236, 42.117475], [-5.963521, 42.1173], [-5.964223, 42.117248], [-5.964891, 42.117198], [-5.965526, 42.117151], [-5.966132, 42.116748], [-5.966707, 42.11599], [-5.967202, 42.115413], [-5.967617, 42.115016], [-5.96787, 42.114775], [-5.967961, 42.114688], [-5.968172, 42.114486], [-5.968503, 42.114169], [-5.96855, 42.113892], [-5.968311, 42.113655], [-5.968099, 42.113443], [-5.967912, 42.113256], [-5.967654, 42.113349], [-5.967325, 42.11372], [-5.967045, 42.113837], [-5.966813, 42.113701], [-5.967075, 42.113225], [-5.96783, 42.112409], [-5.968704, 42.111747], [-5.969698, 42.11124], [-5.970568, 42.110782], [-5.971315, 42.110372], [-5.971942, 42.110394], [-5.972448, 42.110848], [-5.972858, 42.111216], [-5.973173, 42.111499], [-5.972987, 42.111811], [-5.9723, 42.112154], [-5.972598, 42.112829], [-5.973883, 42.113839], [-5.97513, 42.114782], [-5.976339, 42.115658], [-5.976802, 42.116221], [-5.976518, 42.116469], [-5.976578, 42.116763], [-5.976981, 42.117104], [-5.977449, 42.11709], [-5.977983, 42.116722], [-5.978312, 42.116496], [-5.978436, 42.116411], [-5.97863, 42.116455], [-5.978895, 42.116628], [-5.979462, 42.117], [-5.980333, 42.11757], [-5.980439, 42.118155], [-5.979781, 42.118752], [-5.97983, 42.119295], [-5.980584, 42.119781], [-5.981305, 42.119781], [-5.981992, 42.119294], [-5.982635, 42.119003], [-5.983232, 42.118907], [-5.98364, 42.118899], [-5.983856, 42.11898], [-5.984274, 42.118942], [-5.984895, 42.118784], [-5.985586, 42.118239], [-5.986348, 42.117306], [-5.98686, 42.116943], [-5.987122, 42.117151], [-5.987592, 42.117524], [-5.988271, 42.118062], [-5.98851, 42.118453], [-5.988307, 42.118696], [-5.988057, 42.118997], [-5.987759, 42.119355], [-5.987953, 42.119725], [-5.98864, 42.120107], [-5.988997, 42.120268], [-5.989023, 42.120208], [-5.989131, 42.119958], [-5.989322, 42.11952], [-5.989586, 42.11913], [-5.989922, 42.118786], [-5.990306, 42.118623], [-5.99074, 42.11864], [-5.991087, 42.118845], [-5.991348, 42.119237], [-5.991094, 42.119741], [-5.990325, 42.120357], [-5.990097, 42.120741], [-5.990411, 42.120893], [-5.990227, 42.121444], [-5.989548, 42.122392], [-5.989278, 42.122986], [-5.98942, 42.123223], [-5.98917, 42.123886], [-5.988527, 42.124974], [-5.988531, 42.125784], [-5.989181, 42.126316], [-5.989393, 42.126817], [-5.989169, 42.127288], [-5.989378, 42.127685], [-5.990019, 42.128011], [-5.99056, 42.128285], [-5.991002, 42.12851], [-5.992292, 42.128971], [-5.994429, 42.129669], [-5.995885, 42.130014], [-5.996662, 42.130005], [-5.996999, 42.129806], [-5.996894, 42.129417], [-5.996427, 42.129058], [-5.995598, 42.128728], [-5.995229, 42.128446], [-5.99532, 42.128212], [-5.995458, 42.127857], [-5.995644, 42.127381], [-5.996255, 42.127262], [-5.997294, 42.1275], [-5.997925, 42.127312], [-5.998149, 42.126697], [-5.998329, 42.126381], [-5.998465, 42.126363], [-5.999784, 42.126194], [-6.002285, 42.125874], [-6.003353, 42.125251], [-6.002987, 42.124326], [-6.002262, 42.124023], [-6.001179, 42.124342], [-6.000555, 42.123758], [-6.000391, 42.12227], [-6.000283, 42.121288], [-6.00023, 42.120814], [-6.000168, 42.120338], [-6.000095, 42.119862], [-5.999968, 42.119028], [-5.999787, 42.117837], [-5.999562, 42.11696], [-5.999293, 42.116395], [-5.999285, 42.115861], [-5.999539, 42.115357], [-5.999909, 42.114849], [-6.000395, 42.114336], [-6.000787, 42.113766], [-6.001086, 42.113139], [-6.001627, 42.11269], [-6.002412, 42.112419], [-6.003162, 42.11224], [-6.003879, 42.112154], [-6.003595, 42.111896], [-6.002311, 42.111466], [-6.001769, 42.111119], [-6.001971, 42.110855], [-6.002542, 42.110734], [-6.003483, 42.110756], [-6.004036, 42.110565], [-6.0042, 42.110163], [-6.004667, 42.110015], [-6.005436, 42.110123], [-6.005836, 42.110015], [-6.005866, 42.109692], [-6.005343, 42.109342], [-6.004268, 42.108965], [-6.003693, 42.108638], [-6.003618, 42.10836], [-6.003088, 42.1082], [-6.002102, 42.108156], [-6.001522, 42.108033], [-6.001349, 42.107831], [-6.001207, 42.107666], [-6.001096, 42.107537], [-6.001527, 42.107105], [-6.002498, 42.10637], [-6.003663, 42.105704], [-6.005022, 42.105109], [-6.007027, 42.104598], [-6.009678, 42.104171], [-6.011151, 42.104011], [-6.011446, 42.10412], [-6.011857, 42.104271], [-6.012384, 42.104464], [-6.013111, 42.104458], [-6.01404, 42.104252], [-6.014757, 42.104093], [-6.015262, 42.103981], [-6.016034, 42.103755], [-6.017072, 42.103414], [-6.01775, 42.103393], [-6.018067, 42.103694], [-6.018381, 42.103991], [-6.018691, 42.104284], [-6.019256, 42.104364], [-6.020078, 42.104232], [-6.020283, 42.103705], [-6.019873, 42.102783], [-6.019626, 42.102229], [-6.019544, 42.102043], [-6.019715, 42.101656], [-6.020141, 42.101066], [-6.020579, 42.100777], [-6.021029, 42.100787], [-6.021578, 42.1008], [-6.022225, 42.100815], [-6.022803, 42.100463], [-6.02331, 42.099744], [-6.023814, 42.099157], [-6.024314, 42.0987], [-6.024553, 42.098353], [-6.024529, 42.098116], [-6.024496, 42.097774], [-6.024452, 42.097327], [-6.024754, 42.096718], [-6.025404, 42.095947], [-6.026245, 42.09567], [-6.027279, 42.095886], [-6.027875, 42.095945], [-6.028034, 42.095848], [-6.028596, 42.095539], [-6.029562, 42.095018], [-6.030549, 42.094906], [-6.031557, 42.095203], [-6.032337, 42.09493], [-6.032889, 42.094088], [-6.033079, 42.093565], [-6.032907, 42.093361], [-6.032735, 42.093157], [-6.032563, 42.092954], [-6.03304, 42.092637], [-6.034164, 42.092209], [-6.035347, 42.091757], [-6.036589, 42.091283], [-6.038163, 42.09082], [-6.040066, 42.090368], [-6.041638, 42.089911], [-6.042877, 42.089451], [-6.043769, 42.089582], [-6.044315, 42.090304], [-6.044823, 42.090598], [-6.045293, 42.090465], [-6.045558, 42.090074], [-6.045617, 42.089428], [-6.04605, 42.089155], [-6.046857, 42.089257], [-6.047334, 42.089006], [-6.047483, 42.088403], [-6.048357, 42.08803], [-6.049954, 42.087888], [-6.051768, 42.087537], [-6.053799, 42.086977], [-6.054814, 42.086516], [-6.054813, 42.086153], [-6.054813, 42.085864], [-6.054813, 42.085647], [-6.055166, 42.085428], [-6.055873, 42.085205], [-6.05625, 42.085086], [-6.056297, 42.085071], [-6.056334, 42.08498], [-6.05636, 42.084813], [-6.056438, 42.084308], [-6.056568, 42.083466], [-6.05645, 42.082727], [-6.056083, 42.082091], [-6.056542, 42.081409], [-6.057825, 42.08068], [-6.058523, 42.080307], [-6.058635, 42.080289], [-6.059083, 42.080217], [-6.059867, 42.08009], [-6.060494, 42.07996], [-6.060964, 42.079826], [-6.061221, 42.079625], [-6.061266, 42.079357], [-6.061071, 42.07917], [-6.060638, 42.079063], [-6.060283, 42.078975], [-6.060007, 42.078907], [-6.060007, 42.078735], [-6.060283, 42.078459], [-6.060809, 42.078171], [-6.061586, 42.077872], [-6.062283, 42.077716], [-6.062903, 42.077703], [-6.063262, 42.077876], [-6.063359, 42.078237], [-6.063364, 42.078511], [-6.063278, 42.078698], [-6.063155, 42.078964], [-6.062995, 42.079309], [-6.063065, 42.079529], [-6.063364, 42.079626], [-6.063581, 42.079724], [-6.063717, 42.079823], [-6.063601, 42.080379], [-6.063233, 42.081391], [-6.062805, 42.08277], [-6.062315, 42.084518], [-6.062868, 42.085183], [-6.064465, 42.084765], [-6.065776, 42.084276], [-6.066799, 42.083713], [-6.067417, 42.083414], [-6.067628, 42.08338], [-6.067821, 42.083212], [-6.067997, 42.082908], [-6.067991, 42.08241], [-6.067804, 42.081716], [-6.068535, 42.081395], [-6.070185, 42.081447], [-6.071204, 42.081253], [-6.071592, 42.080814], [-6.072192, 42.080369], [-6.073006, 42.079919], [-6.073415, 42.079682], [-6.07342, 42.079656], [-6.073494, 42.079282], [-6.073638, 42.07856], [-6.073313, 42.077958], [-6.072522, 42.077478], [-6.072346, 42.076827], [-6.072785, 42.076003], [-6.073637, 42.075172], [-6.074901, 42.074334], [-6.075595, 42.073874], [-6.075718, 42.073793], [-6.075833, 42.073798], [-6.07594, 42.073889], [-6.076295, 42.074194], [-6.076898, 42.074711], [-6.07735, 42.075008], [-6.077652, 42.075084], [-6.07807, 42.07519], [-6.078605, 42.075326], [-6.079089, 42.075692], [-6.079523, 42.076287], [-6.079952, 42.076797], [-6.080378, 42.07722], [-6.081192, 42.077421], [-6.082394, 42.077401], [-6.083172, 42.078838], [-6.083527, 42.081734], [-6.083744, 42.083216], [-6.083823, 42.083283], [-6.084323, 42.083218], [-6.085245, 42.08302], [-6.087126, 42.082883], [-6.089966, 42.082807], [-6.09191, 42.082754], [-6.092959, 42.082726], [-6.094566, 42.082799], [-6.096732, 42.082973], [-6.098369, 42.08297], [-6.099476, 42.082791], [-6.100928, 42.082341], [-6.102723, 42.08162], [-6.104138, 42.081033], [-6.105171, 42.080579], [-6.106339, 42.08027], [-6.107643, 42.080106], [-6.10875, 42.079808], [-6.10966, 42.079374], [-6.110879, 42.079367], [-6.112405, 42.079787], [-6.113391, 42.080379], [-6.113836, 42.081142], [-6.11385, 42.081712], [-6.113432, 42.08209], [-6.113525, 42.082388], [-6.11413, 42.082609], [-6.114515, 42.082721], [-6.114678, 42.082724], [-6.115305, 42.082738], [-6.116396, 42.082763], [-6.117207, 42.082819], [-6.117737, 42.082907], [-6.117856, 42.082554], [-6.117563, 42.081762], [-6.11772, 42.081548], [-6.118325, 42.081913], [-6.118928, 42.082399], [-6.119529, 42.083005], [-6.119851, 42.083329], [-6.119893, 42.083372], [-6.120433, 42.083294], [-6.12147, 42.083097], [-6.122173, 42.083244], [-6.122539, 42.083734], [-6.12307, 42.083894], [-6.123764, 42.083724], [-6.124271, 42.083366], [-6.124591, 42.082822], [-6.124764, 42.082538], [-6.124791, 42.082513], [-6.125072, 42.082457], [-6.125606, 42.082371], [-6.126229, 42.082222], [-6.126943, 42.08201], [-6.127779, 42.081898], [-6.128739, 42.081886], [-6.129035, 42.082267], [-6.128668, 42.083043], [-6.128304, 42.083776], [-6.127945, 42.084465], [-6.127752, 42.08482], [-6.127725, 42.08484], [-6.127664, 42.085103], [-6.127568, 42.085611], [-6.128143, 42.085865], [-6.12939, 42.085865], [-6.130043, 42.085853], [-6.130101, 42.085827], [-6.130205, 42.085781], [-6.130356, 42.085715], [-6.13058, 42.085296], [-6.130877, 42.084523], [-6.131309, 42.084178], [-6.131877, 42.08426], [-6.132508, 42.084649], [-6.133204, 42.085347], [-6.133093, 42.085872], [-6.132176, 42.086224], [-6.131645, 42.086468], [-6.131501, 42.086606], [-6.131098, 42.08699], [-6.130438, 42.08762], [-6.130499, 42.087944], [-6.131283, 42.087961], [-6.132112, 42.088034], [-6.132986, 42.088162], [-6.133737, 42.088271], [-6.134364, 42.088363], [-6.13476, 42.088574], [-6.134925, 42.088903], [-6.135053, 42.089157], [-6.135143, 42.089337], [-6.135438, 42.089632], [-6.135939, 42.090043], [-6.136194, 42.090253], [-6.136201, 42.090263], [-6.136187, 42.090754], [-6.136151, 42.091726], [-6.136523, 42.093414], [-6.137304, 42.095817], [-6.138311, 42.097992], [-6.139547, 42.099939], [-6.140312, 42.101088], [-6.140607, 42.10144], [-6.141293, 42.101947], [-6.14237, 42.102609], [-6.143324, 42.103322], [-6.144155, 42.104085], [-6.144687, 42.104585], [-6.14492, 42.104822], [-6.145054, 42.104959], [-6.145091, 42.104997], [-6.144804, 42.105181], [-6.144192, 42.105512], [-6.14374, 42.105571], [-6.143448, 42.105358], [-6.143075, 42.105346], [-6.14262, 42.105536], [-6.142673, 42.105875], [-6.143234, 42.106363], [-6.144212, 42.106305], [-6.145608, 42.105702], [-6.146464, 42.105259], [-6.146782, 42.104977], [-6.147002, 42.104782], [-6.147124, 42.104674], [-6.147061, 42.104307], [-6.146813, 42.103682], [-6.14673, 42.103232], [-6.146811, 42.102958], [-6.146801, 42.102703], [-6.146699, 42.102466], [-6.146579, 42.102262], [-6.146441, 42.10209], [-6.146008, 42.101729], [-6.14528, 42.101179], [-6.145346, 42.100357], [-6.146205, 42.099263], [-6.147053, 42.098481], [-6.147889, 42.098011], [-6.148686, 42.097426], [-6.149445, 42.096725], [-6.149909, 42.096158], [-6.15008, 42.095723], [-6.150437, 42.095143], [-6.150981, 42.094418], [-6.151389, 42.094303], [-6.151663, 42.094799], [-6.152223, 42.094826], [-6.153069, 42.094385], [-6.153505, 42.09409], [-6.153529, 42.093943], [-6.15346, 42.093705], [-6.153297, 42.093377], [-6.153219, 42.093192], [-6.153227, 42.093151], [-6.153237, 42.093066], [-6.15325, 42.092938], [-6.153255, 42.09283], [-6.153253, 42.09274], [-6.15326, 42.09264], [-6.153278, 42.09253], [-6.153305, 42.092419], [-6.15334, 42.092307], [-6.153385, 42.092189], [-6.153441, 42.092064], [-6.153502, 42.091943], [-6.15357, 42.091825], [-6.153652, 42.091709], [-6.153749, 42.091595], [-6.153854, 42.091491], [-6.153966, 42.091397], [-6.15409, 42.09131], [-6.154226, 42.091229], [-6.154364, 42.091161], [-6.154504, 42.091105], [-6.154639, 42.091034], [-6.15477, 42.090946], [-6.154888, 42.09085], [-6.15499, 42.090744], [-6.155083, 42.090625], [-6.155166, 42.090492], [-6.155233, 42.090356], [-6.155284, 42.090217], [-6.155314, 42.090118], [-6.155324, 42.090061], [-6.155499, 42.089961], [-6.155837, 42.08982], [-6.156024, 42.089529], [-6.156061, 42.089089], [-6.155887, 42.088747], [-6.155504, 42.088503], [-6.155269, 42.088353], [-6.155181, 42.088297], [-6.155009, 42.088015], [-6.154754, 42.087506], [-6.154734, 42.087147], [-6.15495, 42.086938], [-6.155141, 42.086824], [-6.155307, 42.086804], [-6.155396, 42.086761], [-6.15541, 42.086695], [-6.155428, 42.08657], [-6.155452, 42.086387], [-6.155467, 42.086219], [-6.155474, 42.086067], [-6.155472, 42.085924], [-6.155461, 42.085791], [-6.155443, 42.085677], [-6.155418, 42.085583], [-6.155389, 42.085475], [-6.155356, 42.085355], [-6.155322, 42.085231], [-6.155288, 42.085103], [-6.155251, 42.084967], [-6.155211, 42.084821], [-6.155172, 42.084677], [-6.155134, 42.084536], [-6.155084, 42.084382], [-6.155022, 42.084216], [-6.154954, 42.08405], [-6.154879, 42.083884], [-6.154795, 42.083712], [-6.1547, 42.083534], [-6.154603, 42.083362], [-6.154503, 42.083198], [-6.154398, 42.083052], [-6.154288, 42.082924], [-6.154181, 42.082824], [-6.154078, 42.082752], [-6.153974, 42.082705], [-6.153869, 42.082682], [-6.153771, 42.082687], [-6.15368, 42.082718], [-6.153603, 42.082771], [-6.15354, 42.082845], [-6.153496, 42.082936], [-6.153471, 42.083042], [-6.153464, 42.083169], [-6.153475, 42.083315], [-6.153503, 42.083471], [-6.153548, 42.083636], [-6.153575, 42.08379], [-6.153584, 42.083932], [-6.153576, 42.084052], [-6.153548, 42.08415], [-6.153501, 42.08423], [-6.153435, 42.084291], [-6.153354, 42.084329], [-6.153259, 42.084345], [-6.153167, 42.084352], [-6.153077, 42.084349], [-6.152996, 42.084339], [-6.152925, 42.084319], [-6.15286, 42.08429], [-6.152802, 42.084251], [-6.152755, 42.084206], [-6.152719, 42.084155], [-6.152679, 42.084094], [-6.152635, 42.084024], [-6.152591, 42.083951], [-6.152546, 42.083874], [-6.152499, 42.08379], [-6.152449, 42.083699], [-6.152401, 42.083608], [-6.152354, 42.083517], [-6.1523, 42.083427], [-6.152238, 42.083338], [-6.152173, 42.083257], [-6.152105, 42.083184], [-6.152032, 42.083115], [-6.151953, 42.083051], [-6.151874, 42.082997], [-6.151796, 42.082952], [-6.151687, 42.082902], [-6.151549, 42.082848], [-6.151392, 42.082793], [-6.151215, 42.082737], [-6.151012, 42.082679], [-6.150782, 42.082617], [-6.15059, 42.082568], [-6.150436, 42.082532], [-6.150109, 42.08258], [-6.149609, 42.082713], [-6.149269, 42.082447], [-6.149088, 42.081781], [-6.149098, 42.081406], [-6.1493, 42.081321], [-6.149413, 42.081204], [-6.149439, 42.081053], [-6.149476, 42.080894], [-6.149526, 42.080726], [-6.149588, 42.080559], [-6.14966, 42.080394], [-6.149739, 42.080243], [-6.149823, 42.080107], [-6.149918, 42.079977], [-6.150023, 42.079854], [-6.15013, 42.079749], [-6.15024, 42.079659], [-6.150356, 42.079583], [-6.150479, 42.079519], [-6.1506, 42.079474], [-6.150718, 42.079446], [-6.150804, 42.079409], [-6.15086, 42.079363], [-6.15088, 42.079313], [-6.150864, 42.079257], [-6.150813, 42.079194], [-6.150725, 42.079123], [-6.150608, 42.07905], [-6.150462, 42.078976], [-6.150303, 42.078892], [-6.150133, 42.078801], [-6.149963, 42.078708], [-6.149795, 42.078614], [-6.149621, 42.078514], [-6.14944, 42.078409], [-6.149268, 42.078308], [-6.149103, 42.078208], [-6.148929, 42.078107], [-6.148746, 42.078004], [-6.148567, 42.077907], [-6.148393, 42.077816], [-6.148217, 42.077727], [-6.148038, 42.07764], [-6.14787, 42.077562], [-6.147714, 42.077493], [-6.147559, 42.077359], [-6.147406, 42.07716], [-6.147265, 42.076911], [-6.147138, 42.076612], [-6.147019, 42.07625], [-6.146908, 42.075827], [-6.146813, 42.075373], [-6.146735, 42.07489], [-6.146653, 42.07445], [-6.146568, 42.074052], [-6.146485, 42.073727], [-6.146405, 42.073476], [-6.146325, 42.073287], [-6.146245, 42.073161], [-6.14617, 42.073108], [-6.146101, 42.073127], [-6.146019, 42.073148], [-6.145922, 42.07317], [-6.14582, 42.073192], [-6.145711, 42.073214], [-6.145592, 42.073237], [-6.145461, 42.07326], [-6.14533, 42.073283], [-6.145198, 42.073304], [-6.145044, 42.073334], [-6.144868, 42.073372], [-6.144684, 42.073415], [-6.14449, 42.073463], [-6.14428, 42.073519], [-6.144054, 42.073582], [-6.143828, 42.073648], [-6.143603, 42.073716], [-6.143392, 42.073774], [-6.143196, 42.073823], [-6.143029, 42.073859], [-6.142892, 42.073881], [-6.142778, 42.073891], [-6.142688, 42.073889], [-6.142629, 42.073874], [-6.142601, 42.073847], [-6.142562, 42.073805], [-6.142513, 42.073747], [-6.142458, 42.073679], [-6.142396, 42.073599], [-6.142326, 42.073506], [-6.142246, 42.073398], [-6.142163, 42.073284], [-6.142078, 42.073164], [-6.141998, 42.073022], [-6.141925, 42.072857], [-6.141864, 42.072683], [-6.141814, 42.072499], [-6.141773, 42.072298], [-6.141743, 42.07208], [-6.141724, 42.071861], [-6.141718, 42.071642], [-6.141726, 42.071419], [-6.141749, 42.071192], [-6.141785, 42.070978], [-6.141834, 42.070778], [-6.141898, 42.070584], [-6.141977, 42.070395], [-6.142065, 42.070225], [-6.142162, 42.070076], [-6.14226, 42.069913], [-6.142358, 42.069737], [-6.142449, 42.069561], [-6.142534, 42.069385], [-6.142614, 42.069202], [-6.142692, 42.069012], [-6.14276, 42.06883], [-6.142818, 42.068655], [-6.142882, 42.068471], [-6.142952, 42.068278], [-6.143023, 42.06809], [-6.143094, 42.067908], [-6.143169, 42.067724], [-6.143246, 42.067538], [-6.143322, 42.067364], [-6.143394, 42.067203], [-6.143444, 42.067051], [-6.143472, 42.066908], [-6.143474, 42.066785], [-6.143452, 42.066682], [-6.143404, 42.066594], [-6.143331, 42.066523], [-6.143237, 42.066473], [-6.143123, 42.066444], [-6.142995, 42.066414], [-6.142851, 42.066382], [-6.142703, 42.06635], [-6.142551, 42.066319], [-6.142389, 42.066288], [-6.142217, 42.066256], [-6.142048, 42.066226], [-6.141881, 42.066198], [-6.141699, 42.066173], [-6.141501, 42.06615], [-6.141303, 42.066131], [-6.141104, 42.066116], [-6.140896, 42.066105], [-6.14068, 42.066098], [-6.140471, 42.066095], [-6.14027, 42.066096], [-6.140055, 42.066092], [-6.139825, 42.066082], [-6.139599, 42.066068], [-6.139376, 42.066048], [-6.139147, 42.066024], [-6.138912, 42.065994], [-6.138688, 42.06596], [-6.138477, 42.065924], [-6.138283, 42.065882], [-6.138106, 42.065836], [-6.137959, 42.065788], [-6.137842, 42.065739], [-6.137751, 42.065686], [-6.137686, 42.06563], [-6.137651, 42.065574], [-6.137647, 42.06552], [-6.137692, 42.065452], [-6.137788, 42.065369], [-6.137925, 42.06528], [-6.138105, 42.065182], [-6.138335, 42.065073], [-6.138615, 42.064952], [-6.138895, 42.064839], [-6.139177, 42.064734], [-6.139369, 42.064596], [-6.139473, 42.064425], [-6.139624, 42.064379], [-6.139822, 42.064457], [-6.140368, 42.064673], [-6.14126, 42.065025], [-6.142172, 42.065053], [-6.143104, 42.064757], [-6.144108, 42.064434], [-6.145182, 42.064086], [-6.14611, 42.063776], [-6.146893, 42.063504], [-6.14759, 42.06313], [-6.148201, 42.062654], [-6.148675, 42.062461], [-6.149011, 42.062551], [-6.149407, 42.062718], [-6.149863, 42.062963], [-6.150141, 42.063023], [-6.150241, 42.062898], [-6.15033, 42.062843], [-6.150409, 42.062859], [-6.150515, 42.062865], [-6.150648, 42.062861], [-6.150773, 42.062841], [-6.150891, 42.062806], [-6.151013, 42.062769], [-6.15114, 42.062731], [-6.151261, 42.062694], [-6.151377, 42.062658], [-6.151494, 42.062621], [-6.151609, 42.062585], [-6.151716, 42.062551], [-6.151813, 42.062519], [-6.1519, 42.06248], [-6.151976, 42.062434], [-6.152035, 42.062384], [-6.152078, 42.06233], [-6.152105, 42.06227], [-6.152119, 42.062204], [-6.152116, 42.062137], [-6.152098, 42.06207], [-6.152073, 42.061997], [-6.152043, 42.06192], [-6.152009, 42.061844], [-6.151972, 42.061769], [-6.151929, 42.061692], [-6.151881, 42.061613], [-6.151832, 42.061539], [-6.151781, 42.061468], [-6.151717, 42.061387], [-6.151641, 42.061294], [-6.151557, 42.061198], [-6.151467, 42.061097], [-6.151366, 42.060989], [-6.151254, 42.060872], [-6.15114, 42.060756], [-6.151024, 42.060641], [-6.150926, 42.06052], [-6.150845, 42.060391], [-6.150788, 42.060265], [-6.150755, 42.060143], [-6.150744, 42.060018], [-6.150756, 42.059892], [-6.150789, 42.059773], [-6.150843, 42.059662], [-6.15091, 42.059546], [-6.150988, 42.059424], [-6.151072, 42.059307], [-6.151162, 42.059195], [-6.151261, 42.059082], [-6.15137, 42.058968], [-6.15148, 42.058863], [-6.151592, 42.058766], [-6.151731, 42.058645], [-6.1519, 42.058498], [-6.152084, 42.058339], [-6.152283, 42.058166], [-6.152507, 42.057972], [-6.152754, 42.057757], [-6.153006, 42.057539], [-6.153263, 42.057316], [-6.153509, 42.057076], [-6.153741, 42.05682], [-6.15389, 42.056646], [-6.153954, 42.056554], [-6.153993, 42.056241], [-6.154007, 42.055706], [-6.154132, 42.055086], [-6.154369, 42.054382], [-6.154598, 42.054027], [-6.154817, 42.054021], [-6.154933, 42.054], [-6.154946, 42.053963], [-6.154993, 42.053902], [-6.155074, 42.053819], [-6.155173, 42.053743], [-6.155291, 42.053673], [-6.155432, 42.053607], [-6.155598, 42.053544], [-6.155774, 42.053491], [-6.155961, 42.053445], [-6.156134, 42.053403], [-6.15629, 42.053363], [-6.15642, 42.05333], [-6.156522, 42.053302], [-6.156601, 42.05328], [-6.156656, 42.053262], [-6.156685, 42.05325], [-6.156686, 42.053245], [-6.156702, 42.053216], [-6.156733, 42.053164], [-6.156778, 42.053093], [-6.156835, 42.053002], [-6.156908, 42.052889], [-6.156996, 42.052752], [-6.157092, 42.052603], [-6.157197, 42.052441], [-6.15731, 42.052276], [-6.157433, 42.052108], [-6.157554, 42.05195], [-6.157675, 42.051801], [-6.1578, 42.051656], [-6.157929, 42.051514], [-6.158053, 42.051387], [-6.158171, 42.051274], [-6.158314, 42.051165], [-6.15848, 42.05106], [-6.158657, 42.050966], [-6.158846, 42.050885], [-6.159054, 42.050812], [-6.159281, 42.050748], [-6.159509, 42.050697], [-6.159739, 42.050659], [-6.159987, 42.050624], [-6.160253, 42.050591], [-6.160515, 42.050562], [-6.160776, 42.050538], [-6.161044, 42.050518], [-6.16132, 42.050501], [-6.161583, 42.05049], [-6.161833, 42.050483], [-6.161996, 42.050482], [-6.162073, 42.050487], [-6.162119, 42.050479], [-6.162136, 42.050459], [-6.162976, 42.051129], [-6.164639, 42.052489], [-6.165296, 42.053313], [-6.164946, 42.053602], [-6.164887, 42.053886], [-6.165119, 42.054167], [-6.166058, 42.053826], [-6.167705, 42.052863], [-6.168671, 42.052474], [-6.168955, 42.052659], [-6.169571, 42.053066], [-6.170521, 42.053693], [-6.171279, 42.053975], [-6.171846, 42.053911], [-6.172024, 42.053709], [-6.171815, 42.053366], [-6.171399, 42.05284], [-6.170778, 42.052131], [-6.170654, 42.051673], [-6.171026, 42.051467], [-6.171616, 42.05156], [-6.172423, 42.051949], [-6.173181, 42.052304], [-6.173891, 42.052623], [-6.174627, 42.052894], [-6.175389, 42.053117], [-6.175792, 42.053384], [-6.175838, 42.053695], [-6.176655, 42.053548], [-6.178243, 42.052942], [-6.179254, 42.053081], [-6.179689, 42.053966], [-6.180199, 42.056199], [-6.180784, 42.059782], [-6.181268, 42.063352], [-6.181651, 42.06691], [-6.181882, 42.068752], [-6.181963, 42.068879], [-6.181947, 42.068949], [-6.181836, 42.068963], [-6.181826, 42.069609], [-6.181916, 42.070889], [-6.181973, 42.072047], [-6.181997, 42.073083], [-6.181982, 42.073949], [-6.181928, 42.074645], [-6.18184, 42.075117], [-6.181717, 42.075366], [-6.181602, 42.075616], [-6.181496, 42.075867], [-6.181407, 42.076102], [-6.181334, 42.076318], [-6.181274, 42.076526], [-6.181228, 42.076725], [-6.181199, 42.076901], [-6.181188, 42.077052], [-6.181146, 42.0772], [-6.181076, 42.077343], [-6.180982, 42.077471], [-6.180863, 42.077584], [-6.180716, 42.077687], [-6.18054, 42.077779], [-6.180348, 42.077854], [-6.180141, 42.077911], [-6.179957, 42.077984], [-6.179795, 42.078071], [-6.179668, 42.078168], [-6.179576, 42.078272], [-6.179515, 42.078389], [-6.179485, 42.078519], [-6.179489, 42.078652], [-6.179526, 42.078788], [-6.179558, 42.078928], [-6.179584, 42.079072], [-6.179604, 42.079209], [-6.179617, 42.079339], [-6.179622, 42.079468], [-6.179622, 42.079595], [-6.179614, 42.079711], [-6.1796, 42.079815], [-6.17956, 42.079918], [-6.179493, 42.080019], [-6.179405, 42.08011], [-6.179295, 42.080192], [-6.179159, 42.080268], [-6.178998, 42.080337], [-6.178823, 42.080395], [-6.178634, 42.080442], [-6.178418, 42.08049], [-6.178173, 42.080541], [-6.17792, 42.08059], [-6.177657, 42.080637], [-6.177375, 42.080684], [-6.177072, 42.080731], [-6.176773, 42.080775], [-6.176477, 42.080816], [-6.176166, 42.080862], [-6.175841, 42.080916], [-6.175527, 42.080972], [-6.175223, 42.08103], [-6.174917, 42.081093], [-6.174609, 42.08116], [-6.174323, 42.081228], [-6.174058, 42.081295], [-6.173913, 42.081342], [-6.173888, 42.081369], [-6.173543, 42.081411], [-6.172878, 42.081469], [-6.172785, 42.081734], [-6.173264, 42.082206], [-6.174043, 42.082919], [-6.175121, 42.083873], [-6.175841, 42.08445], [-6.176205, 42.08465], [-6.176392, 42.084758], [-6.176402, 42.084772], [-6.17648, 42.084928], [-6.176627, 42.085224], [-6.176765, 42.085607], [-6.176893, 42.086077], [-6.177002, 42.086598], [-6.177092, 42.08717], [-6.177166, 42.087817], [-6.177225, 42.088538], [-6.177264, 42.089279], [-6.177283, 42.090039], [-6.177314, 42.090768], [-6.177357, 42.091465], [-6.177408, 42.092078], [-6.177468, 42.092606], [-6.177539, 42.093071], [-6.177621, 42.093473], [-6.177708, 42.093782], [-6.177799, 42.093997], [-6.177893, 42.094224], [-6.177989, 42.094462], [-6.17808, 42.094695], [-6.178165, 42.094921], [-6.178249, 42.09515], [-6.178331, 42.095382], [-6.178405, 42.0956], [-6.178471, 42.095802], [-6.178525, 42.096006], [-6.178567, 42.09621], [-6.178593, 42.0964], [-6.178604, 42.096574], [-6.178599, 42.096742], [-6.17858, 42.096901], [-6.178547, 42.097041], [-6.178501, 42.097162], [-6.178471, 42.097273], [-6.178457, 42.097377], [-6.178461, 42.097464], [-6.178482, 42.097534], [-6.178522, 42.097592], [-6.178579, 42.097636], [-6.178651, 42.097663], [-6.178737, 42.097673], [-6.178841, 42.097726], [-6.178964, 42.097821], [-6.179096, 42.097952], [-6.179238, 42.098117], [-6.179395, 42.098325], [-6.179567, 42.098574], [-6.179741, 42.098846], [-6.179917, 42.099141], [-6.180093, 42.099468], [-6.18027, 42.099825], [-6.180434, 42.100186], [-6.180586, 42.100551], [-6.18073, 42.100934], [-6.180867, 42.101337], [-6.180988, 42.101727], [-6.181091, 42.102105], [-6.181173, 42.102452], [-6.181233, 42.102767], [-6.181269, 42.103026], [-6.181278, 42.10323], [-6.181262, 42.103387], [-6.181221, 42.103496], [-6.181157, 42.10355], [-6.181072, 42.103548], [-6.180963, 42.103536], [-6.18083, 42.103514], [-6.180683, 42.103485], [-6.180523, 42.103447], [-6.180343, 42.103399], [-6.180142, 42.103341], [-6.179937, 42.103278], [-6.179727, 42.103209], [-6.179522, 42.103146], [-6.179321, 42.103089], [-6.179141, 42.103041], [-6.178981, 42.103002], [-6.178834, 42.102973], [-6.178701, 42.102951], [-6.178592, 42.102939], [-6.178507, 42.102937], [-6.178435, 42.102951], [-6.178378, 42.102979], [-6.17834, 42.103021], [-6.17832, 42.103075], [-6.178318, 42.103145], [-6.178334, 42.10323], [-6.178367, 42.103324], [-6.178416, 42.103427], [-6.178467, 42.103527], [-6.178521, 42.103624], [-6.178573, 42.103712], [-6.178623, 42.103789], [-6.178673, 42.10386], [-6.178723, 42.103923], [-6.17877, 42.103976], [-6.178812, 42.104016], [-6.178877, 42.10406], [-6.178964, 42.104109], [-6.179066, 42.104158], [-6.179183, 42.104207], [-6.17932, 42.104259], [-6.179477, 42.104314], [-6.179643, 42.104366], [-6.179816, 42.104417], [-6.179986, 42.104472], [-6.180155, 42.104531], [-6.180307, 42.10459], [-6.180444, 42.104649], [-6.180571, 42.104711], [-6.180688, 42.104774], [-6.180787, 42.104835], [-6.180867, 42.104893], [-6.180974, 42.104986], [-6.181109, 42.105114], [-6.181261, 42.105266], [-6.18143, 42.105444], [-6.181624, 42.105654], [-6.181841, 42.105897], [-6.182067, 42.106153], [-6.1823, 42.106423], [-6.182499, 42.106697], [-6.182664, 42.106973], [-6.182782, 42.107232], [-6.182853, 42.107473], [-6.182881, 42.107706], [-6.182864, 42.10793], [-6.182847, 42.108059], [-6.182828, 42.108091], [-6.182584, 42.108097], [-6.182115, 42.108078], [-6.181722, 42.108702], [-6.181404, 42.10997], [-6.181291, 42.110614], [-6.181383, 42.110633], [-6.181423, 42.110682], [-6.181411, 42.11076], [-6.181425, 42.110845], [-6.181465, 42.110936], [-6.181532, 42.110998], [-6.181625, 42.11103], [-6.181732, 42.111071], [-6.181851, 42.111122], [-6.181973, 42.111177], [-6.182099, 42.111238], [-6.182234, 42.111306], [-6.182377, 42.111383], [-6.182518, 42.111461], [-6.182657, 42.111541], [-6.182778, 42.111661], [-6.182882, 42.11182], [-6.18296, 42.112006], [-6.183012, 42.11222], [-6.183042, 42.11247], [-6.183047, 42.112757], [-6.183029, 42.113057], [-6.182987, 42.113372], [-6.182891, 42.113799], [-6.182741, 42.114338], [-6.182549, 42.114947], [-6.182314, 42.115627], [-6.182026, 42.116406], [-6.181686, 42.117284], [-6.18132, 42.118193], [-6.180927, 42.119133], [-6.180546, 42.119992], [-6.180175, 42.120768], [-6.179843, 42.121402], [-6.179551, 42.121894], [-6.179286, 42.122266], [-6.179049, 42.122515], [-6.178856, 42.122624], [-6.17871, 42.122593], [-6.178551, 42.122574], [-6.178381, 42.122567], [-6.178212, 42.122573], [-6.178044, 42.122592], [-6.177871, 42.122624], [-6.177692, 42.12267], [-6.177521, 42.122726], [-6.177358, 42.122792], [-6.177214, 42.122866], [-6.177088, 42.122947], [-6.176991, 42.123029], [-6.176921, 42.123113], [-6.176877, 42.123202], [-6.176859, 42.123296], [-6.176867, 42.123387], [-6.176902, 42.123477], [-6.17695, 42.12356], [-6.177011, 42.123639], [-6.177081, 42.123706], [-6.17716, 42.123761], [-6.17725, 42.123808], [-6.177352, 42.123846], [-6.177458, 42.123871], [-6.177568, 42.123885], [-6.177672, 42.123912], [-6.177769, 42.123953], [-6.177851, 42.124004], [-6.17792, 42.124066], [-6.177977, 42.12414], [-6.178023, 42.124228], [-6.178055, 42.124321], [-6.178071, 42.124421], [-6.178082, 42.124524], [-6.178086, 42.12463], [-6.178084, 42.124731], [-6.178076, 42.124826], [-6.17806, 42.12492], [-6.178038, 42.125014], [-6.178011, 42.125098], [-6.177978, 42.125175], [-6.177936, 42.125266], [-6.177883, 42.125374], [-6.177825, 42.125488], [-6.17776, 42.12561], [-6.177686, 42.125744], [-6.177604, 42.12589], [-6.177519, 42.126038], [-6.177432, 42.126186], [-6.177382, 42.126278], [-6.177368, 42.126314], [-6.177184, 42.126453], [-6.17683, 42.126695], [-6.17666, 42.127018], [-6.176672, 42.127422], [-6.176819, 42.12772], [-6.1771, 42.127914], [-6.177304, 42.128054], [-6.177431, 42.128142], [-6.17736, 42.128302], [-6.177092, 42.128533], [-6.176639, 42.128767], [-6.176001, 42.129001], [-6.175581, 42.129141], [-6.175379, 42.129189], [-6.175013, 42.129133], [-6.174482, 42.128973], [-6.174212, 42.128886], [-6.174203, 42.128872], [-6.17412, 42.128748], [-6.173964, 42.128514], [-6.173921, 42.128275], [-6.173992, 42.128032], [-6.173857, 42.127894], [-6.173517, 42.127863], [-6.173179, 42.127874], [-6.172842, 42.127929], [-6.172448, 42.127733], [-6.171994, 42.127285], [-6.17138, 42.127175], [-6.170603, 42.127403], [-6.170473, 42.127569], [-6.170989, 42.127673], [-6.171329, 42.127777], [-6.171494, 42.127881], [-6.171571, 42.128093], [-6.171561, 42.128413], [-6.171744, 42.128622], [-6.172122, 42.12872], [-6.172324, 42.128785], [-6.172352, 42.128816], [-6.172494, 42.128981], [-6.172752, 42.12928], [-6.172436, 42.129516], [-6.171547, 42.129689], [-6.170896, 42.129766], [-6.170481, 42.129747], [-6.170168, 42.129602], [-6.169959, 42.129332], [-6.169683, 42.129145], [-6.169343, 42.129042], [-6.169223, 42.128887], [-6.169323, 42.128683], [-6.169274, 42.12843], [-6.169075, 42.128129], [-6.168778, 42.127896], [-6.168381, 42.127728], [-6.168144, 42.127599], [-6.168067, 42.127508], [-6.167937, 42.127355], [-6.167756, 42.127141], [-6.167568, 42.127124], [-6.167372, 42.127303], [-6.167247, 42.127418], [-6.167193, 42.127467], [-6.166892, 42.127667], [-6.166344, 42.128016], [-6.16582, 42.128275], [-6.16532, 42.128444], [-6.164997, 42.128438], [-6.16485, 42.128259], [-6.164646, 42.128155], [-6.164385, 42.128125], [-6.164398, 42.127993], [-6.164685, 42.127758], [-6.165256, 42.127564], [-6.166111, 42.12741], [-6.166554, 42.127313], [-6.166587, 42.127274], [-6.166589, 42.127249], [-6.166561, 42.127237], [-6.166503, 42.127193], [-6.166413, 42.127118], [-6.166335, 42.127027], [-6.166269, 42.126921], [-6.166219, 42.126807], [-6.166186, 42.126686], [-6.166161, 42.126565], [-6.166143, 42.126444], [-6.166135, 42.126332], [-6.166136, 42.126229], [-6.166146, 42.126131], [-6.166165, 42.126038], [-6.166192, 42.125958], [-6.166226, 42.125889], [-6.166267, 42.125802], [-6.166314, 42.125698], [-6.16635, 42.125618], [-6.166373, 42.125562], [-6.166631, 42.125494], [-6.167124, 42.125414], [-6.167255, 42.125204], [-6.167027, 42.124865], [-6.166867, 42.124668], [-6.166777, 42.124615], [-6.166452, 42.124422], [-6.165891, 42.124089], [-6.165854, 42.123781], [-6.166343, 42.123499], [-6.166471, 42.12329], [-6.166239, 42.123154], [-6.166147, 42.122886], [-6.166195, 42.122488], [-6.166221, 42.122257], [-6.166227, 42.122193], [-6.166224, 42.122148], [-6.166212, 42.122121], [-6.166174, 42.122056], [-6.16611, 42.121954], [-6.166047, 42.121872], [-6.165985, 42.12181], [-6.165922, 42.121767], [-6.165858, 42.121741], [-6.165797, 42.121736], [-6.16574, 42.12175], [-6.165681, 42.121764], [-6.16562, 42.121778], [-6.165562, 42.121791], [-6.165507, 42.121803], [-6.165453, 42.121814], [-6.165399, 42.121824], [-6.16535, 42.121833], [-6.165306, 42.12184], [-6.165245, 42.121845], [-6.165169, 42.121847], [-6.165083, 42.121847], [-6.164987, 42.121844], [-6.164876, 42.121838], [-6.164752, 42.121829], [-6.164623, 42.121819], [-6.16449, 42.121806], [-6.16436, 42.121777], [-6.164234, 42.121733], [-6.164122, 42.121676], [-6.164022, 42.121606], [-6.163932, 42.121521], [-6.163851, 42.12142], [-6.163786, 42.121312], [-6.163736, 42.121196], [-6.163701, 42.121068], [-6.163683, 42.120927], [-6.163682, 42.120784], [-6.163698, 42.12064], [-6.163732, 42.120488], [-6.163783, 42.120328], [-6.163849, 42.120173], [-6.163929, 42.120022], [-6.164002, 42.119875], [-6.164069, 42.119731], [-6.164124, 42.119601], [-6.164168, 42.119486], [-6.164202, 42.11938], [-6.164227, 42.119284], [-6.16424, 42.119204], [-6.164242, 42.119142], [-6.164241, 42.119072], [-6.164238, 42.118995], [-6.164233, 42.118915], [-6.164226, 42.118834], [-6.164217, 42.118748], [-6.164206, 42.118657], [-6.164193, 42.118568], [-6.164178, 42.118481], [-6.164139, 42.118401], [-6.164075, 42.118329], [-6.163992, 42.118269], [-6.163889, 42.118222], [-6.163762, 42.118187], [-6.163611, 42.118162], [-6.163447, 42.11815], [-6.163272, 42.118151], [-6.163097, 42.118049], [-6.162924, 42.117844], [-6.1627, 42.117778], [-6.162428, 42.117852], [-6.1621, 42.118043], [-6.161716, 42.118351], [-6.161698, 42.118574], [-6.162047, 42.11871], [-6.16222, 42.118784], [-6.162217, 42.118797], [-6.162214, 42.118859], [-6.16221, 42.118972], [-6.162214, 42.119086], [-6.162227, 42.119201], [-6.162244, 42.119328], [-6.162267, 42.119466], [-6.162292, 42.119606], [-6.16232, 42.119747], [-6.162353, 42.119895], [-6.162389, 42.12005], [-6.162427, 42.1202], [-6.162467, 42.120345], [-6.16249, 42.12049], [-6.162497, 42.120636], [-6.162487, 42.12077], [-6.162461, 42.120894], [-6.162416, 42.121012], [-6.162354, 42.121124], [-6.162278, 42.121222], [-6.162189, 42.121305], [-6.162099, 42.121385], [-6.162006, 42.121462], [-6.161918, 42.12153], [-6.161835, 42.121589], [-6.161754, 42.121642], [-6.161675, 42.121687], [-6.161603, 42.121723], [-6.161539, 42.121748], [-6.161484, 42.121774], [-6.161437, 42.121799], [-6.161402, 42.121822], [-6.161379, 42.121844], [-6.161367, 42.121864], [-6.161367, 42.121883], [-6.161378, 42.121899], [-6.1614, 42.121913], [-6.161415, 42.121933], [-6.161424, 42.121959], [-6.161426, 42.12199], [-6.161421, 42.122025], [-6.161408, 42.122065], [-6.161388, 42.122111], [-6.161362, 42.122159], [-6.16133, 42.12221], [-6.161289, 42.122269], [-6.161238, 42.122339], [-6.161182, 42.122412], [-6.161121, 42.122489], [-6.161052, 42.122574], [-6.160974, 42.122665], [-6.160895, 42.122758], [-6.160814, 42.12285], [-6.160748, 42.12295], [-6.160697, 42.123058], [-6.160522, 42.123098], [-6.160222, 42.123071], [-6.160095, 42.123284], [-6.160141, 42.12374], [-6.160237, 42.124117], [-6.160382, 42.124415], [-6.16058, 42.124817], [-6.160828, 42.125324], [-6.160839, 42.125625], [-6.160611, 42.12572], [-6.160428, 42.125763], [-6.16029, 42.125755], [-6.160161, 42.125747], [-6.160041, 42.125739], [-6.159825, 42.125732], [-6.159511, 42.125725], [-6.15922, 42.125838], [-6.158951, 42.126069], [-6.159043, 42.126192], [-6.159495, 42.126205], [-6.159786, 42.126235], [-6.159916, 42.126282], [-6.160013, 42.126317], [-6.160078, 42.12634], [-6.160034, 42.126452], [-6.159881, 42.126652], [-6.159781, 42.126785], [-6.159732, 42.126848], [-6.159491, 42.126872], [-6.159058, 42.126856], [-6.158787, 42.126936], [-6.158679, 42.127113], [-6.158628, 42.127353], [-6.158632, 42.127656], [-6.158767, 42.127866], [-6.159033, 42.127982], [-6.159222, 42.128074], [-6.159336, 42.128142], [-6.159441, 42.128204], [-6.159537, 42.128262], [-6.159514, 42.128371], [-6.159372, 42.128531], [-6.159238, 42.128683], [-6.159112, 42.128827], [-6.1591, 42.1289], [-6.159202, 42.128904], [-6.159389, 42.128909], [-6.15966, 42.128918], [-6.160158, 42.129464], [-6.160881, 42.130548], [-6.161319, 42.131295], [-6.161469, 42.131705], [-6.161448, 42.132131], [-6.161256, 42.132574], [-6.161125, 42.132878], [-6.161053, 42.133043], [-6.160999, 42.133237], [-6.160962, 42.13346], [-6.161087, 42.133517], [-6.161372, 42.133408], [-6.161637, 42.133307], [-6.161882, 42.133214], [-6.162112, 42.133316], [-6.16233, 42.133614], [-6.1624, 42.13387], [-6.162322, 42.134086], [-6.162228, 42.134528], [-6.162117, 42.135198], [-6.16198, 42.135622], [-6.161815, 42.1358], [-6.161719, 42.135946], [-6.161691, 42.136059], [-6.161543, 42.136195], [-6.161273, 42.136356], [-6.160611, 42.137151], [-6.159558, 42.138582], [-6.158073, 42.139359], [-6.156156, 42.139483], [-6.154898, 42.139267], [-6.154299, 42.138713], [-6.153723, 42.138568], [-6.153171, 42.138831], [-6.152956, 42.139029], [-6.153079, 42.139162], [-6.153189, 42.139282], [-6.153288, 42.139388], [-6.153146, 42.139422], [-6.152765, 42.139382], [-6.152473, 42.139386], [-6.152272, 42.139433], [-6.15217, 42.139408], [-6.152168, 42.13931], [-6.152164, 42.139115], [-6.152157, 42.138824], [-6.151728, 42.138725], [-6.150877, 42.13882], [-6.150398, 42.138988], [-6.150294, 42.139227], [-6.150216, 42.139407], [-6.150164, 42.139525], [-6.149939, 42.139711], [-6.14954, 42.139964], [-6.149259, 42.140328], [-6.149095, 42.140804], [-6.148885, 42.141152], [-6.148629, 42.141374], [-6.148494, 42.14149], [-6.148483, 42.1415], [-6.148314, 42.141553], [-6.14799, 42.141649], [-6.147807, 42.141766], [-6.147766, 42.141903], [-6.147544, 42.142019], [-6.147141, 42.142113], [-6.146848, 42.142255], [-6.146665, 42.142444], [-6.146481, 42.14258], [-6.146296, 42.142665], [-6.146201, 42.142708], [-6.146197, 42.14271], [-6.146184, 42.142715], [-6.146163, 42.142725], [-6.146139, 42.142732], [-6.146113, 42.142736], [-6.146079, 42.142738], [-6.146037, 42.142737], [-6.145988, 42.142734], [-6.145934, 42.142727], [-6.145876, 42.142718], [-6.145817, 42.142707], [-6.145741, 42.142699], [-6.145648, 42.142695], [-6.145546, 42.142695], [-6.145435, 42.142699], [-6.145309, 42.142707], [-6.145169, 42.142719], [-6.145026, 42.142734], [-6.14488, 42.142753], [-6.144723, 42.142781], [-6.144556, 42.14282], [-6.144392, 42.142865], [-6.144231, 42.142917], [-6.144065, 42.142979], [-6.143895, 42.143049], [-6.143735, 42.143124], [-6.143583, 42.143202], [-6.143441, 42.143285], [-6.14331, 42.143373], [-6.143202, 42.143456], [-6.143118, 42.143535], [-6.14291, 42.143576], [-6.142579, 42.143578], [-6.142395, 42.143774], [-6.14236, 42.144164], [-6.142446, 42.144394], [-6.142654, 42.144465], [-6.142749, 42.144544], [-6.142734, 42.14463], [-6.1427, 42.14481], [-6.142649, 42.145084], [-6.142464, 42.145326], [-6.142145, 42.145535], [-6.141786, 42.145646], [-6.141388, 42.145659], [-6.14105, 42.14567], [-6.140772, 42.145679], [-6.140557, 42.145789], [-6.140403, 42.145998], [-6.140309, 42.146127], [-6.140274, 42.146175], [-6.140213, 42.146198], [-6.140126, 42.146195], [-6.139948, 42.146189], [-6.139679, 42.14618], [-6.13942, 42.146152], [-6.139172, 42.146105], [-6.138949, 42.146106], [-6.138751, 42.146155], [-6.138642, 42.145972], [-6.138623, 42.145556], [-6.138492, 42.145377], [-6.138249, 42.145434], [-6.137734, 42.145701], [-6.136946, 42.146178], [-6.136176, 42.146426], [-6.135424, 42.146446], [-6.135038, 42.146456], [-6.13502, 42.146457], [-6.134815, 42.146559], [-6.134424, 42.146762], [-6.13398, 42.14686], [-6.133484, 42.146853], [-6.133185, 42.146788], [-6.133081, 42.146666], [-6.132892, 42.146569], [-6.132619, 42.146499], [-6.132139, 42.146377], [-6.131452, 42.146201], [-6.130944, 42.1462], [-6.130615, 42.146376], [-6.130516, 42.146619], [-6.130648, 42.146929], [-6.130275, 42.147243], [-6.129396, 42.14756], [-6.128922, 42.147781], [-6.128851, 42.147905], [-6.128764, 42.148059], [-6.128659, 42.148243], [-6.128256, 42.148426], [-6.127553, 42.14861], [-6.126976, 42.148433], [-6.126524, 42.147895], [-6.126331, 42.147602], [-6.126397, 42.147554], [-6.126642, 42.147375], [-6.127067, 42.147064], [-6.12753, 42.146964], [-6.12803, 42.147075], [-6.128275, 42.147026], [-6.128266, 42.146818], [-6.127709, 42.146542], [-6.126604, 42.146197], [-6.12588, 42.146037], [-6.125538, 42.14606], [-6.125353, 42.146072], [-6.125326, 42.146074], [-6.1253, 42.146069], [-6.125276, 42.146055], [-6.12478, 42.145787], [-6.123812, 42.145262], [-6.12294, 42.144828], [-6.122164, 42.144482], [-6.12122, 42.144251], [-6.120106, 42.144135], [-6.119327, 42.144296], [-6.118882, 42.144735], [-6.118493, 42.144947], [-6.118159, 42.144931], [-6.11792, 42.145004], [-6.117776, 42.145167], [-6.117517, 42.145166], [-6.117143, 42.144999], [-6.116971, 42.144713], [-6.117002, 42.144307], [-6.116927, 42.143943], [-6.116746, 42.143623], [-6.116491, 42.143595], [-6.116163, 42.143858], [-6.116001, 42.144172], [-6.116007, 42.144538], [-6.116016, 42.144877], [-6.11603, 42.145189], [-6.116078, 42.145433], [-6.116159, 42.145609], [-6.115787, 42.145789], [-6.114961, 42.145973], [-6.114784, 42.14635], [-6.115256, 42.146921], [-6.115761, 42.147423], [-6.1163, 42.147857], [-6.116826, 42.148175], [-6.117338, 42.148378], [-6.117617, 42.148781], [-6.117663, 42.149384], [-6.117455, 42.149581], [-6.116992, 42.149372], [-6.116255, 42.149037], [-6.115243, 42.148578], [-6.11468, 42.148489], [-6.114568, 42.148769], [-6.114589, 42.149019], [-6.114743, 42.149238], [-6.114824, 42.149452], [-6.114834, 42.14966], [-6.114679, 42.149868], [-6.114359, 42.150077], [-6.114392, 42.150332], [-6.114779, 42.150631], [-6.114907, 42.150919], [-6.114776, 42.151196], [-6.114217, 42.151414], [-6.11323, 42.151574], [-6.112395, 42.151856], [-6.111712, 42.152261], [-6.111413, 42.152547], [-6.111496, 42.152713], [-6.111964, 42.153081], [-6.112816, 42.153649], [-6.11363, 42.154237], [-6.114407, 42.154844], [-6.115214, 42.155263], [-6.116053, 42.155494], [-6.116426, 42.155914], [-6.116332, 42.156522], [-6.116214, 42.156996], [-6.11607, 42.157333], [-6.116237, 42.157603], [-6.116716, 42.157805], [-6.116897, 42.158047], [-6.116782, 42.158331], [-6.116683, 42.158574], [-6.116601, 42.158776], [-6.116499, 42.158913], [-6.116378, 42.158985], [-6.116453, 42.159218], [-6.116724, 42.15961], [-6.114043, 42.160307], [-6.108411, 42.161306], [-6.105717, 42.161952], [-6.105961, 42.162245], [-6.106567, 42.162399], [-6.107536, 42.162417], [-6.108044, 42.162466], [-6.108089, 42.162546], [-6.108072, 42.162959], [-6.107992, 42.163705], [-6.108694, 42.164629], [-6.110177, 42.16573], [-6.111017, 42.166354], [-6.111213, 42.166499], [-6.111649, 42.166561], [-6.112325, 42.166538], [-6.112785, 42.166891], [-6.11303, 42.16762], [-6.112517, 42.168331], [-6.111248, 42.169026], [-6.110395, 42.170823], [-6.109958, 42.173721], [-6.109778, 42.175785], [-6.109852, 42.177012], [-6.109942, 42.178167], [-6.110048, 42.17925], [-6.109982, 42.179828], [-6.109743, 42.179902], [-6.109653, 42.180265], [-6.109713, 42.180919], [-6.109648, 42.1812], [-6.109459, 42.181109], [-6.109328, 42.180798], [-6.109254, 42.180269], [-6.108819, 42.180051], [-6.108021, 42.180146], [-6.107865, 42.180869], [-6.10835, 42.182222], [-6.108554, 42.183193], [-6.108479, 42.183781], [-6.108227, 42.184241], [-6.1078, 42.184572], [-6.107417, 42.184852], [-6.107079, 42.185081], [-6.106532, 42.185319], [-6.105775, 42.185563], [-6.105297, 42.185754], [-6.105099, 42.185891], [-6.105095, 42.186267], [-6.105286, 42.186882], [-6.105099, 42.187235], [-6.104536, 42.187326], [-6.104209, 42.187382], [-6.10412, 42.187403], [-6.104079, 42.187428], [-6.104088, 42.187456], [-6.104224, 42.188147], [-6.104487, 42.189498], [-6.104346, 42.190193], [-6.103801, 42.190229], [-6.103516, 42.190547], [-6.10349, 42.191144], [-6.103527, 42.191889], [-6.103628, 42.19278], [-6.103859, 42.193371], [-6.104221, 42.193662], [-6.104461, 42.193805], [-6.104579, 42.193799], [-6.104881, 42.193785], [-6.105367, 42.193763], [-6.10584, 42.193819], [-6.1063, 42.193954], [-6.1069, 42.193996], [-6.10764, 42.193947], [-6.108394, 42.194383], [-6.109162, 42.195306], [-6.109926, 42.196038], [-6.110685, 42.196578], [-6.110514, 42.19699], [-6.109414, 42.197273], [-6.108752, 42.197523], [-6.108527, 42.19774], [-6.108266, 42.197992], [-6.107969, 42.198278], [-6.108064, 42.198539], [-6.108551, 42.198774], [-6.109215, 42.198964], [-6.110054, 42.199107], [-6.110745, 42.199397], [-6.111287, 42.199833], [-6.111753, 42.200132], [-6.112144, 42.200293], [-6.11278, 42.200557], [-6.113663, 42.200922], [-6.11442, 42.201228], [-6.115052, 42.201475], [-6.115152, 42.202023], [-6.114721, 42.202871], [-6.114277, 42.203746], [-6.113818, 42.204648], [-6.114023, 42.205482], [-6.11489, 42.20625], [-6.115569, 42.207013], [-6.116058, 42.207772], [-6.116454, 42.208248], [-6.116758, 42.208441], [-6.117043, 42.208622], [-6.117308, 42.20879], [-6.117409, 42.209013], [-6.117346, 42.209291], [-6.117292, 42.209526], [-6.117248, 42.20972], [-6.117347, 42.209939], [-6.117589, 42.210182], [-6.117978, 42.210573], [-6.118513, 42.211111], [-6.119071, 42.21184], [-6.11965, 42.212759], [-6.1205, 42.213721], [-6.121622, 42.214726], [-6.121596, 42.215612], [-6.120425, 42.216377], [-6.119785, 42.216795], [-6.119677, 42.216865], [-6.11969, 42.216977], [-6.119825, 42.217131], [-6.120132, 42.217482], [-6.120613, 42.218032], [-6.120805, 42.218821], [-6.120708, 42.21985], [-6.120596, 42.22067], [-6.120469, 42.221281], [-6.120398, 42.221625], [-6.120382, 42.2217], [-6.120442, 42.222214], [-6.120579, 42.223169], [-6.120657, 42.223715], [-6.120676, 42.223852], [-6.120763, 42.224031], [-6.120917, 42.22425], [-6.121341, 42.224339], [-6.122036, 42.224296], [-6.122389, 42.224553], [-6.122399, 42.22511], [-6.122305, 42.225544], [-6.122107, 42.225856], [-6.12229, 42.226699], [-6.122852, 42.228074], [-6.123559, 42.229025], [-6.124408, 42.229551], [-6.124681, 42.230467], [-6.124377, 42.231773], [-6.123805, 42.232267], [-6.122965, 42.231949], [-6.122076, 42.231884], [-6.121138, 42.23207], [-6.120204, 42.232274], [-6.119275, 42.232494], [-6.118641, 42.232505], [-6.118303, 42.232307], [-6.11712, 42.232209], [-6.115093, 42.23221], [-6.113336, 42.232405], [-6.11185, 42.232793], [-6.110606, 42.233581], [-6.109605, 42.234769], [-6.108959, 42.235462], [-6.108666, 42.235659], [-6.108523, 42.235773], [-6.108532, 42.235805], [-6.108318, 42.235939], [-6.107881, 42.236176], [-6.107975, 42.236663], [-6.108599, 42.2374], [-6.108956, 42.23779], [-6.109045, 42.237833], [-6.109397, 42.238003], [-6.110013, 42.2383], [-6.111063, 42.239096], [-6.112546, 42.240392], [-6.113028, 42.241228], [-6.112508, 42.241603], [-6.112373, 42.241919], [-6.112622, 42.242175], [-6.112786, 42.242589], [-6.112863, 42.243163], [-6.112868, 42.243497]]]}}]}