{"type": "FeatureCollection", "name": "VILLADELPRADO", "features": [{"type": "Feature", "properties": {"id": "567459", "FIREDATE": "2026-07-24T01:34:00", "FINALDATE": "2026-07-26T10:09:00", "LASTUPDATE": "2026-07-24 13:27:44.17917", "COUNTRY": "ES", "PROVINCE": "Madrid", "COMMUNE": "Villa del Prado", "AREA_HA": 3673.0, "BROADLEA": 41.7256, "CONIFER": 2.5313, "MIXED": 8.601, "SCLEROPH": 23.0539, "TRANSIT": 7.0495, "OTHERNATLC": 4.9537, "AGRIAREAS": 11.2956, "ARTIFSURF": 0.7893, "OTHERLC": 0.0, "PERCNA2K": 99.0238, "CLASS": "7DAYS", "AÑO": 2026, "LATITUD": 40.30067929769869, "LONGITUD": -4.313978791494424}, "geometry": {"type": "Polygon", "coordinates": [[[-4.325909, 40.275441], [-4.326223, 40.275989], [-4.32668, 40.276848], [-4.327083, 40.277745], [-4.32743, 40.278678], [-4.327729, 40.279445], [-4.327979, 40.280044], [-4.328181, 40.280476], [-4.328334, 40.280741], [-4.329, 40.280836], [-4.33018, 40.280762], [-4.331873, 40.280518], [-4.33408, 40.280105], [-4.336175, 40.279919], [-4.338159, 40.279962], [-4.34003, 40.280232], [-4.341791, 40.280731], [-4.343909, 40.281446], [-4.346385, 40.282377], [-4.349219, 40.283523], [-4.352412, 40.284885], [-4.35508, 40.286024], [-4.357224, 40.28694], [-4.358844, 40.287633], [-4.359939, 40.288103], [-4.360807, 40.289018], [-4.361446, 40.290377], [-4.361858, 40.292181], [-4.362042, 40.294429], [-4.36236, 40.296547], [-4.362814, 40.298534], [-4.363403, 40.300391], [-4.364126, 40.302117], [-4.364648, 40.303589], [-4.364967, 40.304806], [-4.365084, 40.305768], [-4.364998, 40.306476], [-4.364703, 40.307168], [-4.364198, 40.307843], [-4.363484, 40.308501], [-4.36256, 40.309143], [-4.361576, 40.309794], [-4.360532, 40.310454], [-4.359428, 40.311122], [-4.358265, 40.3118], [-4.35718, 40.312371], [-4.356174, 40.312835], [-4.355247, 40.313193], [-4.354398, 40.313445], [-4.353225, 40.313585], [-4.351726, 40.313615], [-4.349903, 40.313533], [-4.347756, 40.31334], [-4.345787, 40.313429], [-4.343998, 40.313799], [-4.342388, 40.314451], [-4.340958, 40.315385], [-4.339873, 40.316162], [-4.339135, 40.316782], [-4.338742, 40.317246], [-4.338696, 40.317553], [-4.338625, 40.317936], [-4.33853, 40.318395], [-4.338411, 40.318931], [-4.338267, 40.319543], [-4.338101, 40.32015], [-4.337914, 40.320752], [-4.337706, 40.32135], [-4.337477, 40.321944], [-4.337226, 40.322533], [-4.336954, 40.323117], [-4.336661, 40.323696], [-4.336346, 40.324271], [-4.336038, 40.324806], [-4.335735, 40.325301], [-4.335439, 40.325757], [-4.335149, 40.326173], [-4.334865, 40.326549], [-4.334587, 40.326885], [-4.334315, 40.327182], [-4.334049, 40.327438], [-4.333742, 40.32767], [-4.333394, 40.327877], [-4.333005, 40.328058], [-4.332575, 40.328215], [-4.332103, 40.328347], [-4.331591, 40.328453], [-4.331037, 40.328535], [-4.330442, 40.328591], [-4.329825, 40.328639], [-4.329185, 40.328679], [-4.328524, 40.328711], [-4.32784, 40.328734], [-4.327134, 40.328748], [-4.326406, 40.328754], [-4.325656, 40.328752], [-4.324884, 40.328741], [-4.324109, 40.3287], [-4.323333, 40.328628], [-4.322555, 40.328525], [-4.321775, 40.328391], [-4.320992, 40.328226], [-4.320208, 40.328031], [-4.319422, 40.327804], [-4.318634, 40.327547], [-4.31782, 40.327263], [-4.316979, 40.326951], [-4.316112, 40.326613], [-4.315218, 40.326247], [-4.314298, 40.325854], [-4.313351, 40.325433], [-4.312378, 40.324986], [-4.311378, 40.324511], [-4.310417, 40.324046], [-4.309493, 40.323592], [-4.308606, 40.323147], [-4.307758, 40.322712], [-4.306947, 40.322287], [-4.306174, 40.321873], [-4.305439, 40.321468], [-4.304741, 40.321073], [-4.304321, 40.320832], [-4.304178, 40.320745], [-4.301199, 40.320756], [-4.295385, 40.320864], [-4.290707, 40.320516], [-4.287165, 40.319712], [-4.284093, 40.31978], [-4.281491, 40.320719], [-4.27935, 40.322288], [-4.27767, 40.324485], [-4.276694, 40.325987], [-4.276423, 40.326793], [-4.274197, 40.327189], [-4.270016, 40.327175], [-4.265282, 40.327521], [-4.259993, 40.328226], [-4.256825, 40.328272], [-4.255778, 40.327659], [-4.256531, 40.326574], [-4.259084, 40.325015], [-4.262221, 40.323232], [-4.265942, 40.321224], [-4.267286, 40.319145], [-4.266254, 40.316998], [-4.26575, 40.314773], [-4.265772, 40.31247], [-4.266636, 40.310457], [-4.26834, 40.308734], [-4.269226, 40.307837], [-4.269294, 40.307768], [-4.270018, 40.306971], [-4.271396, 40.305445], [-4.272058, 40.304541], [-4.272002, 40.30426], [-4.271686, 40.302669], [-4.271111, 40.299768], [-4.271124, 40.297438], [-4.271723, 40.295678], [-4.273092, 40.29391], [-4.27523, 40.292133], [-4.278106, 40.290805], [-4.281718, 40.289927], [-4.283925, 40.288453], [-4.284726, 40.286385], [-4.28612, 40.284926], [-4.288105, 40.284077], [-4.291043, 40.283227], [-4.294934, 40.282377], [-4.297221, 40.282264], [-4.297904, 40.282891], [-4.298378, 40.283174], [-4.298641, 40.283115], [-4.29886, 40.283173], [-4.299035, 40.283346], [-4.299659, 40.283598], [-4.300732, 40.283928], [-4.302376, 40.284174], [-4.304591, 40.284336], [-4.306867, 40.283966], [-4.309203, 40.283065], [-4.310608, 40.282057], [-4.311081, 40.280943], [-4.311127, 40.279751], [-4.310748, 40.278483], [-4.310259, 40.277127], [-4.309658, 40.275683], [-4.308634, 40.27437], [-4.307186, 40.27319], [-4.306032, 40.272105], [-4.305172, 40.271117], [-4.303901, 40.270712], [-4.302217, 40.27089], [-4.300639, 40.271331], [-4.299165, 40.272035], [-4.298163, 40.272392], [-4.297631, 40.272402], [-4.296818, 40.272417], [-4.295723, 40.272437], [-4.29448, 40.271783], [-4.29309, 40.270455], [-4.292706, 40.269362], [-4.293328, 40.268504], [-4.293929, 40.267754], [-4.294509, 40.267111], [-4.294852, 40.266225], [-4.294958, 40.265094], [-4.295194, 40.263736], [-4.29556, 40.262149], [-4.296416, 40.261326], [-4.297764, 40.261268], [-4.298806, 40.261463], [-4.299543, 40.261912], [-4.301017, 40.262008], [-4.303227, 40.261753], [-4.305266, 40.261941], [-4.307133, 40.262572], [-4.308655, 40.26308], [-4.309831, 40.263464], [-4.310485, 40.263947], [-4.310617, 40.26453], [-4.310747, 40.265103], [-4.310875, 40.265667], [-4.311963, 40.26646], [-4.31401, 40.267482], [-4.315681, 40.268247], [-4.316976, 40.268753], [-4.3186, 40.269499], [-4.320552, 40.270486], [-4.321834, 40.271133], [-4.322444, 40.271441], [-4.323512, 40.272354], [-4.325037, 40.273871], [-4.325763, 40.274744], [-4.32569, 40.274972], [-4.325738, 40.275204], [-4.325909, 40.275441]]]}}]}